<?xml version="1.0" encoding="UTF-8"?>
<gpx version="1.1" creator="BosqueAbierto" xmlns="http://www.topografix.com/GPX/1/1">
<trk><name>Angol Runners</name><trkseg>
<trkpt lat="-37.846424" lon="-72.729337"><ele>106.8</ele></trkpt>
<trkpt lat="-37.846703" lon="-72.729867"><ele>113.9</ele></trkpt>
<trkpt lat="-37.846753" lon="-72.730240"><ele>111.4</ele></trkpt>
<trkpt lat="-37.846924" lon="-72.730532"><ele>110.8</ele></trkpt>
<trkpt lat="-37.846972" lon="-72.731341"><ele>107.5</ele></trkpt>
<trkpt lat="-37.847124" lon="-72.731839"><ele>106.2</ele></trkpt>
<trkpt lat="-37.847628" lon="-72.732099"><ele>104.1</ele></trkpt>
<trkpt lat="-37.847750" lon="-72.732429"><ele>103.6</ele></trkpt>
<trkpt lat="-37.847356" lon="-72.732366"><ele>103.3</ele></trkpt>
<trkpt lat="-37.847160" lon="-72.732464"><ele>105.3</ele></trkpt>
<trkpt lat="-37.846892" lon="-72.732979"><ele>114.4</ele></trkpt>
<trkpt lat="-37.846524" lon="-72.735116"><ele>115.0</ele></trkpt>
<trkpt lat="-37.846543" lon="-72.735496"><ele>117.9</ele></trkpt>
<trkpt lat="-37.846701" lon="-72.735887"><ele>125.0</ele></trkpt>
<trkpt lat="-37.846791" lon="-72.736853"><ele>121.0</ele></trkpt>
<trkpt lat="-37.846665" lon="-72.737356"><ele>118.5</ele></trkpt>
<trkpt lat="-37.846365" lon="-72.738063"><ele>117.3</ele></trkpt>
<trkpt lat="-37.845862" lon="-72.738948"><ele>116.5</ele></trkpt>
<trkpt lat="-37.845853" lon="-72.739709"><ele>121.1</ele></trkpt>
<trkpt lat="-37.845924" lon="-72.739806"><ele>121.2</ele></trkpt>
<trkpt lat="-37.846071" lon="-72.741228"><ele>124.4</ele></trkpt>
<trkpt lat="-37.846289" lon="-72.741855"><ele>128.1</ele></trkpt>
<trkpt lat="-37.846458" lon="-72.742772"><ele>130.8</ele></trkpt>
<trkpt lat="-37.847654" lon="-72.743832"><ele>147.2</ele></trkpt>
<trkpt lat="-37.848153" lon="-72.744648"><ele>157.1</ele></trkpt>
<trkpt lat="-37.848429" lon="-72.745383"><ele>164.9</ele></trkpt>
<trkpt lat="-37.848682" lon="-72.745754"><ele>169.6</ele></trkpt>
<trkpt lat="-37.848671" lon="-72.745848"><ele>170.6</ele></trkpt>
<trkpt lat="-37.848505" lon="-72.745932"><ele>169.4</ele></trkpt>
<trkpt lat="-37.847932" lon="-72.745909"><ele>166.0</ele></trkpt>
<trkpt lat="-37.847836" lon="-72.745637"><ele>158.5</ele></trkpt>
<trkpt lat="-37.847609" lon="-72.745478"><ele>157.7</ele></trkpt>
<trkpt lat="-37.846964" lon="-72.744547"><ele>136.8</ele></trkpt>
<trkpt lat="-37.846814" lon="-72.744502"><ele>132.7</ele></trkpt>
<trkpt lat="-37.846609" lon="-72.744627"><ele>134.1</ele></trkpt>
<trkpt lat="-37.845941" lon="-72.745713"><ele>142.1</ele></trkpt>
<trkpt lat="-37.846152" lon="-72.746881"><ele>145.9</ele></trkpt>
<trkpt lat="-37.846424" lon="-72.747222"><ele>146.0</ele></trkpt>
<trkpt lat="-37.846505" lon="-72.747452"><ele>146.8</ele></trkpt>
<trkpt lat="-37.846125" lon="-72.749035"><ele>148.5</ele></trkpt>
<trkpt lat="-37.846352" lon="-72.751345"><ele>149.8</ele></trkpt>
<trkpt lat="-37.846598" lon="-72.752016"><ele>149.9</ele></trkpt>
<trkpt lat="-37.846623" lon="-72.752671"><ele>149.0</ele></trkpt>
<trkpt lat="-37.846733" lon="-72.753105"><ele>149.6</ele></trkpt>
<trkpt lat="-37.846737" lon="-72.753904"><ele>148.9</ele></trkpt>
<trkpt lat="-37.846919" lon="-72.754963"><ele>147.8</ele></trkpt>
<trkpt lat="-37.847556" lon="-72.756398"><ele>148.5</ele></trkpt>
<trkpt lat="-37.847614" lon="-72.756717"><ele>148.1</ele></trkpt>
<trkpt lat="-37.847551" lon="-72.757030"><ele>147.9</ele></trkpt>
<trkpt lat="-37.847373" lon="-72.757416"><ele>150.1</ele></trkpt>
<trkpt lat="-37.847102" lon="-72.757634"><ele>150.5</ele></trkpt>
<trkpt lat="-37.846761" lon="-72.758236"><ele>152.0</ele></trkpt>
<trkpt lat="-37.846482" lon="-72.758502"><ele>153.9</ele></trkpt>
<trkpt lat="-37.846261" lon="-72.759614"><ele>164.9</ele></trkpt>
<trkpt lat="-37.845918" lon="-72.760131"><ele>170.0</ele></trkpt>
<trkpt lat="-37.845539" lon="-72.760465"><ele>173.7</ele></trkpt>
<trkpt lat="-37.845247" lon="-72.761396"><ele>176.5</ele></trkpt>
<trkpt lat="-37.844922" lon="-72.761685"><ele>176.0</ele></trkpt>
<trkpt lat="-37.844573" lon="-72.761829"><ele>178.1</ele></trkpt>
<trkpt lat="-37.844123" lon="-72.761803"><ele>181.9</ele></trkpt>
<trkpt lat="-37.843093" lon="-72.761190"><ele>183.9</ele></trkpt>
<trkpt lat="-37.842824" lon="-72.761177"><ele>185.4</ele></trkpt>
<trkpt lat="-37.842498" lon="-72.761472"><ele>186.7</ele></trkpt>
<trkpt lat="-37.842130" lon="-72.762009"><ele>188.1</ele></trkpt>
<trkpt lat="-37.841336" lon="-72.761829"><ele>189.4</ele></trkpt>
<trkpt lat="-37.840668" lon="-72.762087"><ele>192.0</ele></trkpt>
<trkpt lat="-37.840206" lon="-72.762580"><ele>194.0</ele></trkpt>
<trkpt lat="-37.840070" lon="-72.762946"><ele>195.1</ele></trkpt>
<trkpt lat="-37.840026" lon="-72.763517"><ele>196.9</ele></trkpt>
<trkpt lat="-37.839951" lon="-72.763699"><ele>197.5</ele></trkpt>
<trkpt lat="-37.839663" lon="-72.763906"><ele>198.8</ele></trkpt>
<trkpt lat="-37.839406" lon="-72.763971"><ele>198.2</ele></trkpt>
<trkpt lat="-37.839350" lon="-72.764130"><ele>198.2</ele></trkpt>
<trkpt lat="-37.839534" lon="-72.764831"><ele>196.8</ele></trkpt>
<trkpt lat="-37.839492" lon="-72.765727"><ele>203.3</ele></trkpt>
<trkpt lat="-37.839394" lon="-72.766015"><ele>208.5</ele></trkpt>
<trkpt lat="-37.839527" lon="-72.766375"><ele>208.2</ele></trkpt>
<trkpt lat="-37.839552" lon="-72.766726"><ele>209.0</ele></trkpt>
<trkpt lat="-37.839493" lon="-72.767023"><ele>212.8</ele></trkpt>
<trkpt lat="-37.839312" lon="-72.767187"><ele>220.4</ele></trkpt>
<trkpt lat="-37.839394" lon="-72.767432"><ele>221.6</ele></trkpt>
<trkpt lat="-37.839439" lon="-72.768562"><ele>239.5</ele></trkpt>
<trkpt lat="-37.839551" lon="-72.768774"><ele>236.7</ele></trkpt>
<trkpt lat="-37.839596" lon="-72.769164"><ele>235.0</ele></trkpt>
<trkpt lat="-37.839497" lon="-72.769716"><ele>241.3</ele></trkpt>
<trkpt lat="-37.839356" lon="-72.769927"><ele>244.7</ele></trkpt>
<trkpt lat="-37.839132" lon="-72.769982"><ele>253.1</ele></trkpt>
<trkpt lat="-37.838783" lon="-72.770409"><ele>261.2</ele></trkpt>
<trkpt lat="-37.838637" lon="-72.770414"><ele>266.5</ele></trkpt>
<trkpt lat="-37.838613" lon="-72.770252"><ele>269.8</ele></trkpt>
<trkpt lat="-37.838774" lon="-72.769691"><ele>268.8</ele></trkpt>
<trkpt lat="-37.838720" lon="-72.769292"><ele>272.2</ele></trkpt>
<trkpt lat="-37.838339" lon="-72.769023"><ele>286.5</ele></trkpt>
<trkpt lat="-37.837418" lon="-72.769779"><ele>314.6</ele></trkpt>
<trkpt lat="-37.836807" lon="-72.769877"><ele>328.7</ele></trkpt>
<trkpt lat="-37.836417" lon="-72.770216"><ele>341.0</ele></trkpt>
<trkpt lat="-37.836203" lon="-72.770633"><ele>351.5</ele></trkpt>
<trkpt lat="-37.835897" lon="-72.770891"><ele>362.6</ele></trkpt>
<trkpt lat="-37.835834" lon="-72.771250"><ele>371.0</ele></trkpt>
<trkpt lat="-37.835657" lon="-72.771617"><ele>383.3</ele></trkpt>
<trkpt lat="-37.835709" lon="-72.771822"><ele>383.0</ele></trkpt>
<trkpt lat="-37.835230" lon="-72.771750"><ele>402.7</ele></trkpt>
<trkpt lat="-37.834967" lon="-72.771992"><ele>414.9</ele></trkpt>
<trkpt lat="-37.834875" lon="-72.771980"><ele>417.5</ele></trkpt>
<trkpt lat="-37.834802" lon="-72.771916"><ele>419.5</ele></trkpt>
<trkpt lat="-37.834889" lon="-72.771644"><ele>416.8</ele></trkpt>
<trkpt lat="-37.834747" lon="-72.771397"><ele>423.8</ele></trkpt>
<trkpt lat="-37.834591" lon="-72.771338"><ele>427.5</ele></trkpt>
<trkpt lat="-37.834321" lon="-72.771485"><ele>434.4</ele></trkpt>
<trkpt lat="-37.834062" lon="-72.771353"><ele>439.4</ele></trkpt>
<trkpt lat="-37.833566" lon="-72.771636"><ele>456.7</ele></trkpt>
<trkpt lat="-37.833352" lon="-72.771921"><ele>468.5</ele></trkpt>
<trkpt lat="-37.833251" lon="-72.772242"><ele>477.3</ele></trkpt>
<trkpt lat="-37.833052" lon="-72.772308"><ele>483.4</ele></trkpt>
<trkpt lat="-37.833005" lon="-72.772438"><ele>487.1</ele></trkpt>
</trkseg></trk>
</gpx>