<?xml version='1.0' encoding='UTF-8'?>
<gpx xmlns="http://www.topografix.com/GPX/1/1" version="1.1" creator="Bosque Abierto MTB">
  <trk>
    <name>Araucanía DH</name>
    <trkseg>
      <trkpt lat="-38.58670759612373" lon="-72.67106429130644"><ele>96.0</ele></trkpt>
      <trkpt lat="-38.58652368020327" lon="-72.67067790670451"><ele>106.0</ele></trkpt>
      <trkpt lat="-38.58664085719521" lon="-72.67002320794916"><ele>106.0</ele></trkpt>
      <trkpt lat="-38.58745932188594" lon="-72.66820348550135"><ele>143.0</ele></trkpt>
      <trkpt lat="-38.58729022634138" lon="-72.66792410120891"><ele>143.0</ele></trkpt>
      <trkpt lat="-38.58703503751395" lon="-72.66845023165257"><ele>143.0</ele></trkpt>
      <trkpt lat="-38.58687263189527" lon="-72.66838587854781"><ele>143.0</ele></trkpt>
      <trkpt lat="-38.58691654842657" lon="-72.66815582161189"><ele>143.0</ele></trkpt>
      <trkpt lat="-38.58670151759124" lon="-72.66779089989102"><ele>143.0</ele></trkpt>
      <trkpt lat="-38.58663608241411" lon="-72.66732337790637"><ele>143.0</ele></trkpt>
      <trkpt lat="-38.58686692638992" lon="-72.66624379432118"><ele>192.0</ele></trkpt>
      <trkpt lat="-38.5868056528837" lon="-72.66602188156406"><ele>192.0</ele></trkpt>
      <trkpt lat="-38.58646733909028" lon="-72.66586989123121"><ele>192.0</ele></trkpt>
      <trkpt lat="-38.58576549764345" lon="-72.66589085068726"><ele>192.0</ele></trkpt>
      <trkpt lat="-38.58545538809691" lon="-72.66580984569535"><ele>192.0</ele></trkpt>
      <trkpt lat="-38.58498456078758" lon="-72.66609652314479"><ele>267.0</ele></trkpt>
      <trkpt lat="-38.58456720799948" lon="-72.66564264206802"><ele>267.0</ele></trkpt>
      <trkpt lat="-38.58450693734394" lon="-72.66539988338442"><ele>267.0</ele></trkpt>
      <trkpt lat="-38.58418857386022" lon="-72.66544794271233"><ele>267.0</ele></trkpt>
      <trkpt lat="-38.58396441058527" lon="-72.66522027234127"><ele>267.0</ele></trkpt>
      <trkpt lat="-38.58406363576685" lon="-72.66454302325334"><ele>294.0</ele></trkpt>
      <trkpt lat="-38.58384415093047" lon="-72.66414788709238"><ele>294.0</ele></trkpt>
      <trkpt lat="-38.58378096236104" lon="-72.66375933178804"><ele>294.0</ele></trkpt>
      <trkpt lat="-38.58384730242744" lon="-72.66332487663641"><ele>294.0</ele></trkpt>
      <trkpt lat="-38.58347219121646" lon="-72.66270538428006"><ele>294.0</ele></trkpt>
      <trkpt lat="-38.58330870231103" lon="-72.6621230621914"><ele>340.0</ele></trkpt>
      <trkpt lat="-38.58298913632194" lon="-72.66164857218456"><ele>340.0</ele></trkpt>
      <trkpt lat="-38.58285199247143" lon="-72.65986391108954"><ele>376.0</ele></trkpt>
      <trkpt lat="-38.58233862855646" lon="-72.65928953720076"><ele>376.0</ele></trkpt>
      <trkpt lat="-38.58231420171744" lon="-72.65832899872287"><ele>401.0</ele></trkpt>
      <trkpt lat="-38.58264050556264" lon="-72.65813551678244"><ele>401.0</ele></trkpt>
      <trkpt lat="-38.58356731410453" lon="-72.65722734511627"><ele>420.0</ele></trkpt>
      <trkpt lat="-38.58406754929955" lon="-72.65535429491236"><ele>448.0</ele></trkpt>
      <trkpt lat="-38.58389571981873" lon="-72.65441393878241"><ele>448.0</ele></trkpt>
      <trkpt lat="-38.583193140878" lon="-72.65272231347421"><ele>457.0</ele></trkpt>
      <trkpt lat="-38.58286363960245" lon="-72.65213320193051"><ele>457.0</ele></trkpt>
    </trkseg>
  </trk>
</gpx>