<?xml version='1.0' encoding='UTF-8'?>
<gpx xmlns="http://www.topografix.com/GPX/1/1" version="1.1" creator="Bosque Abierto MTB">
  <trk>
    <name>Bustamante Bike Park</name>
    <trkseg>
      <trkpt lat="-36.58869171757038" lon="-71.74711569486375"><ele>0.0</ele></trkpt>
      <trkpt lat="-36.58897457735713" lon="-71.74610742011636"><ele>0.0</ele></trkpt>
      <trkpt lat="-36.59173478759286" lon="-71.74711805201078"><ele>0.0</ele></trkpt>
      <trkpt lat="-36.59161893580977" lon="-71.74762603759112"><ele>0.0</ele></trkpt>
      <trkpt lat="-36.59188382919369" lon="-71.74786174717565"><ele>0.0</ele></trkpt>
      <trkpt lat="-36.5924216788033" lon="-71.74782387505421"><ele>0.0</ele></trkpt>
      <trkpt lat="-36.59389030149715" lon="-71.74831598236646"><ele>0.0</ele></trkpt>
      <trkpt lat="-36.59362405006189" lon="-71.74894155885441"><ele>0.0</ele></trkpt>
      <trkpt lat="-36.59244679710326" lon="-71.74841976859179"><ele>0.0</ele></trkpt>
      <trkpt lat="-36.59167744339658" lon="-71.74821351624082"><ele>0.0</ele></trkpt>
      <trkpt lat="-36.58869171757038" lon="-71.74711569486375"><ele>0.0</ele></trkpt>
      <trkpt lat="-36.59598109055192" lon="-71.73727233568619"><ele>0.0</ele></trkpt>
      <trkpt lat="-36.59652865305993" lon="-71.73772207891204"><ele>0.0</ele></trkpt>
      <trkpt lat="-36.59640943836533" lon="-71.73782576755995"><ele>0.0</ele></trkpt>
      <trkpt lat="-36.59587073345082" lon="-71.73739585628041"><ele>0.0</ele></trkpt>
      <trkpt lat="-36.59628742457805" lon="-71.73775999241832"><ele>436.5935700774124</ele></trkpt>
      <trkpt lat="-36.59599765062987" lon="-71.73791895185471"><ele>435.7170901291871</ele></trkpt>
      <trkpt lat="-36.59594602312525" lon="-71.73806359546057"><ele>435.3283304472051</ele></trkpt>
      <trkpt lat="-36.59562128236191" lon="-71.73820258257614"><ele>431.4311547106362</ele></trkpt>
      <trkpt lat="-36.59555170096471" lon="-71.73838443529549"><ele>430.7395015025725</ele></trkpt>
      <trkpt lat="-36.59539345051037" lon="-71.7384628808966"><ele>429.0288835520192</ele></trkpt>
      <trkpt lat="-36.59537083175548" lon="-71.73872638671787"><ele>428.5087047427188</ele></trkpt>
      <trkpt lat="-36.59500263223067" lon="-71.73886106086036"><ele>422.3294306459875</ele></trkpt>
      <trkpt lat="-36.59494912010037" lon="-71.73900876106514"><ele>421.4915781136514</ele></trkpt>
      <trkpt lat="-36.59470204973363" lon="-71.73912630162927"><ele>418.0182213808604</ele></trkpt>
      <trkpt lat="-36.59461743400791" lon="-71.73930505340154"><ele>416.6721236962319</ele></trkpt>
      <trkpt lat="-36.59442692981597" lon="-71.73931204849163"><ele>413.2492367618086</ele></trkpt>
      <trkpt lat="-36.59454167989344" lon="-71.73961164110067"><ele>412.5717119938888</ele></trkpt>
      <trkpt lat="-36.5938218273857" lon="-71.73972658094426"><ele>402.3139139757649</ele></trkpt>
      <trkpt lat="-36.59335012660203" lon="-71.73989162472697"><ele>396.3704256029793</ele></trkpt>
      <trkpt lat="-36.59332294466851" lon="-71.74022111005172"><ele>393.3853329272757</ele></trkpt>
      <trkpt lat="-36.59314828312791" lon="-71.74032096139764"><ele>388.1460161262815</ele></trkpt>
      <trkpt lat="-36.59315960665376" lon="-71.74047636757449"><ele>386.9574724568564</ele></trkpt>
      <trkpt lat="-36.59303584726039" lon="-71.7405707400294"><ele>383.688249036685</ele></trkpt>
      <trkpt lat="-36.59292545886269" lon="-71.74095862096016"><ele>377.2583896864691</ele></trkpt>
      <trkpt lat="-36.59291249266655" lon="-71.74179546318204"><ele>368.1448190647143</ele></trkpt>
      <trkpt lat="-36.59309667124273" lon="-71.74280617494254"><ele>357.4390324170197</ele></trkpt>
      <trkpt lat="-36.59340207951237" lon="-71.74346289885979"><ele>350.1464017731274</ele></trkpt>
      <trkpt lat="-36.59339387883485" lon="-71.74358812373042"><ele>348.560116021177</ele></trkpt>
      <trkpt lat="-36.59366707306421" lon="-71.74397437764753"><ele>343.3674631899642</ele></trkpt>
      <trkpt lat="-36.59402409693842" lon="-71.74492004610737"><ele>333.7705022096861</ele></trkpt>
      <trkpt lat="-36.59424476667171" lon="-71.74522353485695"><ele>327.3622031620484</ele></trkpt>
      <trkpt lat="-36.59429874310457" lon="-71.74547551585898"><ele>322.8662515504393</ele></trkpt>
      <trkpt lat="-36.59424351860285" lon="-71.74569692277936"><ele>318.0206571990838</ele></trkpt>
      <trkpt lat="-36.59436690479205" lon="-71.74581641988497"><ele>315.4599236285993</ele></trkpt>
      <trkpt lat="-36.5940730921959" lon="-71.74634388206752"><ele>302.2451442618862</ele></trkpt>
      <trkpt lat="-36.59412007399754" lon="-71.74671014153088"><ele>295.2004545229839</ele></trkpt>
      <trkpt lat="-36.59392704016047" lon="-71.74704580147589"><ele>289.7113527973486</ele></trkpt>
      <trkpt lat="-36.59389584982038" lon="-71.74804408586931"><ele>281.0764964421292</ele></trkpt>
      <trkpt lat="-36.59358268439145" lon="-71.74874927721746"><ele>274.6161657620473</ele></trkpt>
      <trkpt lat="-36.59625206823942" lon="-71.73768091522109"><ele>435.9594482586643</ele></trkpt>
      <trkpt lat="-36.59600918931117" lon="-71.73782636487252"><ele>435.213716775586</ele></trkpt>
      <trkpt lat="-36.59590517203905" lon="-71.73800109800497"><ele>434.9841594160964</ele></trkpt>
      <trkpt lat="-36.59535795777736" lon="-71.73818647281523"><ele>427.7356903350674</ele></trkpt>
      <trkpt lat="-36.59510740137561" lon="-71.7384650943046"><ele>423.7697480277486</ele></trkpt>
      <trkpt lat="-36.59468037000767" lon="-71.73868057841975"><ele>417.4849823819345</ele></trkpt>
      <trkpt lat="-36.59462709365508" lon="-71.73889731284211"><ele>416.600514341427</ele></trkpt>
      <trkpt lat="-36.5942519024393" lon="-71.7391790041952"><ele>410.3137581594128</ele></trkpt>
      <trkpt lat="-36.59326279500151" lon="-71.73963303670045"><ele>393.6096854331576</ele></trkpt>
      <trkpt lat="-36.59296982675718" lon="-71.73997726991844"><ele>386.9502324179156</ele></trkpt>
      <trkpt lat="-36.59268985689204" lon="-71.74083130129553"><ele>375.7267436085062</ele></trkpt>
      <trkpt lat="-36.59265897066298" lon="-71.74193453427785"><ele>367.1589042095321</ele></trkpt>
      <trkpt lat="-36.59301047597879" lon="-71.74254802780798"><ele>360.4706354769575</ele></trkpt>
      <trkpt lat="-36.59304539291006" lon="-71.74285215029984"><ele>357.1217681795241</ele></trkpt>
      <trkpt lat="-36.59333967995848" lon="-71.74342612157035"><ele>350.4941589676337</ele></trkpt>
      <trkpt lat="-36.59335055429323" lon="-71.74367941425442"><ele>347.60876423762</ele></trkpt>
      <trkpt lat="-36.59350549439942" lon="-71.74406524251437"><ele>342.1382594388056</ele></trkpt>
      <trkpt lat="-36.59334632399039" lon="-71.74439628558264"><ele>338.0657998095332</ele></trkpt>
      <trkpt lat="-36.59275763473446" lon="-71.74487763036734"><ele>328.5288121379527</ele></trkpt>
      <trkpt lat="-36.59268703145794" lon="-71.74534361000059"><ele>317.6980074701117</ele></trkpt>
      <trkpt lat="-36.59248618322805" lon="-71.74537199460448"><ele>316.0771035940788</ele></trkpt>
      <trkpt lat="-36.59232198219256" lon="-71.74554967100501"><ele>311.5495842788752</ele></trkpt>
      <trkpt lat="-36.59212526905964" lon="-71.74560495692383"><ele>309.5846705129181</ele></trkpt>
      <trkpt lat="-36.59154857401869" lon="-71.74602258856206"><ele>298.6380876801653</ele></trkpt>
      <trkpt lat="-36.59092145962424" lon="-71.74787499517232"><ele>269.7246228187029</ele></trkpt>
      <trkpt lat="-36.5959910477506" lon="-71.73747317203123"><ele>432.4410974579886</ele></trkpt>
      <trkpt lat="-36.59474501498028" lon="-71.73841281542042"><ele>417.5093865422857</ele></trkpt>
      <trkpt lat="-36.59456553647523" lon="-71.73870032264007"><ele>415.1543561027726</ele></trkpt>
      <trkpt lat="-36.59376635316055" lon="-71.73918734131321"><ele>401.852108885535</ele></trkpt>
      <trkpt lat="-36.59336862727746" lon="-71.73929366243354"><ele>395.8208015309307</ele></trkpt>
      <trkpt lat="-36.59313092192892" lon="-71.73947084798239"><ele>389.8840386696582</ele></trkpt>
      <trkpt lat="-36.59309351949837" lon="-71.73960382506247"><ele>389.2496041485402</ele></trkpt>
      <trkpt lat="-36.59294599403053" lon="-71.73958694100656"><ele>385.1068709589451</ele></trkpt>
      <trkpt lat="-36.5925418464129" lon="-71.74092073622296"><ele>373.1083605255647</ele></trkpt>
      <trkpt lat="-36.59228244020908" lon="-71.74122547893658"><ele>369.5794119076319</ele></trkpt>
      <trkpt lat="-36.59201910272446" lon="-71.74109998561856"><ele>367.0452929832318</ele></trkpt>
      <trkpt lat="-36.59181931920332" lon="-71.74124651100304"><ele>364.2478497776889</ele></trkpt>
      <trkpt lat="-36.59169688449659" lon="-71.74146502957393"><ele>363.0979241761564</ele></trkpt>
      <trkpt lat="-36.59167174676561" lon="-71.7418773395248"><ele>361.7992231317639</ele></trkpt>
      <trkpt lat="-36.59152158478204" lon="-71.7419372860086"><ele>359.8728764724056</ele></trkpt>
      <trkpt lat="-36.59137693167222" lon="-71.74185938296094"><ele>358.2141299750729</ele></trkpt>
      <trkpt lat="-36.59091020178865" lon="-71.74224011357983"><ele>345.893644891424</ele></trkpt>
      <trkpt lat="-36.59091448203266" lon="-71.74260762030794"><ele>343.563500730095</ele></trkpt>
      <trkpt lat="-36.59103911824283" lon="-71.74305061432231"><ele>341.4606756163884</ele></trkpt>
      <trkpt lat="-36.5910494647742" lon="-71.74377100411571"><ele>332.5681690017752</ele></trkpt>
      <trkpt lat="-36.59127850317699" lon="-71.74410491679801"><ele>331.0322137576673</ele></trkpt>
      <trkpt lat="-36.59128366256774" lon="-71.7443163288459"><ele>326.9100584411918</ele></trkpt>
      <trkpt lat="-36.59102844355026" lon="-71.7450037196695"><ele>311.3037363094098</ele></trkpt>
      <trkpt lat="-36.59076600161493" lon="-71.7452733541419"><ele>304.9246675899159</ele></trkpt>
      <trkpt lat="-36.59064342977459" lon="-71.74587798913292"><ele>295.0443413752723</ele></trkpt>
      <trkpt lat="-36.59046929943278" lon="-71.74636985054654"><ele>286.1800119707785</ele></trkpt>
      <trkpt lat="-36.59020779905053" lon="-71.74673217542711"><ele>279.0091203759494</ele></trkpt>
      <trkpt lat="-36.59002266042572" lon="-71.74744944567003"><ele>268.1279616675898</ele></trkpt>
      <trkpt lat="-36.5984599999" lon="-71.7262310019"><ele>452.9999999999999</ele></trkpt>
      <trkpt lat="-36.5984349999" lon="-71.7260160019"><ele>450.6</ele></trkpt>
      <trkpt lat="-36.5982859999" lon="-71.7258290019"><ele>445.1</ele></trkpt>
      <trkpt lat="-36.5977759999" lon="-71.7257500019"><ele>430.6</ele></trkpt>
      <trkpt lat="-36.5975399999" lon="-71.7253880019"><ele>416.6</ele></trkpt>
      <trkpt lat="-36.5972109999" lon="-71.7254210019"><ele>406.1</ele></trkpt>
      <trkpt lat="-36.5968589999" lon="-71.7259290019"><ele>405.7</ele></trkpt>
      <trkpt lat="-36.5966349999" lon="-71.7260480019"><ele>401.3</ele></trkpt>
      <trkpt lat="-36.5960059999" lon="-71.7260350019"><ele>388.0</ele></trkpt>
      <trkpt lat="-36.5958949999" lon="-71.7261160019"><ele>385.6</ele></trkpt>
      <trkpt lat="-36.5954749999" lon="-71.7261680019"><ele>376.0</ele></trkpt>
      <trkpt lat="-36.5951889999" lon="-71.7263460019"><ele>372.2</ele></trkpt>
      <trkpt lat="-36.5949859999" lon="-71.7261630019"><ele>362.1</ele></trkpt>
      <trkpt lat="-36.5945579999" lon="-71.7261900019"><ele>355.4</ele></trkpt>
      <trkpt lat="-36.5937809999" lon="-71.7259230019"><ele>341.5</ele></trkpt>
      <trkpt lat="-36.5934529999" lon="-71.7260220019"><ele>333.7</ele></trkpt>
      <trkpt lat="-36.5931029999" lon="-71.7259660019"><ele>331.0</ele></trkpt>
      <trkpt lat="-36.5929819999" lon="-71.7260280019"><ele>330.1</ele></trkpt>
      <trkpt lat="-36.5922819999" lon="-71.7267740019"><ele>324.3</ele></trkpt>
      <trkpt lat="-36.5917269999" lon="-71.7281250019"><ele>303.2</ele></trkpt>
      <trkpt lat="-36.5916479999" lon="-71.7286440019"><ele>303.2</ele></trkpt>
      <trkpt lat="-36.59720611852155" lon="-71.74880463167786"><ele>0.0</ele></trkpt>
      <trkpt lat="-36.60366" lon="-71.738461"><ele>0.0</ele></trkpt>
      <trkpt lat="-36.60336" lon="-71.739711"><ele>0.0</ele></trkpt>
      <trkpt lat="-36.603182" lon="-71.740018"><ele>0.0</ele></trkpt>
      <trkpt lat="-36.603161" lon="-71.740445"><ele>0.0</ele></trkpt>
      <trkpt lat="-36.602961" lon="-71.740773"><ele>0.0</ele></trkpt>
      <trkpt lat="-36.602952" lon="-71.74124"><ele>0.0</ele></trkpt>
      <trkpt lat="-36.60223" lon="-71.741974"><ele>0.0</ele></trkpt>
      <trkpt lat="-36.601713" lon="-71.742202"><ele>0.0</ele></trkpt>
      <trkpt lat="-36.601483" lon="-71.742767"><ele>0.0</ele></trkpt>
      <trkpt lat="-36.601128" lon="-71.743018"><ele>0.0</ele></trkpt>
      <trkpt lat="-36.600538" lon="-71.743617"><ele>0.0</ele></trkpt>
      <trkpt lat="-36.600145" lon="-71.743566"><ele>0.0</ele></trkpt>
      <trkpt lat="-36.599713" lon="-71.743968"><ele>0.0</ele></trkpt>
      <trkpt lat="-36.599616" lon="-71.74392"><ele>0.0</ele></trkpt>
      <trkpt lat="-36.599354" lon="-71.744161"><ele>0.0</ele></trkpt>
      <trkpt lat="-36.599102" lon="-71.744723"><ele>0.0</ele></trkpt>
      <trkpt lat="-36.599" lon="-71.744743"><ele>0.0</ele></trkpt>
      <trkpt lat="-36.598936" lon="-71.74489"><ele>0.0</ele></trkpt>
      <trkpt lat="-36.598941" lon="-71.745121"><ele>0.0</ele></trkpt>
      <trkpt lat="-36.598714" lon="-71.745464"><ele>0.0</ele></trkpt>
      <trkpt lat="-36.59877" lon="-71.745618"><ele>0.0</ele></trkpt>
      <trkpt lat="-36.598679" lon="-71.745845"><ele>0.0</ele></trkpt>
      <trkpt lat="-36.598048" lon="-71.745997"><ele>0.0</ele></trkpt>
      <trkpt lat="-36.597929" lon="-71.74624"><ele>0.0</ele></trkpt>
      <trkpt lat="-36.59772" lon="-71.746239"><ele>0.0</ele></trkpt>
      <trkpt lat="-36.59764" lon="-71.746372"><ele>0.0</ele></trkpt>
      <trkpt lat="-36.597609" lon="-71.746719"><ele>0.0</ele></trkpt>
      <trkpt lat="-36.597474" lon="-71.746918"><ele>0.0</ele></trkpt>
      <trkpt lat="-36.597292" lon="-71.74768"><ele>0.0</ele></trkpt>
    </trkseg>
  </trk>
</gpx>