<?xml version='1.0' encoding='UTF-8'?>
<gpx xmlns="http://www.topografix.com/GPX/1/1" xmlns:xsi="http://www.w3.org/2001/XMLSchema-instance" creator="StravaGPX" version="1.1" xsi:schemaLocation="http://www.topografix.com/GPX/1/1 http://www.topografix.com/GPX/1/1/gpx.xsd">
 <trk>
  <name>Circuito Xco MTB San José, Yungay,  Arauco</name>
  <type>cycling</type>
  <trkseg>
   <trkpt lat="-37.1183270" lon="-72.0714640">
    <ele>222.4</ele>
   </trkpt>
   <trkpt lat="-37.1187490" lon="-72.0713640">
    <ele>224.4</ele>
   </trkpt>
   <trkpt lat="-37.1190080" lon="-72.0712060">
    <ele>226.2</ele>
   </trkpt>
   <trkpt lat="-37.1193050" lon="-72.0706170">
    <ele>231.4</ele>
   </trkpt>
   <trkpt lat="-37.1192440" lon="-72.0705800">
    <ele>232.0</ele>
   </trkpt>
   <trkpt lat="-37.1191020" lon="-72.0707050">
    <ele>232.0</ele>
   </trkpt>
   <trkpt lat="-37.1188630" lon="-72.0712050">
    <ele>231.2</ele>
   </trkpt>
   <trkpt lat="-37.1184940" lon="-72.0712210">
    <ele>224.0</ele>
   </trkpt>
   <trkpt lat="-37.1188480" lon="-72.0709640">
    <ele>226.8</ele>
   </trkpt>
   <trkpt lat="-37.1186450" lon="-72.0709480">
    <ele>227.2</ele>
   </trkpt>
   <trkpt lat="-37.1186230" lon="-72.0708760">
    <ele>227.0</ele>
   </trkpt>
   <trkpt lat="-37.1187780" lon="-72.0707850">
    <ele>227.4</ele>
   </trkpt>
   <trkpt lat="-37.1186210" lon="-72.0705190">
    <ele>227.4</ele>
   </trkpt>
   <trkpt lat="-37.1187070" lon="-72.0704380">
    <ele>227.4</ele>
   </trkpt>
   <trkpt lat="-37.1188270" lon="-72.0705390">
    <ele>229.0</ele>
   </trkpt>
   <trkpt lat="-37.1189460" lon="-72.0704840">
    <ele>229.6</ele>
   </trkpt>
   <trkpt lat="-37.1191480" lon="-72.0700820">
    <ele>230.6</ele>
   </trkpt>
   <trkpt lat="-37.1188380" lon="-72.0691190">
    <ele>228.4</ele>
   </trkpt>
   <trkpt lat="-37.1186230" lon="-72.0691740">
    <ele>228.0</ele>
   </trkpt>
   <trkpt lat="-37.1184520" lon="-72.0688420">
    <ele>227.6</ele>
   </trkpt>
   <trkpt lat="-37.1185560" lon="-72.0684670">
    <ele>231.4</ele>
   </trkpt>
   <trkpt lat="-37.1187100" lon="-72.0683610">
    <ele>232.4</ele>
   </trkpt>
   <trkpt lat="-37.1188200" lon="-72.0684030">
    <ele>233.2</ele>
   </trkpt>
   <trkpt lat="-37.1190830" lon="-72.0693470">
    <ele>229.6</ele>
   </trkpt>
   <trkpt lat="-37.1192940" lon="-72.0696560">
    <ele>228.0</ele>
   </trkpt>
   <trkpt lat="-37.1193820" lon="-72.0696370">
    <ele>228.0</ele>
   </trkpt>
   <trkpt lat="-37.1192390" lon="-72.0694290">
    <ele>228.0</ele>
   </trkpt>
   <trkpt lat="-37.1191860" lon="-72.0685580">
    <ele>233.0</ele>
   </trkpt>
   <trkpt lat="-37.1192870" lon="-72.0686500">
    <ele>233.2</ele>
   </trkpt>
   <trkpt lat="-37.1194080" lon="-72.0691600">
    <ele>232.2</ele>
   </trkpt>
   <trkpt lat="-37.1195910" lon="-72.0695180">
    <ele>227.8</ele>
   </trkpt>
   <trkpt lat="-37.1197600" lon="-72.0695290">
    <ele>227.0</ele>
   </trkpt>
   <trkpt lat="-37.1198630" lon="-72.0693130">
    <ele>225.2</ele>
   </trkpt>
   <trkpt lat="-37.1197250" lon="-72.0690200">
    <ele>227.4</ele>
   </trkpt>
   <trkpt lat="-37.1196460" lon="-72.0681280">
    <ele>233.0</ele>
   </trkpt>
   <trkpt lat="-37.1194380" lon="-72.0676470">
    <ele>233.4</ele>
   </trkpt>
   <trkpt lat="-37.1191050" lon="-72.0675530">
    <ele>235.0</ele>
   </trkpt>
   <trkpt lat="-37.1190210" lon="-72.0674580">
    <ele>235.2</ele>
   </trkpt>
   <trkpt lat="-37.1187590" lon="-72.0668350">
    <ele>233.6</ele>
   </trkpt>
   <trkpt lat="-37.1176970" lon="-72.0655090">
    <ele>235.2</ele>
   </trkpt>
   <trkpt lat="-37.1176150" lon="-72.0653210">
    <ele>236.2</ele>
   </trkpt>
   <trkpt lat="-37.1176530" lon="-72.0651940">
    <ele>236.8</ele>
   </trkpt>
   <trkpt lat="-37.1182860" lon="-72.0655810">
    <ele>230.6</ele>
   </trkpt>
   <trkpt lat="-37.1185990" lon="-72.0659590">
    <ele>228.6</ele>
   </trkpt>
   <trkpt lat="-37.1188040" lon="-72.0663890">
    <ele>231.6</ele>
   </trkpt>
   <trkpt lat="-37.1192590" lon="-72.0661550">
    <ele>231.8</ele>
   </trkpt>
   <trkpt lat="-37.1195580" lon="-72.0663900">
    <ele>224.2</ele>
   </trkpt>
   <trkpt lat="-37.1194960" lon="-72.0666440">
    <ele>228.2</ele>
   </trkpt>
   <trkpt lat="-37.1192760" lon="-72.0669180">
    <ele>232.6</ele>
   </trkpt>
   <trkpt lat="-37.1194730" lon="-72.0669700">
    <ele>233.0</ele>
   </trkpt>
   <trkpt lat="-37.1196480" lon="-72.0668910">
    <ele>229.2</ele>
   </trkpt>
   <trkpt lat="-37.1198010" lon="-72.0669740">
    <ele>225.0</ele>
   </trkpt>
   <trkpt lat="-37.1195530" lon="-72.0672720">
    <ele>231.6</ele>
   </trkpt>
   <trkpt lat="-37.1195610" lon="-72.0674120">
    <ele>232.4</ele>
   </trkpt>
   <trkpt lat="-37.1198140" lon="-72.0673310">
    <ele>230.4</ele>
   </trkpt>
   <trkpt lat="-37.1199220" lon="-72.0673790">
    <ele>224.6</ele>
   </trkpt>
   <trkpt lat="-37.1198440" lon="-72.0678150">
    <ele>230.0</ele>
   </trkpt>
   <trkpt lat="-37.1200180" lon="-72.0677580">
    <ele>228.6</ele>
   </trkpt>
   <trkpt lat="-37.1199990" lon="-72.0679560">
    <ele>227.8</ele>
   </trkpt>
   <trkpt lat="-37.1201000" lon="-72.0681080">
    <ele>227.4</ele>
   </trkpt>
   <trkpt lat="-37.1198500" lon="-72.0683640">
    <ele>232.0</ele>
   </trkpt>
   <trkpt lat="-37.1199800" lon="-72.0687220">
    <ele>229.6</ele>
   </trkpt>
   <trkpt lat="-37.1200640" lon="-72.0688000">
    <ele>228.2</ele>
   </trkpt>
   <trkpt lat="-37.1202070" lon="-72.0687890">
    <ele>224.6</ele>
   </trkpt>
   <trkpt lat="-37.1200810" lon="-72.0685350">
    <ele>229.8</ele>
   </trkpt>
   <trkpt lat="-37.1202570" lon="-72.0689360">
    <ele>223.2</ele>
   </trkpt>
   <trkpt lat="-37.1201500" lon="-72.0694490">
    <ele>224.0</ele>
   </trkpt>
   <trkpt lat="-37.1200800" lon="-72.0696070">
    <ele>226.0</ele>
   </trkpt>
   <trkpt lat="-37.1198830" lon="-72.0697310">
    <ele>227.6</ele>
   </trkpt>
   <trkpt lat="-37.1198860" lon="-72.0698480">
    <ele>228.2</ele>
   </trkpt>
   <trkpt lat="-37.1202310" lon="-72.0695410">
    <ele>226.6</ele>
   </trkpt>
   <trkpt lat="-37.1204750" lon="-72.0697240">
    <ele>222.4</ele>
   </trkpt>
   <trkpt lat="-37.1195800" lon="-72.0703890">
    <ele>229.0</ele>
   </trkpt>
   <trkpt lat="-37.1195690" lon="-72.0706390">
    <ele>230.0</ele>
   </trkpt>
   <trkpt lat="-37.1197040" lon="-72.0707490">
    <ele>230.8</ele>
   </trkpt>
   <trkpt lat="-37.1201420" lon="-72.0707180">
    <ele>230.8</ele>
   </trkpt>
   <trkpt lat="-37.1208570" lon="-72.0709670">
    <ele>226.4</ele>
   </trkpt>
   <trkpt lat="-37.1211220" lon="-72.0713740">
    <ele>222.6</ele>
   </trkpt>
   <trkpt lat="-37.1211900" lon="-72.0717130">
    <ele>221.4</ele>
   </trkpt>
   <trkpt lat="-37.1208680" lon="-72.0718020">
    <ele>222.2</ele>
   </trkpt>
   <trkpt lat="-37.1207410" lon="-72.0717430">
    <ele>224.4</ele>
   </trkpt>
   <trkpt lat="-37.1206270" lon="-72.0714250">
    <ele>226.8</ele>
   </trkpt>
   <trkpt lat="-37.1206120" lon="-72.0710660">
    <ele>226.6</ele>
   </trkpt>
   <trkpt lat="-37.1204630" lon="-72.0709420">
    <ele>225.8</ele>
   </trkpt>
   <trkpt lat="-37.1201450" lon="-72.0717400">
    <ele>228.0</ele>
   </trkpt>
   <trkpt lat="-37.1198270" lon="-72.0719460">
    <ele>228.2</ele>
   </trkpt>
   <trkpt lat="-37.1198710" lon="-72.0720480">
    <ele>228.0</ele>
   </trkpt>
   <trkpt lat="-37.1200900" lon="-72.0720920">
    <ele>226.8</ele>
   </trkpt>
   <trkpt lat="-37.1201760" lon="-72.0721950">
    <ele>226.4</ele>
   </trkpt>
   <trkpt lat="-37.1201240" lon="-72.0724300">
    <ele>223.2</ele>
   </trkpt>
   <trkpt lat="-37.1201320" lon="-72.0722780">
    <ele>224.0</ele>
   </trkpt>
   <trkpt lat="-37.1199830" lon="-72.0724470">
    <ele>225.0</ele>
   </trkpt>
   <trkpt lat="-37.1198170" lon="-72.0724830">
    <ele>222.8</ele>
   </trkpt>
   <trkpt lat="-37.1197880" lon="-72.0722800">
    <ele>222.4</ele>
   </trkpt>
   <trkpt lat="-37.1195610" lon="-72.0720200">
    <ele>226.0</ele>
   </trkpt>
   <trkpt lat="-37.1190720" lon="-72.0719510">
    <ele>222.4</ele>
   </trkpt>
   <trkpt lat="-37.1190210" lon="-72.0717710">
    <ele>221.8</ele>
   </trkpt>
   <trkpt lat="-37.1191180" lon="-72.0718270">
    <ele>224.8</ele>
   </trkpt>
   <trkpt lat="-37.1192320" lon="-72.0716570">
    <ele>226.6</ele>
   </trkpt>
   <trkpt lat="-37.1190260" lon="-72.0715520">
    <ele>227.0</ele>
   </trkpt>
   <trkpt lat="-37.1188210" lon="-72.0715360">
    <ele>226.8</ele>
   </trkpt>
   <trkpt lat="-37.1188920" lon="-72.0715870">
    <ele>224.0</ele>
   </trkpt>
   <trkpt lat="-37.1185440" lon="-72.0720020">
    <ele>220.4</ele>
   </trkpt>
   <trkpt lat="-37.1180690" lon="-72.0722000">
    <ele>217.4</ele>
   </trkpt>
   <trkpt lat="-37.1172680" lon="-72.0717990">
    <ele>219.8</ele>
   </trkpt>
   <trkpt lat="-37.1173590" lon="-72.0716490">
    <ele>220.2</ele>
   </trkpt>
   <trkpt lat="-37.1183330" lon="-72.0713970">
    <ele>219.8</ele>
   </trkpt>
  </trkseg>
 </trk>
</gpx>