<?xml version='1.0' encoding='UTF-8'?>
<gpx xmlns="http://www.topografix.com/GPX/1/1" version="1.1" creator="Bosque Abierto MTB">
  <trk>
    <name>Colorado Bike Park</name>
    <trkseg>
      <trkpt lat="-37.49261749967189" lon="-73.32791600001251"><ele>0.0</ele></trkpt>
      <trkpt lat="-37.49216629947642" lon="-73.32821080001719"><ele>0.0</ele></trkpt>
      <trkpt lat="-37.4919363996612" lon="-73.32822719998548"><ele>0.0</ele></trkpt>
      <trkpt lat="-37.49174119961653" lon="-73.32813090000862"><ele>0.0</ele></trkpt>
      <trkpt lat="-37.49082129957557" lon="-73.32869969999396"><ele>0.0</ele></trkpt>
      <trkpt lat="-37.48979073472724" lon="-73.32904480745225"><ele>0.0</ele></trkpt>
      <trkpt lat="-37.49335549967629" lon="-73.32632840001584"><ele>0.0</ele></trkpt>
      <trkpt lat="-37.49349439964392" lon="-73.32600390000667"><ele>0.0</ele></trkpt>
      <trkpt lat="-37.49361949957782" lon="-73.32504070003061"><ele>0.0</ele></trkpt>
      <trkpt lat="-37.49379889959901" lon="-73.32484639998135"><ele>0.0</ele></trkpt>
      <trkpt lat="-37.49494399958346" lon="-73.32441650004179"><ele>0.0</ele></trkpt>
      <trkpt lat="-37.495987499566" lon="-73.32413430002484"><ele>0.0</ele></trkpt>
      <trkpt lat="-37.49730139957368" lon="-73.32438740003414"><ele>0.0</ele></trkpt>
      <trkpt lat="-37.49746429952285" lon="-73.32456119997973"><ele>0.0</ele></trkpt>
      <trkpt lat="-37.49744989959644" lon="-73.32513999999212"><ele>0.0</ele></trkpt>
      <trkpt lat="-37.49727219961867" lon="-73.32543429999934"><ele>0.0</ele></trkpt>
      <trkpt lat="-37.49702909955826" lon="-73.3255276000176"><ele>0.0</ele></trkpt>
      <trkpt lat="-37.49647789956118" lon="-73.32557319999297"><ele>0.0</ele></trkpt>
      <trkpt lat="-37.49577131681854" lon="-73.32581032100681"><ele>0.0</ele></trkpt>
      <trkpt lat="-37.49287920914828" lon="-73.32770425890305"><ele>0.0</ele></trkpt>
      <trkpt lat="-37.49335039954602" lon="-73.32685110000226"><ele>0.0</ele></trkpt>
      <trkpt lat="-37.4933587995031" lon="-73.32632309999083"><ele>0.0</ele></trkpt>
      <trkpt lat="-37.49577249949433" lon="-73.32580979993708"><ele>0.0</ele></trkpt>
      <trkpt lat="-37.49494429945373" lon="-73.32631399996593"><ele>0.0</ele></trkpt>
      <trkpt lat="-37.49464739966827" lon="-73.32626759999462"><ele>0.0</ele></trkpt>
      <trkpt lat="-37.49431849962944" lon="-73.32660300005234"><ele>0.0</ele></trkpt>
      <trkpt lat="-37.49375019945915" lon="-73.32742220003473"><ele>0.0</ele></trkpt>
      <trkpt lat="-37.49324509959123" lon="-73.32773659999133"><ele>0.0</ele></trkpt>
      <trkpt lat="-37.49299529951295" lon="-73.327630200014"><ele>0.0</ele></trkpt>
      <trkpt lat="-37.49261625147933" lon="-73.32791756446098"><ele>0.0</ele></trkpt>
      <trkpt lat="-37.49337409966155" lon="-73.32631159997821"><ele>0.0</ele></trkpt>
      <trkpt lat="-37.4930086995487" lon="-73.32624190007385"><ele>0.0</ele></trkpt>
      <trkpt lat="-37.49272229955322" lon="-73.32636159993113"><ele>0.0</ele></trkpt>
      <trkpt lat="-37.49159459953196" lon="-73.32734629995365"><ele>0.0</ele></trkpt>
      <trkpt lat="-37.49014811443815" lon="-73.32890514237486"><ele>0.0</ele></trkpt>
      <trkpt lat="-37.49249522794734" lon="-73.33254937350081"><ele>0.0</ele></trkpt>
      <trkpt lat="-37.49276126100591" lon="-73.33244170430447"><ele>0.0</ele></trkpt>
      <trkpt lat="-37.49313572257841" lon="-73.33251477976498"><ele>0.0</ele></trkpt>
      <trkpt lat="-37.4933840907644" lon="-73.33247334325462"><ele>0.0</ele></trkpt>
      <trkpt lat="-37.49493744822586" lon="-73.33163073230507"><ele>0.0</ele></trkpt>
      <trkpt lat="-37.49519440448494" lon="-73.33135326454808"><ele>0.0</ele></trkpt>
      <trkpt lat="-37.49554518990856" lon="-73.3313426892784"><ele>0.0</ele></trkpt>
      <trkpt lat="-37.49568596280779" lon="-73.33144969360262"><ele>0.0</ele></trkpt>
      <trkpt lat="-37.49664105853842" lon="-73.33118014798133"><ele>0.0</ele></trkpt>
      <trkpt lat="-37.49738036406232" lon="-73.33063723536797"><ele>0.0</ele></trkpt>
      <trkpt lat="-37.49755281062788" lon="-73.33035325671565"><ele>0.0</ele></trkpt>
      <trkpt lat="-37.49787782326236" lon="-73.33006587842"><ele>0.0</ele></trkpt>
      <trkpt lat="-37.49805571367961" lon="-73.33010047929864"><ele>0.0</ele></trkpt>
      <trkpt lat="-37.49825313472158" lon="-73.3304360826126"><ele>0.0</ele></trkpt>
      <trkpt lat="-37.49888170590383" lon="-73.33050743016157"><ele>0.0</ele></trkpt>
      <trkpt lat="-37.50090785535274" lon="-73.32998102086522"><ele>0.0</ele></trkpt>
      <trkpt lat="-37.50107513437877" lon="-73.32987133925941"><ele>0.0</ele></trkpt>
      <trkpt lat="-37.50154423189595" lon="-73.32916229927467"><ele>0.0</ele></trkpt>
      <trkpt lat="-37.50224150052038" lon="-73.32884280551458"><ele>0.0</ele></trkpt>
      <trkpt lat="-37.50257832917736" lon="-73.32821122710797"><ele>0.0</ele></trkpt>
      <trkpt lat="-37.50276927866942" lon="-73.32746616523283"><ele>0.0</ele></trkpt>
      <trkpt lat="-37.50340451653175" lon="-73.3272289997151"><ele>0.0</ele></trkpt>
      <trkpt lat="-37.50355759132356" lon="-73.32712680877074"><ele>0.0</ele></trkpt>
      <trkpt lat="-37.50362216334395" lon="-73.32696093107663"><ele>0.0</ele></trkpt>
      <trkpt lat="-37.49553158686918" lon="-73.331319423282"><ele>0.0</ele></trkpt>
      <trkpt lat="-37.49512237067705" lon="-73.33108192070401"><ele>0.0</ele></trkpt>
      <trkpt lat="-37.49500821175992" lon="-73.3304284323395"><ele>0.0</ele></trkpt>
      <trkpt lat="-37.49491195300136" lon="-73.33026537150663"><ele>0.0</ele></trkpt>
      <trkpt lat="-37.49478447191797" lon="-73.33022152235897"><ele>0.0</ele></trkpt>
      <trkpt lat="-37.49405643266906" lon="-73.33033829346698"><ele>0.0</ele></trkpt>
      <trkpt lat="-37.49379109998282" lon="-73.33025920669405"><ele>0.0</ele></trkpt>
      <trkpt lat="-37.49330172624309" lon="-73.33028925798179"><ele>0.0</ele></trkpt>
      <trkpt lat="-37.49326941337215" lon="-73.33023012221726"><ele>0.0</ele></trkpt>
      <trkpt lat="-37.49339910817989" lon="-73.32989084669819"><ele>0.0</ele></trkpt>
      <trkpt lat="-37.4931443323038" lon="-73.32961400481756"><ele>0.0</ele></trkpt>
      <trkpt lat="-37.49312258145307" lon="-73.32949238478753"><ele>0.0</ele></trkpt>
      <trkpt lat="-37.49340029060357" lon="-73.32919889190839"><ele>0.0</ele></trkpt>
      <trkpt lat="-37.49366643059352" lon="-73.32920014427087"><ele>0.0</ele></trkpt>
      <trkpt lat="-37.49384771344621" lon="-73.32910272979579"><ele>0.0</ele></trkpt>
      <trkpt lat="-37.49403237166271" lon="-73.32873828228817"><ele>0.0</ele></trkpt>
      <trkpt lat="-37.49426915351686" lon="-73.32855223919225"><ele>0.0</ele></trkpt>
      <trkpt lat="-37.49399309954458" lon="-73.32761170007569"><ele>0.0</ele></trkpt>
      <trkpt lat="-37.49378969693706" lon="-73.32738184611914"><ele>0.0</ele></trkpt>
      <trkpt lat="-37.49248152047921" lon="-73.33254982387646"><ele>0.0</ele></trkpt>
      <trkpt lat="-37.49232688103813" lon="-73.33240080801828"><ele>0.0</ele></trkpt>
      <trkpt lat="-37.49235490194934" lon="-73.33210540101197"><ele>0.0</ele></trkpt>
      <trkpt lat="-37.49227847595184" lon="-73.33184374103158"><ele>0.0</ele></trkpt>
      <trkpt lat="-37.49178593490618" lon="-73.33141327392343"><ele>0.0</ele></trkpt>
      <trkpt lat="-37.49165251992812" lon="-73.33076383381766"><ele>0.0</ele></trkpt>
      <trkpt lat="-37.49152616222148" lon="-73.33068135473256"><ele>0.0</ele></trkpt>
      <trkpt lat="-37.4913380163828" lon="-73.33103568760006"><ele>0.0</ele></trkpt>
      <trkpt lat="-37.49122343490549" lon="-73.33111155851151"><ele>0.0</ele></trkpt>
      <trkpt lat="-37.49104556255449" lon="-73.331096064689"><ele>0.0</ele></trkpt>
      <trkpt lat="-37.49030863648245" lon="-73.32986722448507"><ele>0.0</ele></trkpt>
      <trkpt lat="-37.48962605379258" lon="-73.32967413978902"><ele>0.0</ele></trkpt>
      <trkpt lat="-37.4894124025256" lon="-73.32994464230089"><ele>0.0</ele></trkpt>
      <trkpt lat="-37.48923041701843" lon="-73.32989123699122"><ele>0.0</ele></trkpt>
      <trkpt lat="-37.48910519223352" lon="-73.3299395132295"><ele>0.0</ele></trkpt>
      <trkpt lat="-37.48913613346532" lon="-73.33010401571346"><ele>0.0</ele></trkpt>
      <trkpt lat="-37.48963761761745" lon="-73.33022213021087"><ele>0.0</ele></trkpt>
      <trkpt lat="-37.48981094723864" lon="-73.33033797594753"><ele>0.0</ele></trkpt>
      <trkpt lat="-37.48986943292351" lon="-73.33056171953062"><ele>0.0</ele></trkpt>
      <trkpt lat="-37.4896525871805" lon="-73.3307413158741"><ele>0.0</ele></trkpt>
      <trkpt lat="-37.48914462520918" lon="-73.33070474080738"><ele>0.0</ele></trkpt>
      <trkpt lat="-37.48868972241082" lon="-73.33018749855007"><ele>0.0</ele></trkpt>
      <trkpt lat="-37.51713174269667" lon="-73.3033165874582"><ele>0.0</ele></trkpt>
      <trkpt lat="-37.51677103362062" lon="-73.30379205008508"><ele>0.0</ele></trkpt>
      <trkpt lat="-37.51613591359868" lon="-73.30439917583098"><ele>0.0</ele></trkpt>
      <trkpt lat="-37.51434715887054" lon="-73.30761885826115"><ele>0.0</ele></trkpt>
      <trkpt lat="-37.51305739432413" lon="-73.30947106038464"><ele>0.0</ele></trkpt>
      <trkpt lat="-37.51296562655357" lon="-73.31005687193661"><ele>0.0</ele></trkpt>
      <trkpt lat="-37.51293627954479" lon="-73.312006330625"><ele>0.0</ele></trkpt>
      <trkpt lat="-37.51284741662197" lon="-73.31229571239037"><ele>0.0</ele></trkpt>
      <trkpt lat="-37.51190453783485" lon="-73.31389751886773"><ele>0.0</ele></trkpt>
      <trkpt lat="-37.51186496154932" lon="-73.31413190254735"><ele>0.0</ele></trkpt>
      <trkpt lat="-37.51202846901781" lon="-73.31506219852028"><ele>0.0</ele></trkpt>
      <trkpt lat="-37.51223868045963" lon="-73.3152550437448"><ele>0.0</ele></trkpt>
      <trkpt lat="-37.51246601202492" lon="-73.3156450778949"><ele>0.0</ele></trkpt>
      <trkpt lat="-37.51250497073615" lon="-73.31586871675299"><ele>0.0</ele></trkpt>
      <trkpt lat="-37.51218904237155" lon="-73.31628892264831"><ele>0.0</ele></trkpt>
      <trkpt lat="-37.51220182554606" lon="-73.31668377955917"><ele>0.0</ele></trkpt>
      <trkpt lat="-37.51181274377453" lon="-73.3182461472181"><ele>0.0</ele></trkpt>
      <trkpt lat="-37.51181811319736" lon="-73.3186232079262"><ele>0.0</ele></trkpt>
      <trkpt lat="-37.51162171012104" lon="-73.31939993639959"><ele>0.0</ele></trkpt>
      <trkpt lat="-37.51152286660288" lon="-73.31949195797591"><ele>0.0</ele></trkpt>
      <trkpt lat="-37.51118546784851" lon="-73.31940972037742"><ele>0.0</ele></trkpt>
      <trkpt lat="-37.51094461608695" lon="-73.3195767693051"><ele>0.0</ele></trkpt>
      <trkpt lat="-37.51051373863662" lon="-73.32046650607111"><ele>0.0</ele></trkpt>
      <trkpt lat="-37.51039330937798" lon="-73.32105292714863"><ele>0.0</ele></trkpt>
      <trkpt lat="-37.5100170316436" lon="-73.32077184789807"><ele>0.0</ele></trkpt>
      <trkpt lat="-37.50289399108505" lon="-73.32668043471524"><ele>0.0</ele></trkpt>
      <trkpt lat="-37.50249232657403" lon="-73.32643797820597"><ele>0.0</ele></trkpt>
      <trkpt lat="-37.50241450910147" lon="-73.32565850897319"><ele>0.0</ele></trkpt>
      <trkpt lat="-37.50208077835639" lon="-73.32549834901808"><ele>0.0</ele></trkpt>
      <trkpt lat="-37.50171940910097" lon="-73.32557526287165"><ele>0.0</ele></trkpt>
      <trkpt lat="-37.50116729752454" lon="-73.32548583087964"><ele>0.0</ele></trkpt>
      <trkpt lat="-37.50054998515789" lon="-73.3256247300821"><ele>0.0</ele></trkpt>
      <trkpt lat="-37.50039623095928" lon="-73.32554435897906"><ele>0.0</ele></trkpt>
      <trkpt lat="-37.50020621772557" lon="-73.32526127140001"><ele>0.0</ele></trkpt>
      <trkpt lat="-37.49996092791466" lon="-73.32545231917919"><ele>0.0</ele></trkpt>
      <trkpt lat="-37.49922406575297" lon="-73.32543974667253"><ele>0.0</ele></trkpt>
      <trkpt lat="-37.49901410407097" lon="-73.32570063683265"><ele>0.0</ele></trkpt>
      <trkpt lat="-37.49886679045197" lon="-73.32553631961756"><ele>0.0</ele></trkpt>
      <trkpt lat="-37.49879985953714" lon="-73.32579401402805"><ele>0.0</ele></trkpt>
      <trkpt lat="-37.49860402063813" lon="-73.3255709213343"><ele>0.0</ele></trkpt>
      <trkpt lat="-37.49853616664343" lon="-73.32562894420523"><ele>0.0</ele></trkpt>
      <trkpt lat="-37.49821162363019" lon="-73.32561224890947"><ele>0.0</ele></trkpt>
      <trkpt lat="-37.49737831049644" lon="-73.32536748236309"><ele>0.0</ele></trkpt>
      <trkpt lat="-37.49821789354861" lon="-73.33037221943134"><ele>0.0</ele></trkpt>
      <trkpt lat="-37.49797134557927" lon="-73.32986771102311"><ele>0.0</ele></trkpt>
      <trkpt lat="-37.49722183892893" lon="-73.3297479304092"><ele>0.0</ele></trkpt>
      <trkpt lat="-37.49685386158453" lon="-73.32989739350681"><ele>0.0</ele></trkpt>
      <trkpt lat="-37.4967096399843" lon="-73.3294792055192"><ele>0.0</ele></trkpt>
      <trkpt lat="-37.49691979062126" lon="-73.32909621912916"><ele>0.0</ele></trkpt>
      <trkpt lat="-37.4969376528429" lon="-73.32887554277283"><ele>0.0</ele></trkpt>
      <trkpt lat="-37.49669645610604" lon="-73.32868219028444"><ele>0.0</ele></trkpt>
      <trkpt lat="-37.4966424342441" lon="-73.32836973870272"><ele>0.0</ele></trkpt>
      <trkpt lat="-37.49653826595364" lon="-73.32828826019515"><ele>0.0</ele></trkpt>
      <trkpt lat="-37.49610108348767" lon="-73.32853504394474"><ele>0.0</ele></trkpt>
      <trkpt lat="-37.49607201642897" lon="-73.32877272777161"><ele>0.0</ele></trkpt>
      <trkpt lat="-37.49588823799323" lon="-73.32899709941987"><ele>0.0</ele></trkpt>
      <trkpt lat="-37.49570487626903" lon="-73.32911611192698"><ele>0.0</ele></trkpt>
      <trkpt lat="-37.49562236368498" lon="-73.32908203645242"><ele>0.0</ele></trkpt>
      <trkpt lat="-37.49572669527504" lon="-73.3283662128494"><ele>0.0</ele></trkpt>
      <trkpt lat="-37.49599439374102" lon="-73.32800588814504"><ele>0.0</ele></trkpt>
      <trkpt lat="-37.49637766987093" lon="-73.32718566949352"><ele>0.0</ele></trkpt>
      <trkpt lat="-37.49633264504568" lon="-73.32670062935341"><ele>0.0</ele></trkpt>
      <trkpt lat="-37.49587034718707" lon="-73.32672291837932"><ele>0.0</ele></trkpt>
      <trkpt lat="-37.49569080205305" lon="-73.3268418512161"><ele>0.0</ele></trkpt>
      <trkpt lat="-37.49552998825571" lon="-73.3266250161926"><ele>0.0</ele></trkpt>
      <trkpt lat="-37.49512135695078" lon="-73.32702694613845"><ele>0.0</ele></trkpt>
      <trkpt lat="-37.49485481561501" lon="-73.32714886546616"><ele>0.0</ele></trkpt>
      <trkpt lat="-37.49410391493616" lon="-73.32695612273751"><ele>0.0</ele></trkpt>
      <trkpt lat="-37.50934366009297" lon="-73.32189768007774"><ele>0.0</ele></trkpt>
      <trkpt lat="-37.50897617874926" lon="-73.32222019420409"><ele>0.0</ele></trkpt>
      <trkpt lat="-37.5086915739908" lon="-73.32283272509275"><ele>0.0</ele></trkpt>
      <trkpt lat="-37.50807372548741" lon="-73.32315187435049"><ele>0.0</ele></trkpt>
      <trkpt lat="-37.50795961286035" lon="-73.32342831909811"><ele>0.0</ele></trkpt>
      <trkpt lat="-37.50796215404113" lon="-73.32385930459881"><ele>0.0</ele></trkpt>
      <trkpt lat="-37.50772991200338" lon="-73.3241294094329"><ele>0.0</ele></trkpt>
      <trkpt lat="-37.50704055758279" lon="-73.32407298485542"><ele>0.0</ele></trkpt>
      <trkpt lat="-37.50675086500041" lon="-73.32382353564338"><ele>0.0</ele></trkpt>
      <trkpt lat="-37.50647125433813" lon="-73.3237803998275"><ele>0.0</ele></trkpt>
      <trkpt lat="-37.50627732652076" lon="-73.32397780380033"><ele>0.0</ele></trkpt>
      <trkpt lat="-37.50632897090167" lon="-73.3243403329707"><ele>0.0</ele></trkpt>
      <trkpt lat="-37.50608000453133" lon="-73.32444018743968"><ele>0.0</ele></trkpt>
      <trkpt lat="-37.50590440011686" lon="-73.32466860837054"><ele>0.0</ele></trkpt>
      <trkpt lat="-37.50573199409489" lon="-73.32474430042744"><ele>0.0</ele></trkpt>
      <trkpt lat="-37.50538904846211" lon="-73.32452298245867"><ele>0.0</ele></trkpt>
      <trkpt lat="-37.50521798464938" lon="-73.3245672152564"><ele>0.0</ele></trkpt>
      <trkpt lat="-37.5049815176292" lon="-73.32504393506699"><ele>0.0</ele></trkpt>
      <trkpt lat="-37.50480808729072" lon="-73.3251735261744"><ele>0.0</ele></trkpt>
      <trkpt lat="-37.50458632583491" lon="-73.32517399169078"><ele>0.0</ele></trkpt>
      <trkpt lat="-37.50422279500305" lon="-73.32551884991994"><ele>0.0</ele></trkpt>
      <trkpt lat="-37.50389420582093" lon="-73.32555312936363"><ele>0.0</ele></trkpt>
      <trkpt lat="-37.50344022744437" lon="-73.32519511111664"><ele>0.0</ele></trkpt>
      <trkpt lat="-37.50311489585508" lon="-73.32520687002982"><ele>0.0</ele></trkpt>
      <trkpt lat="-37.50294005331361" lon="-73.32548913954975"><ele>0.0</ele></trkpt>
      <trkpt lat="-37.50274848890996" lon="-73.32560117214459"><ele>0.0</ele></trkpt>
      <trkpt lat="-37.50250578179104" lon="-73.32563802161894"><ele>0.0</ele></trkpt>
      <trkpt lat="-37.50219737142831" lon="-73.32554553347111"><ele>0.0</ele></trkpt>
      <trkpt lat="-37.49064931059717" lon="-73.33038940374581"><ele>0.0</ele></trkpt>
      <trkpt lat="-37.49069369436462" lon="-73.33099891871126"><ele>0.0</ele></trkpt>
      <trkpt lat="-37.49044903217042" lon="-73.33140388312285"><ele>0.0</ele></trkpt>
      <trkpt lat="-37.48981038574685" lon="-73.33126546924271"><ele>0.0</ele></trkpt>
      <trkpt lat="-37.48979500471415" lon="-73.33118949951881"><ele>0.0</ele></trkpt>
      <trkpt lat="-37.48985306656271" lon="-73.3309951828888"><ele>0.0</ele></trkpt>
      <trkpt lat="-37.4901791975322" lon="-73.33066023026136"><ele>0.0</ele></trkpt>
      <trkpt lat="-37.49000392636179" lon="-73.32990100999048"><ele>0.0</ele></trkpt>
      <trkpt lat="-37.49019130728629" lon="-73.3294928302477"><ele>0.0</ele></trkpt>
      <trkpt lat="-37.49087914915875" lon="-73.32931590346509"><ele>0.0</ele></trkpt>
      <trkpt lat="-37.49127291947637" lon="-73.3294642465652"><ele>0.0</ele></trkpt>
      <trkpt lat="-37.49175546027119" lon="-73.32944002957564"><ele>0.0</ele></trkpt>
      <trkpt lat="-37.49188499217125" lon="-73.32974688930268"><ele>0.0</ele></trkpt>
      <trkpt lat="-37.49170401206089" lon="-73.32997537312163"><ele>0.0</ele></trkpt>
      <trkpt lat="-37.49100267210616" lon="-73.32970369549969"><ele>0.0</ele></trkpt>
      <trkpt lat="-37.49086378755246" lon="-73.32974719001353"><ele>0.0</ele></trkpt>
      <trkpt lat="-37.49087227178793" lon="-73.32984127012419"><ele>0.0</ele></trkpt>
      <trkpt lat="-37.49162755411054" lon="-73.33025988600512"><ele>0.0</ele></trkpt>
      <trkpt lat="-37.49189683292133" lon="-73.33083746849232"><ele>0.0</ele></trkpt>
      <trkpt lat="-37.49192890222577" lon="-73.33133504118939"><ele>0.0</ele></trkpt>
      <trkpt lat="-37.49228492144734" lon="-73.33159646405241"><ele>0.0</ele></trkpt>
      <trkpt lat="-37.49246713398212" lon="-73.33183482130265"><ele>0.0</ele></trkpt>
      <trkpt lat="-37.4913183178513" lon="-73.33410642481277"><ele>0.0</ele></trkpt>
      <trkpt lat="-37.49117406794772" lon="-73.33411483217331"><ele>0.0</ele></trkpt>
      <trkpt lat="-37.49076417914485" lon="-73.33371094982934"><ele>0.0</ele></trkpt>
      <trkpt lat="-37.49077923862298" lon="-73.33325722615363"><ele>0.0</ele></trkpt>
      <trkpt lat="-37.49102498408732" lon="-73.33292855503785"><ele>0.0</ele></trkpt>
      <trkpt lat="-37.49097279738763" lon="-73.33252570414224"><ele>0.0</ele></trkpt>
      <trkpt lat="-37.49108304084363" lon="-73.33222697755143"><ele>0.0</ele></trkpt>
      <trkpt lat="-37.4910115519326" lon="-73.33197718271849"><ele>0.0</ele></trkpt>
      <trkpt lat="-37.49107306402613" lon="-73.33177380869869"><ele>0.0</ele></trkpt>
      <trkpt lat="-37.49094945871956" lon="-73.3316329101414"><ele>0.0</ele></trkpt>
      <trkpt lat="-37.49055650201671" lon="-73.33166858650155"><ele>0.0</ele></trkpt>
      <trkpt lat="-37.49046602960756" lon="-73.33159428659108"><ele>0.0</ele></trkpt>
      <trkpt lat="-37.49044925406324" lon="-73.33141958961382"><ele>0.0</ele></trkpt>
      <trkpt lat="-37.49166158758512" lon="-73.33304907417273"><ele>0.0</ele></trkpt>
      <trkpt lat="-37.491196593235" lon="-73.33317612541926"><ele>0.0</ele></trkpt>
      <trkpt lat="-37.49099565612227" lon="-73.33363847113237"><ele>0.0</ele></trkpt>
      <trkpt lat="-37.49078826002378" lon="-73.33364307972978"><ele>0.0</ele></trkpt>
      <trkpt lat="-37.49073699590687" lon="-73.3335589279116"><ele>0.0</ele></trkpt>
      <trkpt lat="-37.49227445328323" lon="-73.33186828685218"><ele>0.0</ele></trkpt>
      <trkpt lat="-37.49218727681549" lon="-73.33202734411383"><ele>0.0</ele></trkpt>
      <trkpt lat="-37.49214858560747" lon="-73.33258036181918"><ele>0.0</ele></trkpt>
      <trkpt lat="-37.4917677497153" lon="-73.33271452381568"><ele>0.0</ele></trkpt>
      <trkpt lat="-37.49167686956928" lon="-73.33286468324523"><ele>0.0</ele></trkpt>
      <trkpt lat="-37.49173193436423" lon="-73.33321809455884"><ele>0.0</ele></trkpt>
      <trkpt lat="-37.49201166955105" lon="-73.33327023465198"><ele>0.0</ele></trkpt>
      <trkpt lat="-37.49170307182467" lon="-73.32940303972885"><ele>0.0</ele></trkpt>
      <trkpt lat="-37.49219913277234" lon="-73.32957604054283"><ele>0.0</ele></trkpt>
      <trkpt lat="-37.49254492601198" lon="-73.32924063282329"><ele>0.0</ele></trkpt>
      <trkpt lat="-37.49286253608704" lon="-73.32918866478073"><ele>0.0</ele></trkpt>
      <trkpt lat="-37.49486781816427" lon="-73.33018807860786"><ele>0.0</ele></trkpt>
      <trkpt lat="-37.49469440375169" lon="-73.33006624209295"><ele>0.0</ele></trkpt>
      <trkpt lat="-37.49485463115015" lon="-73.32959279944576"><ele>0.0</ele></trkpt>
      <trkpt lat="-37.49465396402894" lon="-73.32956734177306"><ele>0.0</ele></trkpt>
      <trkpt lat="-37.4944312355549" lon="-73.32966807379246"><ele>0.0</ele></trkpt>
      <trkpt lat="-37.49434866109623" lon="-73.32956217221879"><ele>0.0</ele></trkpt>
      <trkpt lat="-37.49460070052864" lon="-73.3291734764318"><ele>0.0</ele></trkpt>
      <trkpt lat="-37.49457953959708" lon="-73.32868911162613"><ele>0.0</ele></trkpt>
      <trkpt lat="-37.49473723817422" lon="-73.328374342861"><ele>0.0</ele></trkpt>
      <trkpt lat="-37.4945673191917" lon="-73.32816264835367"><ele>0.0</ele></trkpt>
      <trkpt lat="-37.49457552291538" lon="-73.32773149986595"><ele>0.0</ele></trkpt>
      <trkpt lat="-37.49424053482149" lon="-73.32731399305332"><ele>0.0</ele></trkpt>
      <trkpt lat="-37.49399049527331" lon="-73.32716993135166"><ele>0.0</ele></trkpt>
      <trkpt lat="-37.49830331977149" lon="-73.32939719778574"><ele>0.0</ele></trkpt>
      <trkpt lat="-37.49846844340679" lon="-73.32882840657531"><ele>0.0</ele></trkpt>
      <trkpt lat="-37.49832142779343" lon="-73.32822931328832"><ele>0.0</ele></trkpt>
      <trkpt lat="-37.49833169624345" lon="-73.32790616402394"><ele>0.0</ele></trkpt>
      <trkpt lat="-37.49815330581994" lon="-73.32753754336164"><ele>0.0</ele></trkpt>
      <trkpt lat="-37.49837529065374" lon="-73.32714136064341"><ele>0.0</ele></trkpt>
      <trkpt lat="-37.49835737420777" lon="-73.32692441019549"><ele>0.0</ele></trkpt>
      <trkpt lat="-37.4981321578474" lon="-73.32674313665919"><ele>0.0</ele></trkpt>
      <trkpt lat="-37.49784651108105" lon="-73.32683645149879"><ele>0.0</ele></trkpt>
      <trkpt lat="-37.49759832284572" lon="-73.32677989100667"><ele>0.0</ele></trkpt>
      <trkpt lat="-37.50290523022998" lon="-73.32668917185558"><ele>0.0</ele></trkpt>
      <trkpt lat="-37.50291528255765" lon="-73.32676751761592"><ele>0.0</ele></trkpt>
      <trkpt lat="-37.50289345772541" lon="-73.32691017935035"><ele>0.0</ele></trkpt>
      <trkpt lat="-37.502583544548" lon="-73.32712661631341"><ele>0.0</ele></trkpt>
      <trkpt lat="-37.50243352771331" lon="-73.32737315614064"><ele>0.0</ele></trkpt>
      <trkpt lat="-37.50209952054612" lon="-73.32820371635329"><ele>0.0</ele></trkpt>
      <trkpt lat="-37.50143573234799" lon="-73.32868993226161"><ele>0.0</ele></trkpt>
      <trkpt lat="-37.50099180505713" lon="-73.32923110036461"><ele>0.0</ele></trkpt>
      <trkpt lat="-37.50049444012277" lon="-73.32926089219661"><ele>0.0</ele></trkpt>
      <trkpt lat="-37.50002376766727" lon="-73.32885983990371"><ele>0.0</ele></trkpt>
      <trkpt lat="-37.49980558146688" lon="-73.32913407609509"><ele>0.0</ele></trkpt>
      <trkpt lat="-37.49945986969441" lon="-73.32913804018436"><ele>0.0</ele></trkpt>
      <trkpt lat="-37.49894619599498" lon="-73.3294899417132"><ele>0.0</ele></trkpt>
      <trkpt lat="-37.49847346282375" lon="-73.3295752998815"><ele>0.0</ele></trkpt>
      <trkpt lat="-37.49830521754294" lon="-73.32948177724315"><ele>0.0</ele></trkpt>
      <trkpt lat="-37.49815571487174" lon="-73.32907195583971"><ele>0.0</ele></trkpt>
      <trkpt lat="-37.49800859981927" lon="-73.32903931928908"><ele>0.0</ele></trkpt>
      <trkpt lat="-37.49763413832128" lon="-73.32937090277814"><ele>0.0</ele></trkpt>
      <trkpt lat="-37.49712904332553" lon="-73.32957071189934"><ele>0.0</ele></trkpt>
      <trkpt lat="-37.49691830461671" lon="-73.32984476922084"><ele>0.0</ele></trkpt>
      <trkpt lat="-37.49674790287243" lon="-73.33031545823698"><ele>0.0</ele></trkpt>
      <trkpt lat="-37.49626895482989" lon="-73.3308468864557"><ele>0.0</ele></trkpt>
      <trkpt lat="-37.49607271389246" lon="-73.33037538782554"><ele>0.0</ele></trkpt>
      <trkpt lat="-37.49557170008279" lon="-73.33061100905017"><ele>0.0</ele></trkpt>
      <trkpt lat="-37.49518407903662" lon="-73.33026498777325"><ele>0.0</ele></trkpt>
      <trkpt lat="-37.49492400970762" lon="-73.33021241920306"><ele>0.0</ele></trkpt>
      <trkpt lat="-37.49483493230064" lon="-73.33023684918116"><ele>0.0</ele></trkpt>
      <trkpt lat="-37.49467691699215" lon="-73.33069826983044"><ele>0.0</ele></trkpt>
      <trkpt lat="-37.49433391002098" lon="-73.33123114412038"><ele>0.0</ele></trkpt>
      <trkpt lat="-37.49419106871557" lon="-73.33124779081926"><ele>0.0</ele></trkpt>
      <trkpt lat="-37.49369788820909" lon="-73.33102532977773"><ele>0.0</ele></trkpt>
      <trkpt lat="-37.49349277537655" lon="-73.33119150505723"><ele>0.0</ele></trkpt>
      <trkpt lat="-37.49317260198742" lon="-73.33194831762457"><ele>0.0</ele></trkpt>
      <trkpt lat="-37.49266120056539" lon="-73.33195520482815"><ele>0.0</ele></trkpt>
      <trkpt lat="-37.49229858792" lon="-73.33186002204532"><ele>0.0</ele></trkpt>
      <trkpt lat="-37.50220748830758" lon="-73.3255740964489"><ele>0.0</ele></trkpt>
      <trkpt lat="-37.5021312041258" lon="-73.32641686651331"><ele>0.0</ele></trkpt>
      <trkpt lat="-37.502247018648" lon="-73.32668066864049"><ele>0.0</ele></trkpt>
      <trkpt lat="-37.50245815411291" lon="-73.3267717355664"><ele>0.0</ele></trkpt>
      <trkpt lat="-37.50248862559236" lon="-73.32690275318912"><ele>0.0</ele></trkpt>
      <trkpt lat="-37.5022360969031" lon="-73.32708797705367"><ele>0.0</ele></trkpt>
      <trkpt lat="-37.50194368376434" lon="-73.32778321791778"><ele>0.0</ele></trkpt>
      <trkpt lat="-37.50127080726218" lon="-73.32829268588935"><ele>0.0</ele></trkpt>
      <trkpt lat="-37.50104313044329" lon="-73.32878503589974"><ele>0.0</ele></trkpt>
      <trkpt lat="-37.50064142123713" lon="-73.32917949763177"><ele>0.0</ele></trkpt>
      <trkpt lat="-37.50044720354384" lon="-73.3292053764296"><ele>0.0</ele></trkpt>
      <trkpt lat="-37.50291411667097" lon="-73.32668523204083"><ele>0.0</ele></trkpt>
      <trkpt lat="-37.50325497078356" lon="-73.32689041687254"><ele>0.0</ele></trkpt>
      <trkpt lat="-37.50344925946406" lon="-73.32680227129914"><ele>0.0</ele></trkpt>
      <trkpt lat="-37.50934259625868" lon="-73.32192245829125"><ele>0.0</ele></trkpt>
      <trkpt lat="-37.5088326550985" lon="-73.32306013776474"><ele>0.0</ele></trkpt>
      <trkpt lat="-37.50827193319271" lon="-73.32356097700273"><ele>0.0</ele></trkpt>
      <trkpt lat="-37.50813106604629" lon="-73.32413660759266"><ele>0.0</ele></trkpt>
      <trkpt lat="-37.50784648338966" lon="-73.32445727264601"><ele>0.0</ele></trkpt>
      <trkpt lat="-37.50697851653821" lon="-73.32494251178969"><ele>0.0</ele></trkpt>
      <trkpt lat="-37.5065274287922" lon="-73.32539784595568"><ele>0.0</ele></trkpt>
      <trkpt lat="-37.506069705114" lon="-73.3254903882176"><ele>0.0</ele></trkpt>
      <trkpt lat="-37.50552041729097" lon="-73.32532680678965"><ele>0.0</ele></trkpt>
      <trkpt lat="-37.50460584528405" lon="-73.32609928713802"><ele>0.0</ele></trkpt>
      <trkpt lat="-37.50412077231562" lon="-73.32615501807942"><ele>0.0</ele></trkpt>
      <trkpt lat="-37.50355892436222" lon="-73.32605157947627"><ele>0.0</ele></trkpt>
      <trkpt lat="-37.50341663565193" lon="-73.32610713761969"><ele>0.0</ele></trkpt>
      <trkpt lat="-37.50337677374646" lon="-73.3262389788839"><ele>0.0</ele></trkpt>
      <trkpt lat="-37.50363113530036" lon="-73.32694043716548"><ele>0.0</ele></trkpt>
      <trkpt lat="-37.53690558311955" lon="-73.2665585846973"><ele>0.0</ele></trkpt>
      <trkpt lat="-37.5373751623195" lon="-73.2654098003836"><ele>0.0</ele></trkpt>
      <trkpt lat="-37.537438932882" lon="-73.26488128986702"><ele>0.0</ele></trkpt>
      <trkpt lat="-37.53768949940677" lon="-73.26473174553223"><ele>0.0</ele></trkpt>
      <trkpt lat="-37.53772950285261" lon="-73.26453318015744"><ele>0.0</ele></trkpt>
      <trkpt lat="-37.53741292454356" lon="-73.26408535465929"><ele>0.0</ele></trkpt>
      <trkpt lat="-37.53730328494359" lon="-73.26376449110265"><ele>0.0</ele></trkpt>
      <trkpt lat="-37.53726754684152" lon="-73.26328021134516"><ele>0.0</ele></trkpt>
      <trkpt lat="-37.53718085082627" lon="-73.26322233272406"><ele>0.0</ele></trkpt>
      <trkpt lat="-37.53693601012505" lon="-73.26376103114347"><ele>0.0</ele></trkpt>
      <trkpt lat="-37.53646781178778" lon="-73.26402941368528"><ele>0.0</ele></trkpt>
      <trkpt lat="-37.53612055353565" lon="-73.26457646732888"><ele>0.0</ele></trkpt>
      <trkpt lat="-37.53525719256103" lon="-73.26456653607836"><ele>0.0</ele></trkpt>
      <trkpt lat="-37.53467969892655" lon="-73.26469969805906"><ele>0.0</ele></trkpt>
      <trkpt lat="-37.53397906479511" lon="-73.26440452289161"><ele>0.0</ele></trkpt>
      <trkpt lat="-37.53355007598692" lon="-73.26442045598009"><ele>0.0</ele></trkpt>
      <trkpt lat="-37.53325792179561" lon="-73.26466078659055"><ele>0.0</ele></trkpt>
      <trkpt lat="-37.53326152938337" lon="-73.26490623867512"><ele>0.0</ele></trkpt>
      <trkpt lat="-37.53340515398514" lon="-73.26526822024174"><ele>0.0</ele></trkpt>
      <trkpt lat="-37.53333540039295" lon="-73.26538961001415"><ele>0.0</ele></trkpt>
      <trkpt lat="-37.53316941665812" lon="-73.26545334212074"><ele>0.0</ele></trkpt>
      <trkpt lat="-37.53230228129802" lon="-73.26502428528696"><ele>0.0</ele></trkpt>
      <trkpt lat="-37.5321454094055" lon="-73.26473447950985"><ele>0.0</ele></trkpt>
      <trkpt lat="-37.53201548432811" lon="-73.2640068843433"><ele>0.0</ele></trkpt>
      <trkpt lat="-37.531804582503" lon="-73.26361054066257"><ele>0.0</ele></trkpt>
      <trkpt lat="-37.53103823054406" lon="-73.26403552983436"><ele>0.0</ele></trkpt>
      <trkpt lat="-37.53065035902421" lon="-73.26457749553659"><ele>0.0</ele></trkpt>
      <trkpt lat="-37.53000357541222" lon="-73.26437690232048"><ele>0.0</ele></trkpt>
      <trkpt lat="-37.52961767003058" lon="-73.26440381200761"><ele>0.0</ele></trkpt>
      <trkpt lat="-37.52906790874922" lon="-73.26431475220512"><ele>0.0</ele></trkpt>
      <trkpt lat="-37.52898490932954" lon="-73.26450830264268"><ele>0.0</ele></trkpt>
      <trkpt lat="-37.5290160662174" lon="-73.26468124229255"><ele>0.0</ele></trkpt>
      <trkpt lat="-37.52957692882868" lon="-73.26520121091609"><ele>0.0</ele></trkpt>
      <trkpt lat="-37.52963128829126" lon="-73.26565506887309"><ele>0.0</ele></trkpt>
      <trkpt lat="-37.52956019569727" lon="-73.26601002986695"><ele>0.0</ele></trkpt>
      <trkpt lat="-37.52913260257478" lon="-73.26628341837618"><ele>0.0</ele></trkpt>
      <trkpt lat="-37.52867377702169" lon="-73.26621619299257"><ele>0.0</ele></trkpt>
      <trkpt lat="-37.52822668414904" lon="-73.26629840351839"><ele>0.0</ele></trkpt>
      <trkpt lat="-37.52788217032897" lon="-73.26654590918146"><ele>0.0</ele></trkpt>
      <trkpt lat="-37.52765737145093" lon="-73.26682657120189"><ele>0.0</ele></trkpt>
      <trkpt lat="-37.52691308654593" lon="-73.26713122842182"><ele>0.0</ele></trkpt>
      <trkpt lat="-37.52668358198173" lon="-73.26774134214716"><ele>0.0</ele></trkpt>
      <trkpt lat="-37.52678920638375" lon="-73.26843951374028"><ele>0.0</ele></trkpt>
      <trkpt lat="-37.52673028714346" lon="-73.26881214169768"><ele>0.0</ele></trkpt>
      <trkpt lat="-37.52648711446068" lon="-73.26914112229602"><ele>0.0</ele></trkpt>
      <trkpt lat="-37.52585823816988" lon="-73.2691855968833"><ele>0.0</ele></trkpt>
      <trkpt lat="-37.52575396657392" lon="-73.26922992319908"><ele>0.0</ele></trkpt>
      <trkpt lat="-37.52564747195935" lon="-73.26944795478572"><ele>0.0</ele></trkpt>
      <trkpt lat="-37.52575267862453" lon="-73.26979283233909"><ele>0.0</ele></trkpt>
      <trkpt lat="-37.52638559029683" lon="-73.27002372367127"><ele>0.0</ele></trkpt>
      <trkpt lat="-37.5265074977016" lon="-73.27020653994735"><ele>0.0</ele></trkpt>
      <trkpt lat="-37.52646906221964" lon="-73.27051282266915"><ele>0.0</ele></trkpt>
      <trkpt lat="-37.52535144473018" lon="-73.27121528082499"><ele>0.0</ele></trkpt>
      <trkpt lat="-37.52487607156414" lon="-73.27229810755712"><ele>0.0</ele></trkpt>
      <trkpt lat="-37.52412577692964" lon="-73.27251900546104"><ele>0.0</ele></trkpt>
      <trkpt lat="-37.52406695146765" lon="-73.27273592830342"><ele>0.0</ele></trkpt>
      <trkpt lat="-37.524223190671" lon="-73.27298381943137"><ele>0.0</ele></trkpt>
      <trkpt lat="-37.52521101660349" lon="-73.27318858659855"><ele>0.0</ele></trkpt>
      <trkpt lat="-37.52539428454968" lon="-73.27332807432592"><ele>0.0</ele></trkpt>
      <trkpt lat="-37.52521049975017" lon="-73.27445806270207"><ele>0.0</ele></trkpt>
      <trkpt lat="-37.5253163041664" lon="-73.27484484811248"><ele>0.0</ele></trkpt>
      <trkpt lat="-37.52547739412702" lon="-73.2750986240926"><ele>0.0</ele></trkpt>
      <trkpt lat="-37.52569862547805" lon="-73.2752252665677"><ele>0.0</ele></trkpt>
      <trkpt lat="-37.52602784903133" lon="-73.27523564889451"><ele>0.0</ele></trkpt>
      <trkpt lat="-37.52636301819225" lon="-73.27565308731621"><ele>0.0</ele></trkpt>
      <trkpt lat="-37.52683318720774" lon="-73.2760075401318"><ele>0.0</ele></trkpt>
      <trkpt lat="-37.52746600060286" lon="-73.27623250124115"><ele>0.0</ele></trkpt>
      <trkpt lat="-37.52779119446656" lon="-73.27662024027289"><ele>0.0</ele></trkpt>
      <trkpt lat="-37.52815295504148" lon="-73.2768993523353"><ele>0.0</ele></trkpt>
      <trkpt lat="-37.52841648108947" lon="-73.27698311318491"><ele>0.0</ele></trkpt>
      <trkpt lat="-37.5287453550936" lon="-73.27696955790083"><ele>0.0</ele></trkpt>
      <trkpt lat="-37.52933485851461" lon="-73.27749494727527"><ele>0.0</ele></trkpt>
      <trkpt lat="-37.52989559598175" lon="-73.27735629202554"><ele>0.0</ele></trkpt>
      <trkpt lat="-37.53018287215645" lon="-73.27743352141476"><ele>0.0</ele></trkpt>
      <trkpt lat="-37.53035286306134" lon="-73.2782979366878"><ele>0.0</ele></trkpt>
      <trkpt lat="-37.53034969997199" lon="-73.27873516653898"><ele>0.0</ele></trkpt>
      <trkpt lat="-37.52995475386087" lon="-73.27945087882695"><ele>0.0</ele></trkpt>
      <trkpt lat="-37.52905118404601" lon="-73.28060942621529"><ele>0.0</ele></trkpt>
      <trkpt lat="-37.52866877299468" lon="-73.28122814709006"><ele>0.0</ele></trkpt>
      <trkpt lat="-37.52750303263802" lon="-73.28206930145295"><ele>0.0</ele></trkpt>
      <trkpt lat="-37.52733686450191" lon="-73.28212101902253"><ele>0.0</ele></trkpt>
      <trkpt lat="-37.52719078875217" lon="-73.28191478270266"><ele>0.0</ele></trkpt>
      <trkpt lat="-37.52693368842363" lon="-73.28194463368736"><ele>0.0</ele></trkpt>
      <trkpt lat="-37.52592135362934" lon="-73.28251277436834"><ele>0.0</ele></trkpt>
      <trkpt lat="-37.52556883559131" lon="-73.28286816675616"><ele>0.0</ele></trkpt>
      <trkpt lat="-37.52461821295993" lon="-73.28341690554302"><ele>0.0</ele></trkpt>
      <trkpt lat="-37.52399729813119" lon="-73.28417364206939"><ele>0.0</ele></trkpt>
      <trkpt lat="-37.5237881336149" lon="-73.28422034927627"><ele>0.0</ele></trkpt>
      <trkpt lat="-37.52358702546338" lon="-73.28416507705846"><ele>0.0</ele></trkpt>
      <trkpt lat="-37.52335400594983" lon="-73.28388299603847"><ele>0.0</ele></trkpt>
      <trkpt lat="-37.52320852399978" lon="-73.28338933474882"><ele>0.0</ele></trkpt>
      <trkpt lat="-37.52291075850452" lon="-73.28324646250108"><ele>0.0</ele></trkpt>
      <trkpt lat="-37.52270387152311" lon="-73.28295779993978"><ele>0.0</ele></trkpt>
      <trkpt lat="-37.52201392450178" lon="-73.28241076369287"><ele>0.0</ele></trkpt>
      <trkpt lat="-37.52172786999615" lon="-73.28241732306444"><ele>0.0</ele></trkpt>
      <trkpt lat="-37.52151021585826" lon="-73.28253608116218"><ele>0.0</ele></trkpt>
      <trkpt lat="-37.52116246455418" lon="-73.28289134240784"><ele>0.0</ele></trkpt>
      <trkpt lat="-37.52079975569107" lon="-73.28361066513688"><ele>0.0</ele></trkpt>
      <trkpt lat="-37.52886931770163" lon="-73.28110604949708"><ele>0.0</ele></trkpt>
      <trkpt lat="-37.52865510621261" lon="-73.28355877108456"><ele>0.0</ele></trkpt>
      <trkpt lat="-37.52839272297056" lon="-73.28494808280539"><ele>0.0</ele></trkpt>
      <trkpt lat="-37.52833461726895" lon="-73.28611937730264"><ele>0.0</ele></trkpt>
      <trkpt lat="-37.52853534306065" lon="-73.28713429405025"><ele>0.0</ele></trkpt>
      <trkpt lat="-37.52873161780336" lon="-73.28882974237612"><ele>0.0</ele></trkpt>
      <trkpt lat="-37.52881935660925" lon="-73.28920724853447"><ele>0.0</ele></trkpt>
      <trkpt lat="-37.52936325689387" lon="-73.28996283291495"><ele>0.0</ele></trkpt>
      <trkpt lat="-37.52958133557751" lon="-73.29168475837805"><ele>0.0</ele></trkpt>
      <trkpt lat="-37.52945000267235" lon="-73.29224916628365"><ele>0.0</ele></trkpt>
      <trkpt lat="-37.52893644569241" lon="-73.29334327266574"><ele>0.0</ele></trkpt>
      <trkpt lat="-37.49133015277329" lon="-73.33410017651707"><ele>0.0</ele></trkpt>
      <trkpt lat="-37.4913225275839" lon="-73.33394916607736"><ele>0.0</ele></trkpt>
      <trkpt lat="-37.49162588754368" lon="-73.33347855749594"><ele>0.0</ele></trkpt>
      <trkpt lat="-37.49209173964664" lon="-73.33311655976001"><ele>0.0</ele></trkpt>
      <trkpt lat="-37.4931629409429" lon="-73.33256153193727"><ele>0.0</ele></trkpt>
      <trkpt lat="-37.49998370824446" lon="-73.33017916401815"><ele>0.0</ele></trkpt>
      <trkpt lat="-37.49997871558508" lon="-73.32957318603098"><ele>0.0</ele></trkpt>
      <trkpt lat="-37.50007553619918" lon="-73.32933757171845"><ele>0.0</ele></trkpt>
      <trkpt lat="-37.50008131076107" lon="-73.32898725771008"><ele>0.0</ele></trkpt>
      <trkpt lat="-37.50019715228566" lon="-73.32883203039587"><ele>0.0</ele></trkpt>
      <trkpt lat="-37.50018707908905" lon="-73.32862573513167"><ele>0.0</ele></trkpt>
      <trkpt lat="-37.50000306279696" lon="-73.32851310957031"><ele>0.0</ele></trkpt>
      <trkpt lat="-37.49973050312395" lon="-73.32885227280833"><ele>0.0</ele></trkpt>
      <trkpt lat="-37.49943629827816" lon="-73.3288730480562"><ele>0.0</ele></trkpt>
      <trkpt lat="-37.49933257850103" lon="-73.32874740910387"><ele>0.0</ele></trkpt>
      <trkpt lat="-37.49932895804625" lon="-73.32849158775063"><ele>0.0</ele></trkpt>
      <trkpt lat="-37.49940480133899" lon="-73.32824821116735"><ele>0.0</ele></trkpt>
      <trkpt lat="-37.49960540163971" lon="-73.32801626841763"><ele>0.0</ele></trkpt>
      <trkpt lat="-37.49995642395922" lon="-73.32800843938432"><ele>0.0</ele></trkpt>
      <trkpt lat="-37.50014570041567" lon="-73.32777674683587"><ele>0.0</ele></trkpt>
      <trkpt lat="-37.50001872912018" lon="-73.32760897624368"><ele>0.0</ele></trkpt>
      <trkpt lat="-37.49965437090742" lon="-73.3274749362613"><ele>0.0</ele></trkpt>
      <trkpt lat="-37.4993257939885" lon="-73.32746805016805"><ele>0.0</ele></trkpt>
      <trkpt lat="-37.49927889054378" lon="-73.32735536244526"><ele>0.0</ele></trkpt>
      <trkpt lat="-37.49942206728552" lon="-73.32706783196303"><ele>0.0</ele></trkpt>
      <trkpt lat="-37.49998762805881" lon="-73.32701256011408"><ele>0.0</ele></trkpt>
      <trkpt lat="-37.50005335305669" lon="-73.32685470725211"><ele>0.0</ele></trkpt>
      <trkpt lat="-37.49976543782366" lon="-73.32651992858717"><ele>0.0</ele></trkpt>
      <trkpt lat="-37.49903853174052" lon="-73.32637977138548"><ele>0.0</ele></trkpt>
      <trkpt lat="-37.49867135222782" lon="-73.32604676883753"><ele>0.0</ele></trkpt>
      <trkpt lat="-37.49593645052289" lon="-73.33037006669244"><ele>0.0</ele></trkpt>
      <trkpt lat="-37.49603770240923" lon="-73.33011042459844"><ele>0.0</ele></trkpt>
      <trkpt lat="-37.49645108397072" lon="-73.3296642552142"><ele>0.0</ele></trkpt>
      <trkpt lat="-37.49692663988419" lon="-73.32889346091658"><ele>0.0</ele></trkpt>
      <trkpt lat="-37.49752311162836" lon="-73.32891608090571"><ele>0.0</ele></trkpt>
      <trkpt lat="-37.49796893050917" lon="-73.32840332767248"><ele>0.0</ele></trkpt>
      <trkpt lat="-37.49817633799245" lon="-73.32823109733339"><ele>0.0</ele></trkpt>
      <trkpt lat="-37.49831502503478" lon="-73.32825793435782"><ele>0.0</ele></trkpt>
      <trkpt lat="-37.51769612068084" lon="-73.28672492533508"><ele>0.0</ele></trkpt>
      <trkpt lat="-37.51762044717354" lon="-73.2867685680367"><ele>0.0</ele></trkpt>
      <trkpt lat="-37.51747300759845" lon="-73.28712519817883"><ele>0.0</ele></trkpt>
      <trkpt lat="-37.51713139773371" lon="-73.28757607649712"><ele>0.0</ele></trkpt>
      <trkpt lat="-37.51712464008777" lon="-73.28776782785762"><ele>0.0</ele></trkpt>
      <trkpt lat="-37.5172297930393" lon="-73.28811269445188"><ele>0.0</ele></trkpt>
      <trkpt lat="-37.51756678252382" lon="-73.28865883210523"><ele>0.0</ele></trkpt>
      <trkpt lat="-37.51757467542006" lon="-73.28920350884816"><ele>0.0</ele></trkpt>
      <trkpt lat="-37.51790372862127" lon="-73.28986060326899"><ele>0.0</ele></trkpt>
      <trkpt lat="-37.51823607346478" lon="-73.29008652878338"><ele>0.0</ele></trkpt>
      <trkpt lat="-37.51825158971748" lon="-73.2901699995572"><ele>0.0</ele></trkpt>
      <trkpt lat="-37.51800705466079" lon="-73.29040909231941"><ele>0.0</ele></trkpt>
      <trkpt lat="-37.5178921047249" lon="-73.29136372278445"><ele>0.0</ele></trkpt>
      <trkpt lat="-37.51758809689053" lon="-73.29194245727587"><ele>0.0</ele></trkpt>
      <trkpt lat="-37.5179643707" lon="-73.2928978615987"><ele>0.0</ele></trkpt>
      <trkpt lat="-37.51800829894231" lon="-73.29362733294164"><ele>0.0</ele></trkpt>
      <trkpt lat="-37.51787132484092" lon="-73.29404957560408"><ele>0.0</ele></trkpt>
      <trkpt lat="-37.51714112120668" lon="-73.2946739254196"><ele>0.0</ele></trkpt>
      <trkpt lat="-37.51690844527394" lon="-73.29507438959418"><ele>0.0</ele></trkpt>
      <trkpt lat="-37.5166002475873" lon="-73.29585976104559"><ele>0.0</ele></trkpt>
      <trkpt lat="-37.51636028648638" lon="-73.29625140328811"><ele>0.0</ele></trkpt>
      <trkpt lat="-37.51607024654221" lon="-73.29763508410082"><ele>0.0</ele></trkpt>
      <trkpt lat="-37.51591392832942" lon="-73.29803978607777"><ele>0.0</ele></trkpt>
      <trkpt lat="-37.51546474504053" lon="-73.29847508679478"><ele>0.0</ele></trkpt>
      <trkpt lat="-37.51451961052424" lon="-73.29874801348134"><ele>0.0</ele></trkpt>
      <trkpt lat="-37.51394465557283" lon="-73.2990604262562"><ele>0.0</ele></trkpt>
      <trkpt lat="-37.51383066368907" lon="-73.29909294979161"><ele>0.0</ele></trkpt>
      <trkpt lat="-37.51338980074194" lon="-73.29894729279377"><ele>0.0</ele></trkpt>
      <trkpt lat="-37.51314360864651" lon="-73.2990726238513"><ele>0.0</ele></trkpt>
      <trkpt lat="-37.5120739531657" lon="-73.30080020929748"><ele>0.0</ele></trkpt>
      <trkpt lat="-37.51155161169661" lon="-73.3019525716816"><ele>0.0</ele></trkpt>
      <trkpt lat="-37.51131728896358" lon="-73.30290381982839"><ele>0.0</ele></trkpt>
      <trkpt lat="-37.51137124360084" lon="-73.3033396456012"><ele>0.0</ele></trkpt>
      <trkpt lat="-37.5112347293111" lon="-73.30396238539495"><ele>0.0</ele></trkpt>
      <trkpt lat="-37.51108422769582" lon="-73.30610312726569"><ele>0.0</ele></trkpt>
      <trkpt lat="-37.51038601231716" lon="-73.30713368636667"><ele>0.0</ele></trkpt>
      <trkpt lat="-37.51017660000365" lon="-73.30816217081616"><ele>0.0</ele></trkpt>
      <trkpt lat="-37.50963407337711" lon="-73.30957533540975"><ele>0.0</ele></trkpt>
      <trkpt lat="-37.50916798642638" lon="-73.30999893725813"><ele>0.0</ele></trkpt>
      <trkpt lat="-37.50893849612166" lon="-73.31045910687126"><ele>0.0</ele></trkpt>
      <trkpt lat="-37.5086385032317" lon="-73.31082507482658"><ele>0.0</ele></trkpt>
      <trkpt lat="-37.50770029731675" lon="-73.31141794847376"><ele>0.0</ele></trkpt>
      <trkpt lat="-37.50724328667229" lon="-73.31147613853868"><ele>0.0</ele></trkpt>
      <trkpt lat="-37.50655328315683" lon="-73.31191673125322"><ele>0.0</ele></trkpt>
      <trkpt lat="-37.50635046631983" lon="-73.31224158047735"><ele>0.0</ele></trkpt>
      <trkpt lat="-37.5063338318741" lon="-73.31308007352294"><ele>0.0</ele></trkpt>
      <trkpt lat="-37.50623355925491" lon="-73.31340560432167"><ele>0.0</ele></trkpt>
      <trkpt lat="-37.50521981040133" lon="-73.31396763958563"><ele>0.0</ele></trkpt>
      <trkpt lat="-37.50463589531044" lon="-73.31457598398596"><ele>0.0</ele></trkpt>
      <trkpt lat="-37.50451603526372" lon="-73.31486602724975"><ele>0.0</ele></trkpt>
      <trkpt lat="-37.50475368992149" lon="-73.31581252741745"><ele>0.0</ele></trkpt>
      <trkpt lat="-37.50473241187027" lon="-73.31599259859152"><ele>0.0</ele></trkpt>
      <trkpt lat="-37.50451182989234" lon="-73.31624299771296"><ele>0.0</ele></trkpt>
      <trkpt lat="-37.50444262811302" lon="-73.31674142450687"><ele>0.0</ele></trkpt>
      <trkpt lat="-37.50406148623372" lon="-73.31743841797461"><ele>0.0</ele></trkpt>
      <trkpt lat="-37.50375678464033" lon="-73.31764280772828"><ele>0.0</ele></trkpt>
      <trkpt lat="-37.50305244713902" lon="-73.317748410951"><ele>0.0</ele></trkpt>
      <trkpt lat="-37.50260335346752" lon="-73.31802787191305"><ele>0.0</ele></trkpt>
      <trkpt lat="-37.50211875474889" lon="-73.3181584702878"><ele>0.0</ele></trkpt>
      <trkpt lat="-37.5018054961856" lon="-73.31843188482706"><ele>0.0</ele></trkpt>
      <trkpt lat="-37.50149445505072" lon="-73.31936372695355"><ele>0.0</ele></trkpt>
      <trkpt lat="-37.50154213277357" lon="-73.32003311049434"><ele>0.0</ele></trkpt>
      <trkpt lat="-37.50135354630966" lon="-73.32119266751772"><ele>0.0</ele></trkpt>
      <trkpt lat="-37.5015473904506" lon="-73.32208026775481"><ele>0.0</ele></trkpt>
      <trkpt lat="-37.50134049533266" lon="-73.32262365410678"><ele>0.0</ele></trkpt>
      <trkpt lat="-37.50135077770097" lon="-73.32334775062857"><ele>0.0</ele></trkpt>
      <trkpt lat="-37.500784999495" lon="-73.32397839904516"><ele>0.0</ele></trkpt>
      <trkpt lat="-37.50044657954981" lon="-73.32401133162628"><ele>0.0</ele></trkpt>
      <trkpt lat="-37.4993965032254" lon="-73.32437152140574"><ele>0.0</ele></trkpt>
      <trkpt lat="-37.49868122531703" lon="-73.3247990435032"><ele>0.0</ele></trkpt>
      <trkpt lat="-37.49808696049058" lon="-73.32493204068251"><ele>0.0</ele></trkpt>
      <trkpt lat="-37.49780397495022" lon="-73.32515535191669"><ele>0.0</ele></trkpt>
      <trkpt lat="-37.4974711905906" lon="-73.32523012722316"><ele>0.0</ele></trkpt>
      <trkpt lat="-37.5100170316436" lon="-73.32077184789807"><ele>0.0</ele></trkpt>
      <trkpt lat="-37.50955232341499" lon="-73.32049884354075"><ele>0.0</ele></trkpt>
      <trkpt lat="-37.50868737258204" lon="-73.32054516857595"><ele>0.0</ele></trkpt>
      <trkpt lat="-37.50773149585892" lon="-73.32036004926479"><ele>0.0</ele></trkpt>
      <trkpt lat="-37.50695242693741" lon="-73.32040893924388"><ele>0.0</ele></trkpt>
      <trkpt lat="-37.50636299972993" lon="-73.32071399384284"><ele>0.0</ele></trkpt>
      <trkpt lat="-37.50594770137091" lon="-73.32056166256905"><ele>0.0</ele></trkpt>
      <trkpt lat="-37.50508664409446" lon="-73.32075606086813"><ele>0.0</ele></trkpt>
      <trkpt lat="-37.50474171141425" lon="-73.32064705333775"><ele>0.0</ele></trkpt>
      <trkpt lat="-37.50378960106843" lon="-73.32060103909272"><ele>0.0</ele></trkpt>
      <trkpt lat="-37.50370493162167" lon="-73.32068375198065"><ele>0.0</ele></trkpt>
      <trkpt lat="-37.50375109561691" lon="-73.32091169598283"><ele>0.0</ele></trkpt>
      <trkpt lat="-37.50427436959333" lon="-73.32098527993294"><ele>0.0</ele></trkpt>
      <trkpt lat="-37.50456975179453" lon="-73.3211313169038"><ele>0.0</ele></trkpt>
      <trkpt lat="-37.50523656025042" lon="-73.32174047115078"><ele>0.0</ele></trkpt>
      <trkpt lat="-37.50531988304658" lon="-73.32206636555755"><ele>0.0</ele></trkpt>
      <trkpt lat="-37.50512014031443" lon="-73.32260961964788"><ele>0.0</ele></trkpt>
      <trkpt lat="-37.50473701749526" lon="-73.32283370570798"><ele>0.0</ele></trkpt>
      <trkpt lat="-37.50398539892237" lon="-73.32305256446189"><ele>0.0</ele></trkpt>
      <trkpt lat="-37.50381759278314" lon="-73.32307427789726"><ele>0.0</ele></trkpt>
      <trkpt lat="-37.50325703543875" lon="-73.32276804722639"><ele>0.0</ele></trkpt>
      <trkpt lat="-37.50180973514532" lon="-73.32311470720785"><ele>0.0</ele></trkpt>
      <trkpt lat="-37.50156860730164" lon="-73.32326041991298"><ele>0.0</ele></trkpt>
      <trkpt lat="-37.50116726876924" lon="-73.3239652877744"><ele>0.0</ele></trkpt>
      <trkpt lat="-37.500784999495" lon="-73.32397839904516"><ele>0.0</ele></trkpt>
      <trkpt lat="-37.52079975569107" lon="-73.28361066513688"><ele>0.0</ele></trkpt>
      <trkpt lat="-37.52059769296464" lon="-73.28390123706812"><ele>0.0</ele></trkpt>
      <trkpt lat="-37.52049301265306" lon="-73.2845742542472"><ele>0.0</ele></trkpt>
      <trkpt lat="-37.52009187577448" lon="-73.28437387306633"><ele>0.0</ele></trkpt>
      <trkpt lat="-37.51979482277996" lon="-73.28460820570622"><ele>0.0</ele></trkpt>
      <trkpt lat="-37.51974491522662" lon="-73.28511230782946"><ele>0.0</ele></trkpt>
      <trkpt lat="-37.52016058973246" lon="-73.28582130911506"><ele>0.0</ele></trkpt>
      <trkpt lat="-37.52014222576218" lon="-73.28619895086074"><ele>0.0</ele></trkpt>
      <trkpt lat="-37.52002928058484" lon="-73.28630332465168"><ele>0.0</ele></trkpt>
      <trkpt lat="-37.51957479612776" lon="-73.28620594501994"><ele>0.0</ele></trkpt>
      <trkpt lat="-37.51940706710151" lon="-73.28631456502613"><ele>0.0</ele></trkpt>
      <trkpt lat="-37.51905992031915" lon="-73.28704101325135"><ele>0.0</ele></trkpt>
      <trkpt lat="-37.51910995443586" lon="-73.28786016509855"><ele>0.0</ele></trkpt>
      <trkpt lat="-37.51902561322106" lon="-73.28796388119129"><ele>0.0</ele></trkpt>
      <trkpt lat="-37.51869620930148" lon="-73.28761215759735"><ele>0.0</ele></trkpt>
      <trkpt lat="-37.51855221128832" lon="-73.2868909596114"><ele>0.0</ele></trkpt>
      <trkpt lat="-37.51846136657541" lon="-73.28687507451022"><ele>0.0</ele></trkpt>
      <trkpt lat="-37.5183873575173" lon="-73.28769106745727"><ele>0.0</ele></trkpt>
      <trkpt lat="-37.51860147628086" lon="-73.28831486304351"><ele>0.0</ele></trkpt>
      <trkpt lat="-37.51853663881204" lon="-73.28844806987412"><ele>0.0</ele></trkpt>
      <trkpt lat="-37.5183978580455" lon="-73.28841531557235"><ele>0.0</ele></trkpt>
      <trkpt lat="-37.51822526531549" lon="-73.2880240844197"><ele>0.0</ele></trkpt>
      <trkpt lat="-37.51795402749448" lon="-73.28773689684212"><ele>0.0</ele></trkpt>
      <trkpt lat="-37.51780440237825" lon="-73.28728526993028"><ele>0.0</ele></trkpt>
      <trkpt lat="-37.51777266264907" lon="-73.2867411372215"><ele>0.0</ele></trkpt>
      <trkpt lat="-37.51769612068084" lon="-73.28672492533508"><ele>0.0</ele></trkpt>
      <trkpt lat="-37.52328427518036" lon="-73.30004283545972"><ele>0.0</ele></trkpt>
      <trkpt lat="-37.52286815756936" lon="-73.30045646104362"><ele>0.0</ele></trkpt>
      <trkpt lat="-37.52262617212599" lon="-73.30054278775532"><ele>0.0</ele></trkpt>
      <trkpt lat="-37.52246427379129" lon="-73.30072609626384"><ele>0.0</ele></trkpt>
      <trkpt lat="-37.52210221805149" lon="-73.30141692049524"><ele>0.0</ele></trkpt>
      <trkpt lat="-37.52134627287813" lon="-73.30182925425551"><ele>0.0</ele></trkpt>
      <trkpt lat="-37.52034979729065" lon="-73.3026781433573"><ele>0.0</ele></trkpt>
      <trkpt lat="-37.51971956707026" lon="-73.3026295531992"><ele>0.0</ele></trkpt>
      <trkpt lat="-37.51924410817229" lon="-73.3033947620539"><ele>0.0</ele></trkpt>
      <trkpt lat="-37.5189284125485" lon="-73.30333006117478"><ele>0.0</ele></trkpt>
      <trkpt lat="-37.51873976560857" lon="-73.30314572609616"><ele>0.0</ele></trkpt>
      <trkpt lat="-37.51858003557779" lon="-73.30248472810418"><ele>0.0</ele></trkpt>
      <trkpt lat="-37.51849279841299" lon="-73.30238791071321"><ele>0.0</ele></trkpt>
      <trkpt lat="-37.51822896955518" lon="-73.30244777680403"><ele>0.0</ele></trkpt>
      <trkpt lat="-37.5179455310077" lon="-73.30288529806468"><ele>0.0</ele></trkpt>
      <trkpt lat="-37.5176486542379" lon="-73.30313451542864"><ele>0.0</ele></trkpt>
      <trkpt lat="-37.51713174269667" lon="-73.3033165874582"><ele>0.0</ele></trkpt>
      <trkpt lat="-37.52893242584828" lon="-73.29336635989598"><ele>0.0</ele></trkpt>
      <trkpt lat="-37.52867116758574" lon="-73.2945939336635"><ele>0.0</ele></trkpt>
      <trkpt lat="-37.52857377162441" lon="-73.29478478392568"><ele>0.0</ele></trkpt>
      <trkpt lat="-37.52818511289719" lon="-73.29511700176914"><ele>0.0</ele></trkpt>
      <trkpt lat="-37.52726385690321" lon="-73.29572182611791"><ele>0.0</ele></trkpt>
      <trkpt lat="-37.52719402777525" lon="-73.29584018542556"><ele>0.0</ele></trkpt>
      <trkpt lat="-37.52721493959149" lon="-73.29629780817625"><ele>0.0</ele></trkpt>
      <trkpt lat="-37.52714627589803" lon="-73.2964969812267"><ele>0.0</ele></trkpt>
      <trkpt lat="-37.52699425607511" lon="-73.29686871346385"><ele>0.0</ele></trkpt>
      <trkpt lat="-37.52662567088664" lon="-73.29735315519422"><ele>0.0</ele></trkpt>
      <trkpt lat="-37.52612817945792" lon="-73.29758003817474"><ele>0.0</ele></trkpt>
      <trkpt lat="-37.52548494054661" lon="-73.29762160602829"><ele>0.0</ele></trkpt>
      <trkpt lat="-37.52499356420371" lon="-73.29777648801243"><ele>0.0</ele></trkpt>
      <trkpt lat="-37.52417435352472" lon="-73.29851366359279"><ele>0.0</ele></trkpt>
      <trkpt lat="-37.52355473090935" lon="-73.29920138127798"><ele>0.0</ele></trkpt>
      <trkpt lat="-37.52328427518036" lon="-73.30004283545972"><ele>0.0</ele></trkpt>
      <trkpt lat="-37.50934366009297" lon="-73.32189768007774"><ele>0.0</ele></trkpt>
      <trkpt lat="-37.54009596949543" lon="-73.27907515796595"><ele>0.0</ele></trkpt>
      <trkpt lat="-37.54000061845484" lon="-73.27907735010768"><ele>0.0</ele></trkpt>
      <trkpt lat="-37.53985479883438" lon="-73.27888904763002"><ele>0.0</ele></trkpt>
      <trkpt lat="-37.53985769918129" lon="-73.2784338005983"><ele>0.0</ele></trkpt>
      <trkpt lat="-37.5399672304845" lon="-73.27809588500213"><ele>0.0</ele></trkpt>
      <trkpt lat="-37.5402109509146" lon="-73.27780279495043"><ele>0.0</ele></trkpt>
      <trkpt lat="-37.54042047368257" lon="-73.27712717732932"><ele>0.0</ele></trkpt>
      <trkpt lat="-37.54069995123541" lon="-73.27693557605514"><ele>0.0</ele></trkpt>
      <trkpt lat="-37.54122969409409" lon="-73.27606241633582"><ele>0.0</ele></trkpt>
      <trkpt lat="-37.54170426244514" lon="-73.27590175216899"><ele>0.0</ele></trkpt>
      <trkpt lat="-37.54212082266973" lon="-73.27544295246514"><ele>0.0</ele></trkpt>
      <trkpt lat="-37.5423967584388" lon="-73.27596815538675"><ele>0.0</ele></trkpt>
      <trkpt lat="-37.54245837103058" lon="-73.27651327091624"><ele>0.0</ele></trkpt>
      <trkpt lat="-37.54264512918015" lon="-73.27705550661551"><ele>0.0</ele></trkpt>
      <trkpt lat="-37.54289208732508" lon="-73.27722950545704"><ele>0.0</ele></trkpt>
      <trkpt lat="-37.54310001207073" lon="-73.27717979851843"><ele>0.0</ele></trkpt>
      <trkpt lat="-37.54324309890887" lon="-73.27677221469197"><ele>0.0</ele></trkpt>
      <trkpt lat="-37.54296355196168" lon="-73.27681608498817"><ele>0.0</ele></trkpt>
      <trkpt lat="-37.54279685652683" lon="-73.27642312179728"><ele>0.0</ele></trkpt>
      <trkpt lat="-37.54265602192742" lon="-73.27576004004817"><ele>0.0</ele></trkpt>
      <trkpt lat="-37.5425823745315" lon="-73.27439165444876"><ele>0.0</ele></trkpt>
      <trkpt lat="-37.54238527596933" lon="-73.27436625145629"><ele>0.0</ele></trkpt>
      <trkpt lat="-37.5420251423728" lon="-73.27460664298921"><ele>0.0</ele></trkpt>
      <trkpt lat="-37.54182815321722" lon="-73.27458872375071"><ele>0.0</ele></trkpt>
      <trkpt lat="-37.54163187231331" lon="-73.27421142704003"><ele>0.0</ele></trkpt>
      <trkpt lat="-37.54134498228892" lon="-73.27293782240287"><ele>0.0</ele></trkpt>
      <trkpt lat="-37.5411694217238" lon="-73.27275470705261"><ele>0.0</ele></trkpt>
      <trkpt lat="-37.54078961386554" lon="-73.27328004712736"><ele>0.0</ele></trkpt>
      <trkpt lat="-37.54015125012784" lon="-73.27365412693558"><ele>0.0</ele></trkpt>
      <trkpt lat="-37.54005524270006" lon="-73.2736114219285"><ele>0.0</ele></trkpt>
      <trkpt lat="-37.53995693676073" lon="-73.27341155304552"><ele>0.0</ele></trkpt>
      <trkpt lat="-37.53986376130543" lon="-73.27274740249022"><ele>0.0</ele></trkpt>
      <trkpt lat="-37.53933565413385" lon="-73.27210077972993"><ele>0.0</ele></trkpt>
      <trkpt lat="-37.53933953223011" lon="-73.27195844746863"><ele>0.0</ele></trkpt>
      <trkpt lat="-37.53941525183851" lon="-73.27183691601286"><ele>0.0</ele></trkpt>
      <trkpt lat="-37.53950464310697" lon="-73.2718348522799"><ele>0.0</ele></trkpt>
      <trkpt lat="-37.53987123500703" lon="-73.27203601122726"><ele>0.0</ele></trkpt>
      <trkpt lat="-37.54014379024625" lon="-73.27232918110326"><ele>0.0</ele></trkpt>
      <trkpt lat="-37.54043853979539" lon="-73.27250954235326"><ele>0.0</ele></trkpt>
      <trkpt lat="-37.54055542823299" lon="-73.27234962652702"><ele>0.0</ele></trkpt>
      <trkpt lat="-37.54071718675066" lon="-73.27158974663269"><ele>0.0</ele></trkpt>
      <trkpt lat="-37.54080613968423" lon="-73.27155774620243"><ele>0.0</ele></trkpt>
      <trkpt lat="-37.54126841138039" lon="-73.27177915783766"><ele>0.0</ele></trkpt>
      <trkpt lat="-37.5416922086179" lon="-73.27161215216806"><ele>0.0</ele></trkpt>
      <trkpt lat="-37.54245269079971" lon="-73.27265771287222"><ele>0.0</ele></trkpt>
      <trkpt lat="-37.54269008186464" lon="-73.27258485315527"><ele>0.0</ele></trkpt>
      <trkpt lat="-37.54314878260753" lon="-73.27215500344165"><ele>0.0</ele></trkpt>
      <trkpt lat="-37.54354613425882" lon="-73.27160677491241"><ele>0.0</ele></trkpt>
      <trkpt lat="-37.54332641401303" lon="-73.27044389899244"><ele>0.0</ele></trkpt>
      <trkpt lat="-37.54281013854785" lon="-73.26938521593873"><ele>0.0</ele></trkpt>
      <trkpt lat="-37.54220552870505" lon="-73.26880774278386"><ele>0.0</ele></trkpt>
      <trkpt lat="-37.54216790637771" lon="-73.26868133838167"><ele>0.0</ele></trkpt>
      <trkpt lat="-37.5422086343311" lon="-73.2686130156089"><ele>0.0</ele></trkpt>
      <trkpt lat="-37.543225387192" lon="-73.26843227183232"><ele>0.0</ele></trkpt>
      <trkpt lat="-37.54354573623033" lon="-73.26873182243101"><ele>0.0</ele></trkpt>
      <trkpt lat="-37.54376535604985" lon="-73.2686668470835"><ele>0.0</ele></trkpt>
      <trkpt lat="-37.54388732005634" lon="-73.26844690529916"><ele>0.0</ele></trkpt>
      <trkpt lat="-37.54381729465993" lon="-73.26773726945129"><ele>0.0</ele></trkpt>
      <trkpt lat="-37.544053693709" lon="-73.26759703327573"><ele>0.0</ele></trkpt>
      <trkpt lat="-37.54409906224615" lon="-73.26743875755487"><ele>0.0</ele></trkpt>
      <trkpt lat="-37.5438076411879" lon="-73.26687649907635"><ele>0.0</ele></trkpt>
      <trkpt lat="-37.54356706757315" lon="-73.26673233231482"><ele>0.0</ele></trkpt>
      <trkpt lat="-37.54349082912717" lon="-73.26641216243789"><ele>0.0</ele></trkpt>
      <trkpt lat="-37.54314111717761" lon="-73.2661432496455"><ele>0.0</ele></trkpt>
      <trkpt lat="-37.54297581609288" lon="-73.26584760622441"><ele>0.0</ele></trkpt>
      <trkpt lat="-37.54270047449286" lon="-73.26577163101906"><ele>0.0</ele></trkpt>
      <trkpt lat="-37.54228032577965" lon="-73.26598350809225"><ele>0.0</ele></trkpt>
      <trkpt lat="-37.54208819591618" lon="-73.26589063168711"><ele>0.0</ele></trkpt>
      <trkpt lat="-37.54193459316362" lon="-73.26557974840435"><ele>0.0</ele></trkpt>
      <trkpt lat="-37.54116750184058" lon="-73.26530554445505"><ele>0.0</ele></trkpt>
      <trkpt lat="-37.5402063179098" lon="-73.26439948868331"><ele>0.0</ele></trkpt>
      <trkpt lat="-37.53872318949433" lon="-73.26468841333359"><ele>0.0</ele></trkpt>
      <trkpt lat="-37.53845532683431" lon="-73.2651213455041"><ele>0.0</ele></trkpt>
      <trkpt lat="-37.53813041920628" lon="-73.26532351995338"><ele>0.0</ele></trkpt>
      <trkpt lat="-37.53801024152818" lon="-73.26525892787446"><ele>0.0</ele></trkpt>
      <trkpt lat="-37.53787438498329" lon="-73.26534442546972"><ele>0.0</ele></trkpt>
      <trkpt lat="-37.53758477077808" lon="-73.26592009347736"><ele>0.0</ele></trkpt>
      <trkpt lat="-37.53708288305893" lon="-73.26641158630464"><ele>0.0</ele></trkpt>
      <trkpt lat="-37.52868194425381" lon="-73.29468707496312"><ele>0.0</ele></trkpt>
      <trkpt lat="-37.52944909298203" lon="-73.29505226342857"><ele>0.0</ele></trkpt>
      <trkpt lat="-37.52987730316676" lon="-73.2957251948492"><ele>0.0</ele></trkpt>
      <trkpt lat="-37.53020281027712" lon="-73.29597379297817"><ele>0.0</ele></trkpt>
      <trkpt lat="-37.5304104335051" lon="-73.29586127572247"><ele>0.0</ele></trkpt>
      <trkpt lat="-37.53072335612404" lon="-73.2954858616019"><ele>0.0</ele></trkpt>
      <trkpt lat="-37.53091286824113" lon="-73.29548154768338"><ele>0.0</ele></trkpt>
      <trkpt lat="-37.53096980944557" lon="-73.29570931229186"><ele>0.0</ele></trkpt>
      <trkpt lat="-37.53078013243314" lon="-73.29644572382293"><ele>0.0</ele></trkpt>
      <trkpt lat="-37.53086268468574" lon="-73.29671332864916"><ele>0.0</ele></trkpt>
      <trkpt lat="-37.5310146778347" lon="-73.29683563022235"><ele>0.0</ele></trkpt>
      <trkpt lat="-37.53142711426003" lon="-73.29691158600932"><ele>0.0</ele></trkpt>
      <trkpt lat="-37.53181629595576" lon="-73.29661528197391"><ele>0.0</ele></trkpt>
      <trkpt lat="-37.53280821073682" lon="-73.29557763767524"><ele>0.0</ele></trkpt>
      <trkpt lat="-37.53335468200914" lon="-73.29539901116458"><ele>0.0</ele></trkpt>
      <trkpt lat="-37.53368565590106" lon="-73.29553071406045"><ele>0.0</ele></trkpt>
      <trkpt lat="-37.53388186554849" lon="-73.29549480638242"><ele>0.0</ele></trkpt>
      <trkpt lat="-37.53416207669359" lon="-73.295331221863"><ele>0.0</ele></trkpt>
      <trkpt lat="-37.53449222692561" lon="-73.29491047779374"><ele>0.0</ele></trkpt>
      <trkpt lat="-37.53463669880984" lon="-73.2945119261174"><ele>0.0</ele></trkpt>
      <trkpt lat="-37.53462481187758" lon="-73.29418430961118"><ele>0.0</ele></trkpt>
      <trkpt lat="-37.53433512963375" lon="-73.29369234324652"><ele>0.0</ele></trkpt>
      <trkpt lat="-37.5346303012232" lon="-73.29307924933934"><ele>0.0</ele></trkpt>
      <trkpt lat="-37.53431598165341" lon="-73.29212072410883"><ele>0.0</ele></trkpt>
      <trkpt lat="-37.53465424815337" lon="-73.29152011570298"><ele>0.0</ele></trkpt>
      <trkpt lat="-37.53465210378723" lon="-73.29137194162162"><ele>0.0</ele></trkpt>
      <trkpt lat="-37.53443197318508" lon="-73.29099068827419"><ele>0.0</ele></trkpt>
      <trkpt lat="-37.53395153119735" lon="-73.29066478755827"><ele>0.0</ele></trkpt>
      <trkpt lat="-37.53389132955622" lon="-73.2904595502029"><ele>0.0</ele></trkpt>
      <trkpt lat="-37.53396758895624" lon="-73.29029162107562"><ele>0.0</ele></trkpt>
      <trkpt lat="-37.53476132677105" lon="-73.2902690038873"><ele>0.0</ele></trkpt>
      <trkpt lat="-37.53571795252188" lon="-73.29124430839812"><ele>0.0</ele></trkpt>
      <trkpt lat="-37.53621048644839" lon="-73.2914172263723"><ele>0.0</ele></trkpt>
      <trkpt lat="-37.53645688409036" lon="-73.29138914445598"><ele>0.0</ele></trkpt>
      <trkpt lat="-37.53655141305723" lon="-73.29124774371363"><ele>0.0</ele></trkpt>
      <trkpt lat="-37.53648042020352" lon="-73.2910382534399"><ele>0.0</ele></trkpt>
      <trkpt lat="-37.53627686649264" lon="-73.2908138231219"><ele>0.0</ele></trkpt>
      <trkpt lat="-37.53637308446719" lon="-73.29029507987187"><ele>0.0</ele></trkpt>
      <trkpt lat="-37.53632120402342" lon="-73.2901704969077"><ele>0.0</ele></trkpt>
      <trkpt lat="-37.53607864136963" lon="-73.28996941892298"><ele>0.0</ele></trkpt>
      <trkpt lat="-37.53582619492757" lon="-73.2895799176117"><ele>0.0</ele></trkpt>
      <trkpt lat="-37.53577495846365" lon="-73.28900615408057"><ele>0.0</ele></trkpt>
      <trkpt lat="-37.53531658976258" lon="-73.2874894703809"><ele>0.0</ele></trkpt>
      <trkpt lat="-37.53529245012943" lon="-73.28681178455396"><ele>0.0</ele></trkpt>
      <trkpt lat="-37.5355112265385" lon="-73.2853739404038"><ele>0.0</ele></trkpt>
      <trkpt lat="-37.53568241036502" lon="-73.282140513702"><ele>0.0</ele></trkpt>
      <trkpt lat="-37.53647999064274" lon="-73.28139904698936"><ele>0.0</ele></trkpt>
      <trkpt lat="-37.5367930403749" lon="-73.28078996884801"><ele>0.0</ele></trkpt>
      <trkpt lat="-37.53688337068648" lon="-73.28036117972732"><ele>0.0</ele></trkpt>
      <trkpt lat="-37.53680494255289" lon="-73.27939725957606"><ele>0.0</ele></trkpt>
      <trkpt lat="-37.53708885587327" lon="-73.27847102450369"><ele>0.0</ele></trkpt>
      <trkpt lat="-37.53710614500753" lon="-73.27802145234469"><ele>0.0</ele></trkpt>
      <trkpt lat="-37.53739521007417" lon="-73.2778126739265"><ele>0.0</ele></trkpt>
      <trkpt lat="-37.53744480532653" lon="-73.27753454076736"><ele>0.0</ele></trkpt>
      <trkpt lat="-37.53798936078174" lon="-73.27726747586789"><ele>0.0</ele></trkpt>
      <trkpt lat="-37.53810975077404" lon="-73.27734705513012"><ele>0.0</ele></trkpt>
      <trkpt lat="-37.53799602158862" lon="-73.27772398879453"><ele>0.0</ele></trkpt>
      <trkpt lat="-37.53802034064817" lon="-73.27816512301338"><ele>0.0</ele></trkpt>
      <trkpt lat="-37.53819774834403" lon="-73.27847546929017"><ele>0.0</ele></trkpt>
      <trkpt lat="-37.53830567304926" lon="-73.27851790555009"><ele>0.0</ele></trkpt>
      <trkpt lat="-37.53897857698028" lon="-73.27826286525718"><ele>0.0</ele></trkpt>
      <trkpt lat="-37.53922345969187" lon="-73.27829466514527"><ele>0.0</ele></trkpt>
      <trkpt lat="-37.53926205396047" lon="-73.2784884254093"><ele>0.0</ele></trkpt>
      <trkpt lat="-37.53911216913454" lon="-73.27924800324867"><ele>0.0</ele></trkpt>
      <trkpt lat="-37.53933336239539" lon="-73.27969959311655"><ele>0.0</ele></trkpt>
      <trkpt lat="-37.54008928982513" lon="-73.279925782804"><ele>0.0</ele></trkpt>
      <trkpt lat="-37.54036476109601" lon="-73.27984758165343"><ele>0.0</ele></trkpt>
      <trkpt lat="-37.54045784381187" lon="-73.27968972172647"><ele>0.0</ele></trkpt>
      <trkpt lat="-37.54042347943913" lon="-73.27929522027065"><ele>0.0</ele></trkpt>
      <trkpt lat="-37.54032620842128" lon="-73.27916569272622"><ele>0.0</ele></trkpt>
      <trkpt lat="-37.54010567915666" lon="-73.27908691320863"><ele>0.0</ele></trkpt>
    </trkseg>
  </trk>
</gpx>