<?xml version="1.0" encoding="UTF-8"?>
<gpx version="1.1" creator="BosqueAbierto" xmlns="http://www.topografix.com/GPX/1/1">
<trk><name>Cumbres de Nahuelbuta</name><trkseg>
<trkpt lat="-37.691117" lon="-73.360974"><ele>70.0</ele></trkpt>
<trkpt lat="-37.690238" lon="-73.365186"><ele>69.0</ele></trkpt>
<trkpt lat="-37.685338" lon="-73.362951"><ele>75.0</ele></trkpt>
<trkpt lat="-37.684793" lon="-73.363469"><ele>75.0</ele></trkpt>
<trkpt lat="-37.685003" lon="-73.364073"><ele>75.0</ele></trkpt>
<trkpt lat="-37.684949" lon="-73.364466"><ele>75.0</ele></trkpt>
<trkpt lat="-37.684067" lon="-73.365452"><ele>73.0</ele></trkpt>
<trkpt lat="-37.683229" lon="-73.366066"><ele>94.0</ele></trkpt>
<trkpt lat="-37.682612" lon="-73.366268"><ele>94.0</ele></trkpt>
<trkpt lat="-37.682207" lon="-73.365906"><ele>94.0</ele></trkpt>
<trkpt lat="-37.681906" lon="-73.365765"><ele>94.0</ele></trkpt>
<trkpt lat="-37.681519" lon="-73.365694"><ele>94.0</ele></trkpt>
<trkpt lat="-37.681038" lon="-73.365866"><ele>98.0</ele></trkpt>
<trkpt lat="-37.681006" lon="-73.366240"><ele>98.0</ele></trkpt>
<trkpt lat="-37.681319" lon="-73.366312"><ele>94.0</ele></trkpt>
<trkpt lat="-37.681476" lon="-73.366490"><ele>94.0</ele></trkpt>
<trkpt lat="-37.681540" lon="-73.366935"><ele>89.0</ele></trkpt>
<trkpt lat="-37.681488" lon="-73.367471"><ele>89.0</ele></trkpt>
<trkpt lat="-37.681348" lon="-73.367672"><ele>89.0</ele></trkpt>
<trkpt lat="-37.680922" lon="-73.367904"><ele>108.0</ele></trkpt>
<trkpt lat="-37.680685" lon="-73.368283"><ele>108.0</ele></trkpt>
<trkpt lat="-37.679727" lon="-73.368797"><ele>86.0</ele></trkpt>
<trkpt lat="-37.679551" lon="-73.368835"><ele>86.0</ele></trkpt>
<trkpt lat="-37.679235" lon="-73.368633"><ele>108.0</ele></trkpt>
<trkpt lat="-37.678950" lon="-73.368590"><ele>116.0</ele></trkpt>
<trkpt lat="-37.677991" lon="-73.368745"><ele>116.0</ele></trkpt>
<trkpt lat="-37.677021" lon="-73.368772"><ele>107.0</ele></trkpt>
<trkpt lat="-37.676130" lon="-73.368686"><ele>121.0</ele></trkpt>
<trkpt lat="-37.674453" lon="-73.367578"><ele>104.0</ele></trkpt>
<trkpt lat="-37.674131" lon="-73.367568"><ele>104.0</ele></trkpt>
<trkpt lat="-37.673801" lon="-73.367395"><ele>104.0</ele></trkpt>
<trkpt lat="-37.673714" lon="-73.366786"><ele>104.0</ele></trkpt>
<trkpt lat="-37.673863" lon="-73.366234"><ele>101.0</ele></trkpt>
<trkpt lat="-37.673835" lon="-73.365934"><ele>101.0</ele></trkpt>
<trkpt lat="-37.673550" lon="-73.365919"><ele>101.0</ele></trkpt>
<trkpt lat="-37.672988" lon="-73.366053"><ele>101.0</ele></trkpt>
<trkpt lat="-37.672523" lon="-73.366030"><ele>112.0</ele></trkpt>
<trkpt lat="-37.672341" lon="-73.366222"><ele>112.0</ele></trkpt>
<trkpt lat="-37.672051" lon="-73.367386"><ele>105.0</ele></trkpt>
<trkpt lat="-37.671704" lon="-73.367900"><ele>105.0</ele></trkpt>
<trkpt lat="-37.671428" lon="-73.368110"><ele>105.0</ele></trkpt>
<trkpt lat="-37.670202" lon="-73.368599"><ele>119.0</ele></trkpt>
<trkpt lat="-37.669353" lon="-73.368760"><ele>110.0</ele></trkpt>
<trkpt lat="-37.668290" lon="-73.369604"><ele>110.0</ele></trkpt>
<trkpt lat="-37.667814" lon="-73.369799"><ele>110.0</ele></trkpt>
<trkpt lat="-37.667600" lon="-73.369830"><ele>110.0</ele></trkpt>
<trkpt lat="-37.667218" lon="-73.369724"><ele>110.0</ele></trkpt>
<trkpt lat="-37.666869" lon="-73.369951"><ele>110.0</ele></trkpt>
<trkpt lat="-37.666586" lon="-73.369995"><ele>130.0</ele></trkpt>
<trkpt lat="-37.665933" lon="-73.369766"><ele>130.0</ele></trkpt>
<trkpt lat="-37.665513" lon="-73.369869"><ele>130.0</ele></trkpt>
<trkpt lat="-37.665055" lon="-73.369832"><ele>130.0</ele></trkpt>
<trkpt lat="-37.664696" lon="-73.370263"><ele>130.0</ele></trkpt>
<trkpt lat="-37.664293" lon="-73.370455"><ele>169.0</ele></trkpt>
<trkpt lat="-37.663682" lon="-73.370926"><ele>126.0</ele></trkpt>
<trkpt lat="-37.663472" lon="-73.370974"><ele>126.0</ele></trkpt>
<trkpt lat="-37.663130" lon="-73.370848"><ele>126.0</ele></trkpt>
<trkpt lat="-37.662963" lon="-73.370923"><ele>126.0</ele></trkpt>
<trkpt lat="-37.662579" lon="-73.371614"><ele>126.0</ele></trkpt>
<trkpt lat="-37.661945" lon="-73.371756"><ele>144.0</ele></trkpt>
<trkpt lat="-37.661506" lon="-73.372062"><ele>144.0</ele></trkpt>
<trkpt lat="-37.661085" lon="-73.372144"><ele>144.0</ele></trkpt>
<trkpt lat="-37.660658" lon="-73.371747"><ele>144.0</ele></trkpt>
<trkpt lat="-37.659893" lon="-73.370324"><ele>180.0</ele></trkpt>
<trkpt lat="-37.660090" lon="-73.370370"><ele>180.0</ele></trkpt>
<trkpt lat="-37.660543" lon="-73.370806"><ele>203.0</ele></trkpt>
<trkpt lat="-37.660781" lon="-73.371402"><ele>144.0</ele></trkpt>
<trkpt lat="-37.660963" lon="-73.371613"><ele>144.0</ele></trkpt>
<trkpt lat="-37.661260" lon="-73.371513"><ele>144.0</ele></trkpt>
<trkpt lat="-37.661730" lon="-73.370954"><ele>144.0</ele></trkpt>
<trkpt lat="-37.662101" lon="-73.370687"><ele>203.0</ele></trkpt>
<trkpt lat="-37.662178" lon="-73.370483"><ele>203.0</ele></trkpt>
<trkpt lat="-37.662125" lon="-73.370194"><ele>203.0</ele></trkpt>
<trkpt lat="-37.661676" lon="-73.369842"><ele>203.0</ele></trkpt>
<trkpt lat="-37.661736" lon="-73.369550"><ele>203.0</ele></trkpt>
<trkpt lat="-37.662075" lon="-73.369526"><ele>203.0</ele></trkpt>
<trkpt lat="-37.662576" lon="-73.369306"><ele>169.0</ele></trkpt>
<trkpt lat="-37.662634" lon="-73.369212"><ele>169.0</ele></trkpt>
<trkpt lat="-37.662084" lon="-73.369037"><ele>203.0</ele></trkpt>
<trkpt lat="-37.661932" lon="-73.368919"><ele>203.0</ele></trkpt>
<trkpt lat="-37.661856" lon="-73.368719"><ele>244.0</ele></trkpt>
<trkpt lat="-37.661724" lon="-73.368657"><ele>244.0</ele></trkpt>
<trkpt lat="-37.660927" lon="-73.369158"><ele>203.0</ele></trkpt>
<trkpt lat="-37.660637" lon="-73.369425"><ele>203.0</ele></trkpt>
<trkpt lat="-37.660541" lon="-73.369404"><ele>203.0</ele></trkpt>
<trkpt lat="-37.660531" lon="-73.369181"><ele>203.0</ele></trkpt>
<trkpt lat="-37.660797" lon="-73.368965"><ele>203.0</ele></trkpt>
<trkpt lat="-37.661048" lon="-73.368318"><ele>244.0</ele></trkpt>
<trkpt lat="-37.661297" lon="-73.368065"><ele>244.0</ele></trkpt>
<trkpt lat="-37.661605" lon="-73.367945"><ele>244.0</ele></trkpt>
<trkpt lat="-37.662358" lon="-73.367933"><ele>244.0</ele></trkpt>
<trkpt lat="-37.662548" lon="-73.367849"><ele>243.0</ele></trkpt>
<trkpt lat="-37.662478" lon="-73.367701"><ele>244.0</ele></trkpt>
<trkpt lat="-37.661888" lon="-73.367516"><ele>244.0</ele></trkpt>
<trkpt lat="-37.661419" lon="-73.367193"><ele>244.0</ele></trkpt>
<trkpt lat="-37.660727" lon="-73.367386"><ele>244.0</ele></trkpt>
<trkpt lat="-37.660525" lon="-73.367204"><ele>244.0</ele></trkpt>
<trkpt lat="-37.660496" lon="-73.366898"><ele>244.0</ele></trkpt>
<trkpt lat="-37.660723" lon="-73.366550"><ele>282.0</ele></trkpt>
<trkpt lat="-37.661215" lon="-73.366181"><ele>282.0</ele></trkpt>
<trkpt lat="-37.661915" lon="-73.365986"><ele>282.0</ele></trkpt>
<trkpt lat="-37.663084" lon="-73.365807"><ele>304.0</ele></trkpt>
<trkpt lat="-37.663367" lon="-73.365238"><ele>304.0</ele></trkpt>
<trkpt lat="-37.663577" lon="-73.364285"><ele>318.0</ele></trkpt>
<trkpt lat="-37.663376" lon="-73.364114"><ele>318.0</ele></trkpt>
<trkpt lat="-37.662747" lon="-73.363989"><ele>318.0</ele></trkpt>
<trkpt lat="-37.662705" lon="-73.363543"><ele>318.0</ele></trkpt>
<trkpt lat="-37.662859" lon="-73.362621"><ele>318.0</ele></trkpt>
<trkpt lat="-37.662683" lon="-73.362179"><ele>307.0</ele></trkpt>
<trkpt lat="-37.662379" lon="-73.361735"><ele>331.0</ele></trkpt>
<trkpt lat="-37.661376" lon="-73.361408"><ele>331.0</ele></trkpt>
<trkpt lat="-37.660546" lon="-73.361677"><ele>331.0</ele></trkpt>
<trkpt lat="-37.659840" lon="-73.361554"><ele>338.0</ele></trkpt>
<trkpt lat="-37.659409" lon="-73.361760"><ele>338.0</ele></trkpt>
<trkpt lat="-37.659057" lon="-73.361732"><ele>338.0</ele></trkpt>
<trkpt lat="-37.658884" lon="-73.361509"><ele>338.0</ele></trkpt>
<trkpt lat="-37.658834" lon="-73.360569"><ele>338.0</ele></trkpt>
<trkpt lat="-37.658628" lon="-73.360396"><ele>342.0</ele></trkpt>
<trkpt lat="-37.658288" lon="-73.360264"><ele>343.0</ele></trkpt>
<trkpt lat="-37.658125" lon="-73.359578"><ele>343.0</ele></trkpt>
<trkpt lat="-37.657876" lon="-73.359137"><ele>343.0</ele></trkpt>
<trkpt lat="-37.657634" lon="-73.358871"><ele>343.0</ele></trkpt>
<trkpt lat="-37.657057" lon="-73.358505"><ele>343.0</ele></trkpt>
<trkpt lat="-37.656135" lon="-73.358147"><ele>357.0</ele></trkpt>
<trkpt lat="-37.655764" lon="-73.357730"><ele>357.0</ele></trkpt>
<trkpt lat="-37.655680" lon="-73.357071"><ele>357.0</ele></trkpt>
<trkpt lat="-37.655888" lon="-73.356654"><ele>357.0</ele></trkpt>
<trkpt lat="-37.656439" lon="-73.355883"><ele>372.0</ele></trkpt>
<trkpt lat="-37.657711" lon="-73.354790"><ele>372.0</ele></trkpt>
<trkpt lat="-37.658483" lon="-73.353925"><ele>363.0</ele></trkpt>
<trkpt lat="-37.658667" lon="-73.353648"><ele>363.0</ele></trkpt>
<trkpt lat="-37.658716" lon="-73.353294"><ele>363.0</ele></trkpt>
<trkpt lat="-37.658314" lon="-73.352661"><ele>341.0</ele></trkpt>
<trkpt lat="-37.658211" lon="-73.351222"><ele>353.0</ele></trkpt>
<trkpt lat="-37.657832" lon="-73.350352"><ele>353.0</ele></trkpt>
<trkpt lat="-37.657693" lon="-73.350207"><ele>353.0</ele></trkpt>
<trkpt lat="-37.656973" lon="-73.349809"><ele>344.0</ele></trkpt>
<trkpt lat="-37.656149" lon="-73.349008"><ele>362.0</ele></trkpt>
<trkpt lat="-37.655650" lon="-73.348654"><ele>362.0</ele></trkpt>
<trkpt lat="-37.654902" lon="-73.348542"><ele>362.0</ele></trkpt>
<trkpt lat="-37.654388" lon="-73.348736"><ele>362.0</ele></trkpt>
<trkpt lat="-37.654214" lon="-73.348667"><ele>362.0</ele></trkpt>
<trkpt lat="-37.654313" lon="-73.347365"><ele>356.0</ele></trkpt>
<trkpt lat="-37.654457" lon="-73.346804"><ele>356.0</ele></trkpt>
<trkpt lat="-37.654686" lon="-73.346519"><ele>356.0</ele></trkpt>
<trkpt lat="-37.655404" lon="-73.345921"><ele>356.0</ele></trkpt>
<trkpt lat="-37.655865" lon="-73.345355"><ele>351.0</ele></trkpt>
<trkpt lat="-37.655988" lon="-73.343887"><ele>351.0</ele></trkpt>
<trkpt lat="-37.656097" lon="-73.343610"><ele>320.0</ele></trkpt>
<trkpt lat="-37.656455" lon="-73.343169"><ele>362.0</ele></trkpt>
<trkpt lat="-37.657276" lon="-73.342542"><ele>362.0</ele></trkpt>
<trkpt lat="-37.657998" lon="-73.341381"><ele>345.0</ele></trkpt>
<trkpt lat="-37.658646" lon="-73.340995"><ele>357.0</ele></trkpt>
<trkpt lat="-37.659766" lon="-73.340517"><ele>357.0</ele></trkpt>
<trkpt lat="-37.660223" lon="-73.340169"><ele>357.0</ele></trkpt>
<trkpt lat="-37.661092" lon="-73.338683"><ele>383.0</ele></trkpt>
<trkpt lat="-37.662225" lon="-73.337431"><ele>357.0</ele></trkpt>
<trkpt lat="-37.662476" lon="-73.336993"><ele>357.0</ele></trkpt>
<trkpt lat="-37.662680" lon="-73.336415"><ele>387.0</ele></trkpt>
<trkpt lat="-37.662926" lon="-73.335108"><ele>382.0</ele></trkpt>
<trkpt lat="-37.664472" lon="-73.336518"><ele>387.0</ele></trkpt>
<trkpt lat="-37.664826" lon="-73.336721"><ele>366.0</ele></trkpt>
<trkpt lat="-37.664983" lon="-73.336616"><ele>366.0</ele></trkpt>
<trkpt lat="-37.665272" lon="-73.336102"><ele>366.0</ele></trkpt>
<trkpt lat="-37.665556" lon="-73.335827"><ele>366.0</ele></trkpt>
<trkpt lat="-37.666925" lon="-73.335299"><ele>372.0</ele></trkpt>
<trkpt lat="-37.668102" lon="-73.334267"><ele>372.0</ele></trkpt>
<trkpt lat="-37.668956" lon="-73.334143"><ele>398.0</ele></trkpt>
<trkpt lat="-37.669185" lon="-73.334017"><ele>398.0</ele></trkpt>
<trkpt lat="-37.670332" lon="-73.332282"><ele>384.0</ele></trkpt>
<trkpt lat="-37.670958" lon="-73.331073"><ele>402.0</ele></trkpt>
<trkpt lat="-37.671257" lon="-73.330405"><ele>402.0</ele></trkpt>
<trkpt lat="-37.671650" lon="-73.328958"><ele>403.0</ele></trkpt>
<trkpt lat="-37.671980" lon="-73.328366"><ele>403.0</ele></trkpt>
<trkpt lat="-37.672269" lon="-73.328037"><ele>403.0</ele></trkpt>
<trkpt lat="-37.672288" lon="-73.328900"><ele>403.0</ele></trkpt>
<trkpt lat="-37.672376" lon="-73.329335"><ele>402.0</ele></trkpt>
<trkpt lat="-37.672987" lon="-73.330141"><ele>406.0</ele></trkpt>
<trkpt lat="-37.673083" lon="-73.330430"><ele>406.0</ele></trkpt>
<trkpt lat="-37.673570" lon="-73.330488"><ele>406.0</ele></trkpt>
<trkpt lat="-37.673591" lon="-73.330660"><ele>406.0</ele></trkpt>
<trkpt lat="-37.673429" lon="-73.331108"><ele>406.0</ele></trkpt>
<trkpt lat="-37.673416" lon="-73.331378"><ele>403.0</ele></trkpt>
<trkpt lat="-37.673704" lon="-73.331760"><ele>403.0</ele></trkpt>
<trkpt lat="-37.674859" lon="-73.332061"><ele>403.0</ele></trkpt>
<trkpt lat="-37.675168" lon="-73.332289"><ele>407.0</ele></trkpt>
<trkpt lat="-37.676089" lon="-73.332648"><ele>407.0</ele></trkpt>
<trkpt lat="-37.678269" lon="-73.332774"><ele>379.0</ele></trkpt>
<trkpt lat="-37.678485" lon="-73.332926"><ele>379.0</ele></trkpt>
<trkpt lat="-37.678529" lon="-73.333047"><ele>379.0</ele></trkpt>
<trkpt lat="-37.678362" lon="-73.333810"><ele>371.0</ele></trkpt>
<trkpt lat="-37.678461" lon="-73.333994"><ele>371.0</ele></trkpt>
<trkpt lat="-37.678652" lon="-73.334116"><ele>371.0</ele></trkpt>
<trkpt lat="-37.678971" lon="-73.334080"><ele>371.0</ele></trkpt>
<trkpt lat="-37.679536" lon="-73.333688"><ele>389.0</ele></trkpt>
<trkpt lat="-37.679714" lon="-73.333682"><ele>389.0</ele></trkpt>
<trkpt lat="-37.679795" lon="-73.333765"><ele>389.0</ele></trkpt>
<trkpt lat="-37.679810" lon="-73.334020"><ele>389.0</ele></trkpt>
<trkpt lat="-37.679435" lon="-73.334995"><ele>389.0</ele></trkpt>
<trkpt lat="-37.679159" lon="-73.335466"><ele>382.0</ele></trkpt>
<trkpt lat="-37.678914" lon="-73.336503"><ele>382.0</ele></trkpt>
<trkpt lat="-37.678808" lon="-73.337350"><ele>382.0</ele></trkpt>
<trkpt lat="-37.678910" lon="-73.337461"><ele>382.0</ele></trkpt>
<trkpt lat="-37.679030" lon="-73.337382"><ele>382.0</ele></trkpt>
<trkpt lat="-37.679846" lon="-73.336060"><ele>396.0</ele></trkpt>
<trkpt lat="-37.681394" lon="-73.332190"><ele>399.0</ele></trkpt>
<trkpt lat="-37.681533" lon="-73.331121"><ele>395.0</ele></trkpt>
<trkpt lat="-37.681522" lon="-73.329634"><ele>395.0</ele></trkpt>
<trkpt lat="-37.681662" lon="-73.328612"><ele>393.0</ele></trkpt>
<trkpt lat="-37.681436" lon="-73.326659"><ele>394.0</ele></trkpt>
<trkpt lat="-37.681486" lon="-73.326305"><ele>394.0</ele></trkpt>
<trkpt lat="-37.681657" lon="-73.326078"><ele>394.0</ele></trkpt>
<trkpt lat="-37.681884" lon="-73.325367"><ele>394.0</ele></trkpt>
<trkpt lat="-37.681916" lon="-73.324238"><ele>418.0</ele></trkpt>
<trkpt lat="-37.682139" lon="-73.323289"><ele>418.0</ele></trkpt>
<trkpt lat="-37.681769" lon="-73.320299"><ele>424.0</ele></trkpt>
<trkpt lat="-37.681295" lon="-73.319522"><ele>424.0</ele></trkpt>
<trkpt lat="-37.680764" lon="-73.319505"><ele>458.0</ele></trkpt>
<trkpt lat="-37.680532" lon="-73.319401"><ele>458.0</ele></trkpt>
<trkpt lat="-37.680417" lon="-73.319126"><ele>458.0</ele></trkpt>
<trkpt lat="-37.680406" lon="-73.318453"><ele>444.0</ele></trkpt>
<trkpt lat="-37.679911" lon="-73.318123"><ele>444.0</ele></trkpt>
<trkpt lat="-37.679821" lon="-73.317233"><ele>444.0</ele></trkpt>
<trkpt lat="-37.679444" lon="-73.316749"><ele>444.0</ele></trkpt>
<trkpt lat="-37.679242" lon="-73.316661"><ele>413.0</ele></trkpt>
<trkpt lat="-37.679101" lon="-73.316764"><ele>455.0</ele></trkpt>
<trkpt lat="-37.679085" lon="-73.317527"><ele>455.0</ele></trkpt>
<trkpt lat="-37.678857" lon="-73.317869"><ele>455.0</ele></trkpt>
<trkpt lat="-37.678794" lon="-73.318265"><ele>455.0</ele></trkpt>
<trkpt lat="-37.678912" lon="-73.318590"><ele>455.0</ele></trkpt>
<trkpt lat="-37.679411" lon="-73.319101"><ele>458.0</ele></trkpt>
<trkpt lat="-37.679558" lon="-73.319462"><ele>458.0</ele></trkpt>
<trkpt lat="-37.679583" lon="-73.319821"><ele>458.0</ele></trkpt>
<trkpt lat="-37.678828" lon="-73.321611"><ele>434.0</ele></trkpt>
<trkpt lat="-37.678772" lon="-73.321916"><ele>434.0</ele></trkpt>
<trkpt lat="-37.677853" lon="-73.321915"><ele>434.0</ele></trkpt>
<trkpt lat="-37.676850" lon="-73.322259"><ele>440.0</ele></trkpt>
<trkpt lat="-37.676496" lon="-73.322205"><ele>440.0</ele></trkpt>
<trkpt lat="-37.676216" lon="-73.321943"><ele>440.0</ele></trkpt>
<trkpt lat="-37.676218" lon="-73.320505"><ele>441.0</ele></trkpt>
<trkpt lat="-37.676597" lon="-73.319245"><ele>441.0</ele></trkpt>
<trkpt lat="-37.677129" lon="-73.318182"><ele>455.0</ele></trkpt>
<trkpt lat="-37.677378" lon="-73.318175"><ele>455.0</ele></trkpt>
<trkpt lat="-37.677848" lon="-73.317690"><ele>455.0</ele></trkpt>
<trkpt lat="-37.677905" lon="-73.317525"><ele>455.0</ele></trkpt>
<trkpt lat="-37.677921" lon="-73.316719"><ele>455.0</ele></trkpt>
<trkpt lat="-37.677624" lon="-73.315657"><ele>452.0</ele></trkpt>
<trkpt lat="-37.677616" lon="-73.314439"><ele>416.0</ele></trkpt>
<trkpt lat="-37.678127" lon="-73.313687"><ele>416.0</ele></trkpt>
<trkpt lat="-37.678733" lon="-73.313302"><ele>416.0</ele></trkpt>
<trkpt lat="-37.679549" lon="-73.313171"><ele>401.0</ele></trkpt>
<trkpt lat="-37.679908" lon="-73.313186"><ele>401.0</ele></trkpt>
<trkpt lat="-37.680931" lon="-73.313418"><ele>401.0</ele></trkpt>
<trkpt lat="-37.681229" lon="-73.313574"><ele>401.0</ele></trkpt>
<trkpt lat="-37.681478" lon="-73.313898"><ele>345.0</ele></trkpt>
<trkpt lat="-37.681607" lon="-73.314318"><ele>345.0</ele></trkpt>
<trkpt lat="-37.681599" lon="-73.314588"><ele>337.0</ele></trkpt>
<trkpt lat="-37.681440" lon="-73.314994"><ele>337.0</ele></trkpt>
<trkpt lat="-37.681316" lon="-73.316067"><ele>337.0</ele></trkpt>
<trkpt lat="-37.681475" lon="-73.316458"><ele>337.0</ele></trkpt>
<trkpt lat="-37.682182" lon="-73.316735"><ele>360.0</ele></trkpt>
<trkpt lat="-37.682497" lon="-73.317106"><ele>360.0</ele></trkpt>
<trkpt lat="-37.683082" lon="-73.318078"><ele>360.0</ele></trkpt>
<trkpt lat="-37.683721" lon="-73.318651"><ele>282.0</ele></trkpt>
<trkpt lat="-37.684195" lon="-73.318841"><ele>333.0</ele></trkpt>
<trkpt lat="-37.684579" lon="-73.318526"><ele>282.0</ele></trkpt>
<trkpt lat="-37.685007" lon="-73.318538"><ele>282.0</ele></trkpt>
<trkpt lat="-37.686505" lon="-73.319277"><ele>282.0</ele></trkpt>
<trkpt lat="-37.686841" lon="-73.319680"><ele>282.0</ele></trkpt>
<trkpt lat="-37.686949" lon="-73.319965"><ele>282.0</ele></trkpt>
<trkpt lat="-37.686995" lon="-73.320596"><ele>282.0</ele></trkpt>
<trkpt lat="-37.686841" lon="-73.321798"><ele>252.0</ele></trkpt>
<trkpt lat="-37.685754" lon="-73.323149"><ele>205.0</ele></trkpt>
<trkpt lat="-37.685612" lon="-73.323461"><ele>205.0</ele></trkpt>
<trkpt lat="-37.685637" lon="-73.323728"><ele>205.0</ele></trkpt>
<trkpt lat="-37.686047" lon="-73.324001"><ele>205.0</ele></trkpt>
<trkpt lat="-37.686148" lon="-73.324333"><ele>205.0</ele></trkpt>
<trkpt lat="-37.686155" lon="-73.324786"><ele>205.0</ele></trkpt>
<trkpt lat="-37.685951" lon="-73.325504"><ele>201.0</ele></trkpt>
<trkpt lat="-37.685703" lon="-73.326958"><ele>201.0</ele></trkpt>
<trkpt lat="-37.685811" lon="-73.328396"><ele>182.0</ele></trkpt>
<trkpt lat="-37.685880" lon="-73.328550"><ele>182.0</ele></trkpt>
<trkpt lat="-37.687034" lon="-73.329152"><ele>182.0</ele></trkpt>
<trkpt lat="-37.687694" lon="-73.329905"><ele>135.0</ele></trkpt>
<trkpt lat="-37.687789" lon="-73.330472"><ele>135.0</ele></trkpt>
<trkpt lat="-37.687205" lon="-73.332692"><ele>191.0</ele></trkpt>
<trkpt lat="-37.687823" lon="-73.333216"><ele>104.0</ele></trkpt>
<trkpt lat="-37.688073" lon="-73.333541"><ele>120.0</ele></trkpt>
<trkpt lat="-37.688176" lon="-73.334295"><ele>120.0</ele></trkpt>
<trkpt lat="-37.688469" lon="-73.334916"><ele>120.0</ele></trkpt>
<trkpt lat="-37.688547" lon="-73.335263"><ele>120.0</ele></trkpt>
<trkpt lat="-37.688535" lon="-73.335806"><ele>114.0</ele></trkpt>
<trkpt lat="-37.688378" lon="-73.336340"><ele>114.0</ele></trkpt>
<trkpt lat="-37.689171" lon="-73.336837"><ele>114.0</ele></trkpt>
<trkpt lat="-37.689635" lon="-73.337579"><ele>80.0</ele></trkpt>
<trkpt lat="-37.689987" lon="-73.337964"><ele>80.0</ele></trkpt>
</trkseg></trk>
<trk><name>Cumbres de Nahuelbuta</name><trkseg>
<trkpt lat="-37.691171" lon="-73.359206"><ele>81.0</ele></trkpt>
<trkpt lat="-37.690955" lon="-73.359618"><ele>81.0</ele></trkpt>
<trkpt lat="-37.690397" lon="-73.360021"><ele>81.0</ele></trkpt>
<trkpt lat="-37.690189" lon="-73.360077"><ele>81.0</ele></trkpt>
<trkpt lat="-37.689761" lon="-73.360025"><ele>81.0</ele></trkpt>
<trkpt lat="-37.689555" lon="-73.360096"><ele>114.0</ele></trkpt>
<trkpt lat="-37.689141" lon="-73.360530"><ele>86.0</ele></trkpt>
<trkpt lat="-37.688715" lon="-73.360763"><ele>86.0</ele></trkpt>
<trkpt lat="-37.688227" lon="-73.361483"><ele>86.0</ele></trkpt>
<trkpt lat="-37.687758" lon="-73.361701"><ele>86.0</ele></trkpt>
<trkpt lat="-37.686366" lon="-73.361729"><ele>92.0</ele></trkpt>
<trkpt lat="-37.685831" lon="-73.361363"><ele>92.0</ele></trkpt>
<trkpt lat="-37.685273" lon="-73.361228"><ele>75.0</ele></trkpt>
<trkpt lat="-37.684857" lon="-73.360799"><ele>75.0</ele></trkpt>
<trkpt lat="-37.684169" lon="-73.360455"><ele>75.0</ele></trkpt>
<trkpt lat="-37.684492" lon="-73.358953"><ele>95.0</ele></trkpt>
<trkpt lat="-37.684350" lon="-73.358403"><ele>95.0</ele></trkpt>
<trkpt lat="-37.684510" lon="-73.358007"><ele>131.0</ele></trkpt>
<trkpt lat="-37.684680" lon="-73.357955"><ele>131.0</ele></trkpt>
<trkpt lat="-37.685219" lon="-73.358180"><ele>131.0</ele></trkpt>
<trkpt lat="-37.686430" lon="-73.359135"><ele>134.0</ele></trkpt>
<trkpt lat="-37.686857" lon="-73.359124"><ele>134.0</ele></trkpt>
<trkpt lat="-37.687479" lon="-73.358776"><ele>134.0</ele></trkpt>
<trkpt lat="-37.687968" lon="-73.358323"><ele>184.0</ele></trkpt>
<trkpt lat="-37.688322" lon="-73.358112"><ele>184.0</ele></trkpt>
<trkpt lat="-37.688732" lon="-73.357683"><ele>184.0</ele></trkpt>
<trkpt lat="-37.689316" lon="-73.357275"><ele>184.0</ele></trkpt>
<trkpt lat="-37.689608" lon="-73.356659"><ele>102.0</ele></trkpt>
<trkpt lat="-37.689588" lon="-73.356356"><ele>102.0</ele></trkpt>
<trkpt lat="-37.689019" lon="-73.355548"><ele>210.0</ele></trkpt>
<trkpt lat="-37.688868" lon="-73.355138"><ele>210.0</ele></trkpt>
<trkpt lat="-37.688601" lon="-73.352647"><ele>205.0</ele></trkpt>
<trkpt lat="-37.687991" lon="-73.351328"><ele>169.0</ele></trkpt>
<trkpt lat="-37.687555" lon="-73.351023"><ele>169.0</ele></trkpt>
<trkpt lat="-37.687135" lon="-73.350290"><ele>282.0</ele></trkpt>
<trkpt lat="-37.686957" lon="-73.349650"><ele>303.0</ele></trkpt>
<trkpt lat="-37.687280" lon="-73.348700"><ele>303.0</ele></trkpt>
<trkpt lat="-37.687553" lon="-73.347455"><ele>183.0</ele></trkpt>
<trkpt lat="-37.687769" lon="-73.346945"><ele>183.0</ele></trkpt>
<trkpt lat="-37.687712" lon="-73.346756"><ele>183.0</ele></trkpt>
<trkpt lat="-37.688002" lon="-73.345887"><ele>183.0</ele></trkpt>
<trkpt lat="-37.687782" lon="-73.345389"><ele>208.0</ele></trkpt>
<trkpt lat="-37.687228" lon="-73.344761"><ele>316.0</ele></trkpt>
<trkpt lat="-37.685087" lon="-73.343758"><ele>337.0</ele></trkpt>
<trkpt lat="-37.684981" lon="-73.343489"><ele>317.0</ele></trkpt>
<trkpt lat="-37.684057" lon="-73.342802"><ele>317.0</ele></trkpt>
<trkpt lat="-37.683601" lon="-73.343033"><ele>317.0</ele></trkpt>
<trkpt lat="-37.682922" lon="-73.343030"><ele>345.0</ele></trkpt>
<trkpt lat="-37.682370" lon="-73.343225"><ele>345.0</ele></trkpt>
<trkpt lat="-37.681408" lon="-73.343297"><ele>345.0</ele></trkpt>
<trkpt lat="-37.680493" lon="-73.342932"><ele>358.0</ele></trkpt>
<trkpt lat="-37.680281" lon="-73.342913"><ele>358.0</ele></trkpt>
<trkpt lat="-37.679566" lon="-73.342501"><ele>358.0</ele></trkpt>
<trkpt lat="-37.678684" lon="-73.340867"><ele>375.0</ele></trkpt>
<trkpt lat="-37.678535" lon="-73.340080"><ele>375.0</ele></trkpt>
<trkpt lat="-37.678677" lon="-73.338414"><ele>368.0</ele></trkpt>
<trkpt lat="-37.678790" lon="-73.337796"><ele>368.0</ele></trkpt>
<trkpt lat="-37.678929" lon="-73.337537"><ele>368.0</ele></trkpt>
</trkseg></trk>
<trk><name>Cumbres de Nahuelbuta</name><trkseg>
<trkpt lat="-37.681505" lon="-73.331953"><ele>399.0</ele></trkpt>
<trkpt lat="-37.681688" lon="-73.331510"><ele>399.0</ele></trkpt>
<trkpt lat="-37.682109" lon="-73.328702"><ele>393.0</ele></trkpt>
<trkpt lat="-37.681644" lon="-73.326745"><ele>394.0</ele></trkpt>
<trkpt lat="-37.681082" lon="-73.322911"><ele>439.0</ele></trkpt>
<trkpt lat="-37.680154" lon="-73.322772"><ele>439.0</ele></trkpt>
<trkpt lat="-37.677747" lon="-73.322022"><ele>434.0</ele></trkpt>
</trkseg></trk>
<trk><name>Cumbres de Nahuelbuta</name><trkseg>
<trkpt lat="-37.676233" lon="-73.321557"><ele>440.0</ele></trkpt>
<trkpt lat="-37.676435" lon="-73.319943"><ele>441.0</ele></trkpt>
<trkpt lat="-37.676815" lon="-73.318965"><ele>441.0</ele></trkpt>
</trkseg></trk>
<trk><name>Cumbres de Nahuelbuta</name><trkseg>
<trkpt lat="-37.677011" lon="-73.318285"><ele>452.0</ele></trkpt>
<trkpt lat="-37.677074" lon="-73.317906"><ele>452.0</ele></trkpt>
<trkpt lat="-37.676107" lon="-73.317304"><ele>452.0</ele></trkpt>
<trkpt lat="-37.675658" lon="-73.317883"><ele>452.0</ele></trkpt>
<trkpt lat="-37.675201" lon="-73.318146"><ele>452.0</ele></trkpt>
<trkpt lat="-37.674836" lon="-73.317487"><ele>451.0</ele></trkpt>
<trkpt lat="-37.674239" lon="-73.316766"><ele>451.0</ele></trkpt>
<trkpt lat="-37.673342" lon="-73.316190"><ele>465.0</ele></trkpt>
<trkpt lat="-37.672453" lon="-73.316030"><ele>462.0</ele></trkpt>
<trkpt lat="-37.671918" lon="-73.317384"><ele>455.0</ele></trkpt>
<trkpt lat="-37.670200" lon="-73.316578"><ele>411.0</ele></trkpt>
<trkpt lat="-37.670319" lon="-73.317351"><ele>449.0</ele></trkpt>
<trkpt lat="-37.669674" lon="-73.318252"><ele>449.0</ele></trkpt>
<trkpt lat="-37.669942" lon="-73.321502"><ele>421.0</ele></trkpt>
<trkpt lat="-37.670166" lon="-73.321849"><ele>421.0</ele></trkpt>
<trkpt lat="-37.669584" lon="-73.322649"><ele>421.0</ele></trkpt>
<trkpt lat="-37.669264" lon="-73.327444"><ele>418.0</ele></trkpt>
<trkpt lat="-37.668803" lon="-73.329964"><ele>391.0</ele></trkpt>
<trkpt lat="-37.667561" lon="-73.332247"><ele>400.0</ele></trkpt>
<trkpt lat="-37.666492" lon="-73.333246"><ele>376.0</ele></trkpt>
<trkpt lat="-37.665386" lon="-73.333354"><ele>396.0</ele></trkpt>
<trkpt lat="-37.663940" lon="-73.333709"><ele>382.0</ele></trkpt>
<trkpt lat="-37.662776" lon="-73.334774"><ele>382.0</ele></trkpt>
<trkpt lat="-37.662787" lon="-73.335349"><ele>382.0</ele></trkpt>
</trkseg></trk>
<trk><name>Cumbres de Nahuelbuta</name><trkseg>
<trkpt lat="-37.662816" lon="-73.335847"><ele>387.0</ele></trkpt>
<trkpt lat="-37.662838" lon="-73.336254"><ele>387.0</ele></trkpt>
<trkpt lat="-37.662734" lon="-73.336439"><ele>387.0</ele></trkpt>
</trkseg></trk>
<trk><name>Cumbres de Nahuelbuta</name><trkseg>
<trkpt lat="-37.661258" lon="-73.338598"><ele>383.0</ele></trkpt>
<trkpt lat="-37.661062" lon="-73.338863"><ele>383.0</ele></trkpt>
</trkseg></trk>
<trk><name>Cumbres de Nahuelbuta</name><trkseg>
<trkpt lat="-37.660378" lon="-73.339796"><ele>357.0</ele></trkpt>
<trkpt lat="-37.660113" lon="-73.340166"><ele>357.0</ele></trkpt>
</trkseg></trk>
<trk><name>Cumbres de Nahuelbuta</name><trkseg>
<trkpt lat="-37.658779" lon="-73.341022"><ele>357.0</ele></trkpt>
<trkpt lat="-37.658025" lon="-73.341451"><ele>345.0</ele></trkpt>
</trkseg></trk>
<trk><name>Cumbres de Nahuelbuta</name><trkseg>
<trkpt lat="-37.657376" lon="-73.342488"><ele>362.0</ele></trkpt>
<trkpt lat="-37.657263" lon="-73.342721"><ele>362.0</ele></trkpt>
<trkpt lat="-37.657135" lon="-73.342788"><ele>362.0</ele></trkpt>
</trkseg></trk>
<trk><name>Cumbres de Nahuelbuta</name><trkseg>
<trkpt lat="-37.656062" lon="-73.343824"><ele>351.0</ele></trkpt>
<trkpt lat="-37.656127" lon="-73.344454"><ele>351.0</ele></trkpt>
<trkpt lat="-37.655989" lon="-73.345159"><ele>351.0</ele></trkpt>
</trkseg></trk>
<trk><name>Cumbres de Nahuelbuta</name><trkseg>
<trkpt lat="-37.655369" lon="-73.346054"><ele>356.0</ele></trkpt>
<trkpt lat="-37.654783" lon="-73.346655"><ele>356.0</ele></trkpt>
<trkpt lat="-37.654525" lon="-73.347091"><ele>356.0</ele></trkpt>
<trkpt lat="-37.654368" lon="-73.347648"><ele>356.0</ele></trkpt>
</trkseg></trk>
<trk><name>Cumbres de Nahuelbuta</name><trkseg>
<trkpt lat="-37.671691" lon="-73.317391"><ele>455.0</ele></trkpt>
<trkpt lat="-37.671338" lon="-73.317379"><ele>455.0</ele></trkpt>
<trkpt lat="-37.670405" lon="-73.316802"><ele>449.0</ele></trkpt>
<trkpt lat="-37.670760" lon="-73.315673"><ele>411.0</ele></trkpt>
<trkpt lat="-37.670754" lon="-73.315093"><ele>411.0</ele></trkpt>
<trkpt lat="-37.669938" lon="-73.313654"><ele>434.0</ele></trkpt>
<trkpt lat="-37.669293" lon="-73.312804"><ele>434.0</ele></trkpt>
<trkpt lat="-37.669209" lon="-73.311917"><ele>432.0</ele></trkpt>
<trkpt lat="-37.668864" lon="-73.311466"><ele>432.0</ele></trkpt>
<trkpt lat="-37.668823" lon="-73.311708"><ele>432.0</ele></trkpt>
<trkpt lat="-37.669052" lon="-73.312518"><ele>434.0</ele></trkpt>
<trkpt lat="-37.668995" lon="-73.313101"><ele>434.0</ele></trkpt>
<trkpt lat="-37.669150" lon="-73.313744"><ele>434.0</ele></trkpt>
<trkpt lat="-37.669192" lon="-73.314594"><ele>411.0</ele></trkpt>
<trkpt lat="-37.668875" lon="-73.314648"><ele>411.0</ele></trkpt>
<trkpt lat="-37.668265" lon="-73.314387"><ele>456.0</ele></trkpt>
<trkpt lat="-37.667906" lon="-73.314405"><ele>456.0</ele></trkpt>
<trkpt lat="-37.666969" lon="-73.315067"><ele>405.0</ele></trkpt>
<trkpt lat="-37.666621" lon="-73.315163"><ele>425.0</ele></trkpt>
<trkpt lat="-37.666407" lon="-73.315128"><ele>425.0</ele></trkpt>
<trkpt lat="-37.666313" lon="-73.314939"><ele>425.0</ele></trkpt>
<trkpt lat="-37.666131" lon="-73.313378"><ele>441.0</ele></trkpt>
<trkpt lat="-37.665993" lon="-73.313421"><ele>441.0</ele></trkpt>
<trkpt lat="-37.665775" lon="-73.313722"><ele>441.0</ele></trkpt>
<trkpt lat="-37.665387" lon="-73.314044"><ele>441.0</ele></trkpt>
<trkpt lat="-37.664345" lon="-73.314061"><ele>428.0</ele></trkpt>
<trkpt lat="-37.664179" lon="-73.313992"><ele>428.0</ele></trkpt>
<trkpt lat="-37.664272" lon="-73.313672"><ele>428.0</ele></trkpt>
<trkpt lat="-37.664539" lon="-73.313313"><ele>428.0</ele></trkpt>
<trkpt lat="-37.664572" lon="-73.312953"><ele>428.0</ele></trkpt>
<trkpt lat="-37.664371" lon="-73.312325"><ele>422.0</ele></trkpt>
<trkpt lat="-37.664691" lon="-73.311470"><ele>477.0</ele></trkpt>
<trkpt lat="-37.664585" lon="-73.310718"><ele>477.0</ele></trkpt>
<trkpt lat="-37.664865" lon="-73.310150"><ele>490.0</ele></trkpt>
<trkpt lat="-37.664753" lon="-73.309728"><ele>490.0</ele></trkpt>
<trkpt lat="-37.664781" lon="-73.308965"><ele>490.0</ele></trkpt>
<trkpt lat="-37.664061" lon="-73.309182"><ele>438.0</ele></trkpt>
<trkpt lat="-37.663824" lon="-73.309082"><ele>438.0</ele></trkpt>
<trkpt lat="-37.663783" lon="-73.308964"><ele>438.0</ele></trkpt>
<trkpt lat="-37.663810" lon="-73.308604"><ele>438.0</ele></trkpt>
<trkpt lat="-37.664349" lon="-73.306824"><ele>473.0</ele></trkpt>
<trkpt lat="-37.664355" lon="-73.306562"><ele>473.0</ele></trkpt>
<trkpt lat="-37.664312" lon="-73.306490"><ele>473.0</ele></trkpt>
<trkpt lat="-37.664171" lon="-73.306489"><ele>473.0</ele></trkpt>
<trkpt lat="-37.663603" lon="-73.306767"><ele>473.0</ele></trkpt>
<trkpt lat="-37.663296" lon="-73.306685"><ele>473.0</ele></trkpt>
<trkpt lat="-37.663137" lon="-73.306329"><ele>473.0</ele></trkpt>
<trkpt lat="-37.663094" lon="-73.305494"><ele>539.0</ele></trkpt>
<trkpt lat="-37.662143" lon="-73.306304"><ele>486.0</ele></trkpt>
<trkpt lat="-37.661942" lon="-73.306350"><ele>486.0</ele></trkpt>
<trkpt lat="-37.661731" lon="-73.305987"><ele>498.0</ele></trkpt>
<trkpt lat="-37.661565" lon="-73.305419"><ele>498.0</ele></trkpt>
<trkpt lat="-37.661519" lon="-73.305541"><ele>498.0</ele></trkpt>
<trkpt lat="-37.661619" lon="-73.305490"><ele>498.0</ele></trkpt>
<trkpt lat="-37.661686" lon="-73.304903"><ele>498.0</ele></trkpt>
<trkpt lat="-37.660868" lon="-73.304021"><ele>532.0</ele></trkpt>
<trkpt lat="-37.660541" lon="-73.303285"><ele>532.0</ele></trkpt>
<trkpt lat="-37.660475" lon="-73.303483"><ele>532.0</ele></trkpt>
<trkpt lat="-37.660559" lon="-73.303874"><ele>532.0</ele></trkpt>
<trkpt lat="-37.660387" lon="-73.304366"><ele>471.0</ele></trkpt>
<trkpt lat="-37.660423" lon="-73.304897"><ele>498.0</ele></trkpt>
<trkpt lat="-37.660020" lon="-73.305166"><ele>471.0</ele></trkpt>
<trkpt lat="-37.659634" lon="-73.305077"><ele>471.0</ele></trkpt>
<trkpt lat="-37.659284" lon="-73.304686"><ele>471.0</ele></trkpt>
<trkpt lat="-37.658718" lon="-73.303696"><ele>508.0</ele></trkpt>
<trkpt lat="-37.658512" lon="-73.303117"><ele>508.0</ele></trkpt>
<trkpt lat="-37.658165" lon="-73.301359"><ele>453.0</ele></trkpt>
<trkpt lat="-37.657920" lon="-73.301204"><ele>453.0</ele></trkpt>
<trkpt lat="-37.657286" lon="-73.301241"><ele>453.0</ele></trkpt>
<trkpt lat="-37.656670" lon="-73.299965"><ele>496.0</ele></trkpt>
<trkpt lat="-37.656527" lon="-73.299830"><ele>496.0</ele></trkpt>
<trkpt lat="-37.656423" lon="-73.299824"><ele>496.0</ele></trkpt>
<trkpt lat="-37.656289" lon="-73.300034"><ele>453.0</ele></trkpt>
<trkpt lat="-37.656267" lon="-73.300299"><ele>453.0</ele></trkpt>
<trkpt lat="-37.656371" lon="-73.300634"><ele>453.0</ele></trkpt>
<trkpt lat="-37.656674" lon="-73.300950"><ele>453.0</ele></trkpt>
<trkpt lat="-37.656818" lon="-73.301259"><ele>453.0</ele></trkpt>
<trkpt lat="-37.656677" lon="-73.301714"><ele>453.0</ele></trkpt>
<trkpt lat="-37.656723" lon="-73.302204"><ele>427.0</ele></trkpt>
<trkpt lat="-37.656399" lon="-73.302993"><ele>427.0</ele></trkpt>
<trkpt lat="-37.655674" lon="-73.303387"><ele>508.0</ele></trkpt>
<trkpt lat="-37.655504" lon="-73.303607"><ele>508.0</ele></trkpt>
<trkpt lat="-37.655532" lon="-73.303782"><ele>508.0</ele></trkpt>
<trkpt lat="-37.655988" lon="-73.304137"><ele>508.0</ele></trkpt>
<trkpt lat="-37.656064" lon="-73.304339"><ele>482.0</ele></trkpt>
<trkpt lat="-37.655658" lon="-73.304425"><ele>482.0</ele></trkpt>
<trkpt lat="-37.655541" lon="-73.304730"><ele>482.0</ele></trkpt>
<trkpt lat="-37.655202" lon="-73.305064"><ele>482.0</ele></trkpt>
<trkpt lat="-37.654439" lon="-73.306899"><ele>441.0</ele></trkpt>
<trkpt lat="-37.654317" lon="-73.306989"><ele>441.0</ele></trkpt>
<trkpt lat="-37.654212" lon="-73.306968"><ele>441.0</ele></trkpt>
<trkpt lat="-37.654032" lon="-73.306690"><ele>455.0</ele></trkpt>
<trkpt lat="-37.653698" lon="-73.306834"><ele>455.0</ele></trkpt>
<trkpt lat="-37.653423" lon="-73.306756"><ele>455.0</ele></trkpt>
<trkpt lat="-37.653244" lon="-73.306373"><ele>455.0</ele></trkpt>
<trkpt lat="-37.653242" lon="-73.305563"><ele>473.0</ele></trkpt>
<trkpt lat="-37.653094" lon="-73.305380"><ele>473.0</ele></trkpt>
<trkpt lat="-37.653150" lon="-73.303029"><ele>493.0</ele></trkpt>
<trkpt lat="-37.652861" lon="-73.302354"><ele>493.0</ele></trkpt>
<trkpt lat="-37.652489" lon="-73.301936"><ele>541.0</ele></trkpt>
<trkpt lat="-37.651733" lon="-73.301650"><ele>536.0</ele></trkpt>
<trkpt lat="-37.651627" lon="-73.301639"><ele>536.0</ele></trkpt>
<trkpt lat="-37.651419" lon="-73.301803"><ele>536.0</ele></trkpt>
<trkpt lat="-37.651078" lon="-73.301575"><ele>536.0</ele></trkpt>
<trkpt lat="-37.650730" lon="-73.301468"><ele>536.0</ele></trkpt>
<trkpt lat="-37.650352" lon="-73.301762"><ele>536.0</ele></trkpt>
<trkpt lat="-37.650229" lon="-73.301568"><ele>536.0</ele></trkpt>
<trkpt lat="-37.651131" lon="-73.301002"><ele>536.0</ele></trkpt>
<trkpt lat="-37.652023" lon="-73.301118"><ele>536.0</ele></trkpt>
<trkpt lat="-37.652948" lon="-73.300967"><ele>541.0</ele></trkpt>
<trkpt lat="-37.653379" lon="-73.300982"><ele>541.0</ele></trkpt>
<trkpt lat="-37.653687" lon="-73.301101"><ele>541.0</ele></trkpt>
<trkpt lat="-37.653805" lon="-73.301049"><ele>541.0</ele></trkpt>
<trkpt lat="-37.652868" lon="-73.300310"><ele>541.0</ele></trkpt>
<trkpt lat="-37.651994" lon="-73.300066"><ele>536.0</ele></trkpt>
<trkpt lat="-37.651518" lon="-73.299751"><ele>579.0</ele></trkpt>
<trkpt lat="-37.651337" lon="-73.299534"><ele>579.0</ele></trkpt>
<trkpt lat="-37.651137" lon="-73.298959"><ele>579.0</ele></trkpt>
<trkpt lat="-37.650946" lon="-73.297577"><ele>589.0</ele></trkpt>
<trkpt lat="-37.651073" lon="-73.296412"><ele>589.0</ele></trkpt>
<trkpt lat="-37.650895" lon="-73.295396"><ele>609.0</ele></trkpt>
<trkpt lat="-37.650930" lon="-73.294816"><ele>609.0</ele></trkpt>
<trkpt lat="-37.650350" lon="-73.294376"><ele>609.0</ele></trkpt>
<trkpt lat="-37.650080" lon="-73.294448"><ele>609.0</ele></trkpt>
<trkpt lat="-37.650063" lon="-73.294372"><ele>609.0</ele></trkpt>
<trkpt lat="-37.650189" lon="-73.294273"><ele>609.0</ele></trkpt>
<trkpt lat="-37.650193" lon="-73.294383"><ele>609.0</ele></trkpt>
<trkpt lat="-37.650166" lon="-73.294318"><ele>609.0</ele></trkpt>
</trkseg></trk>
<trk><name>Cumbres de Nahuelbuta</name><trkseg>
<trkpt lat="-37.626700" lon="-73.403723"><ele>165.0</ele></trkpt>
<trkpt lat="-37.626635" lon="-73.403821"><ele>165.0</ele></trkpt>
<trkpt lat="-37.626501" lon="-73.403816"><ele>165.0</ele></trkpt>
<trkpt lat="-37.626214" lon="-73.403189"><ele>165.0</ele></trkpt>
<trkpt lat="-37.625959" lon="-73.402870"><ele>165.0</ele></trkpt>
<trkpt lat="-37.623918" lon="-73.401024"><ele>173.0</ele></trkpt>
<trkpt lat="-37.621215" lon="-73.398804"><ele>175.0</ele></trkpt>
<trkpt lat="-37.620011" lon="-73.397134"><ele>182.0</ele></trkpt>
<trkpt lat="-37.618664" lon="-73.396283"><ele>180.0</ele></trkpt>
<trkpt lat="-37.616816" lon="-73.395711"><ele>183.0</ele></trkpt>
<trkpt lat="-37.615795" lon="-73.395281"><ele>182.0</ele></trkpt>
<trkpt lat="-37.615224" lon="-73.395200"><ele>182.0</ele></trkpt>
<trkpt lat="-37.615070" lon="-73.395315"><ele>182.0</ele></trkpt>
<trkpt lat="-37.612999" lon="-73.393879"><ele>190.0</ele></trkpt>
<trkpt lat="-37.612148" lon="-73.393766"><ele>212.0</ele></trkpt>
<trkpt lat="-37.611605" lon="-73.394535"><ele>212.0</ele></trkpt>
<trkpt lat="-37.611291" lon="-73.394613"><ele>212.0</ele></trkpt>
<trkpt lat="-37.610883" lon="-73.394254"><ele>212.0</ele></trkpt>
<trkpt lat="-37.610152" lon="-73.393796"><ele>223.0</ele></trkpt>
<trkpt lat="-37.609951" lon="-73.393842"><ele>223.0</ele></trkpt>
<trkpt lat="-37.609621" lon="-73.394427"><ele>223.0</ele></trkpt>
<trkpt lat="-37.609379" lon="-73.394493"><ele>223.0</ele></trkpt>
<trkpt lat="-37.608536" lon="-73.394114"><ele>223.0</ele></trkpt>
<trkpt lat="-37.608366" lon="-73.393951"><ele>223.0</ele></trkpt>
<trkpt lat="-37.608369" lon="-73.393823"><ele>223.0</ele></trkpt>
<trkpt lat="-37.608937" lon="-73.393361"><ele>251.0</ele></trkpt>
<trkpt lat="-37.609532" lon="-73.392711"><ele>251.0</ele></trkpt>
<trkpt lat="-37.610193" lon="-73.392387"><ele>251.0</ele></trkpt>
<trkpt lat="-37.610616" lon="-73.391774"><ele>231.0</ele></trkpt>
<trkpt lat="-37.611053" lon="-73.390680"><ele>251.0</ele></trkpt>
<trkpt lat="-37.611714" lon="-73.389498"><ele>240.0</ele></trkpt>
<trkpt lat="-37.612079" lon="-73.389064"><ele>240.0</ele></trkpt>
<trkpt lat="-37.613688" lon="-73.387704"><ele>259.0</ele></trkpt>
<trkpt lat="-37.614512" lon="-73.385908"><ele>265.0</ele></trkpt>
<trkpt lat="-37.615806" lon="-73.384283"><ele>246.0</ele></trkpt>
<trkpt lat="-37.616135" lon="-73.383381"><ele>246.0</ele></trkpt>
<trkpt lat="-37.616688" lon="-73.382966"><ele>249.0</ele></trkpt>
<trkpt lat="-37.616988" lon="-73.382299"><ele>249.0</ele></trkpt>
<trkpt lat="-37.617702" lon="-73.381545"><ele>249.0</ele></trkpt>
<trkpt lat="-37.618012" lon="-73.380734"><ele>239.0</ele></trkpt>
<trkpt lat="-37.619836" lon="-73.378839"><ele>265.0</ele></trkpt>
<trkpt lat="-37.620766" lon="-73.377649"><ele>265.0</ele></trkpt>
<trkpt lat="-37.621398" lon="-73.377349"><ele>262.0</ele></trkpt>
<trkpt lat="-37.621837" lon="-73.377041"><ele>276.0</ele></trkpt>
<trkpt lat="-37.622678" lon="-73.376200"><ele>276.0</ele></trkpt>
<trkpt lat="-37.623689" lon="-73.375744"><ele>284.0</ele></trkpt>
<trkpt lat="-37.625084" lon="-73.375847"><ele>302.0</ele></trkpt>
<trkpt lat="-37.625646" lon="-73.376248"><ele>302.0</ele></trkpt>
<trkpt lat="-37.626295" lon="-73.376490"><ele>302.0</ele></trkpt>
<trkpt lat="-37.626567" lon="-73.376382"><ele>302.0</ele></trkpt>
<trkpt lat="-37.626863" lon="-73.375989"><ele>302.0</ele></trkpt>
<trkpt lat="-37.627354" lon="-73.375623"><ele>300.0</ele></trkpt>
<trkpt lat="-37.627488" lon="-73.375023"><ele>300.0</ele></trkpt>
<trkpt lat="-37.627968" lon="-73.373806"><ele>290.0</ele></trkpt>
<trkpt lat="-37.629125" lon="-73.372736"><ele>268.0</ele></trkpt>
<trkpt lat="-37.629636" lon="-73.371758"><ele>300.0</ele></trkpt>
<trkpt lat="-37.629613" lon="-73.371404"><ele>300.0</ele></trkpt>
<trkpt lat="-37.629432" lon="-73.371012"><ele>300.0</ele></trkpt>
<trkpt lat="-37.629169" lon="-73.370706"><ele>299.0</ele></trkpt>
<trkpt lat="-37.628753" lon="-73.370582"><ele>281.0</ele></trkpt>
<trkpt lat="-37.628582" lon="-73.370420"><ele>281.0</ele></trkpt>
<trkpt lat="-37.628497" lon="-73.370225"><ele>281.0</ele></trkpt>
<trkpt lat="-37.628528" lon="-73.370051"><ele>281.0</ele></trkpt>
<trkpt lat="-37.628966" lon="-73.369602"><ele>281.0</ele></trkpt>
<trkpt lat="-37.629455" lon="-73.369321"><ele>299.0</ele></trkpt>
<trkpt lat="-37.629977" lon="-73.368700"><ele>287.0</ele></trkpt>
<trkpt lat="-37.630799" lon="-73.368051"><ele>287.0</ele></trkpt>
<trkpt lat="-37.631095" lon="-73.367491"><ele>287.0</ele></trkpt>
<trkpt lat="-37.631265" lon="-73.366628"><ele>293.0</ele></trkpt>
<trkpt lat="-37.631602" lon="-73.366293"><ele>293.0</ele></trkpt>
<trkpt lat="-37.632324" lon="-73.365798"><ele>293.0</ele></trkpt>
<trkpt lat="-37.632446" lon="-73.365240"><ele>293.0</ele></trkpt>
<trkpt lat="-37.632211" lon="-73.364195"><ele>291.0</ele></trkpt>
<trkpt lat="-37.632209" lon="-73.363610"><ele>291.0</ele></trkpt>
<trkpt lat="-37.632590" lon="-73.362690"><ele>291.0</ele></trkpt>
<trkpt lat="-37.633039" lon="-73.362172"><ele>315.0</ele></trkpt>
<trkpt lat="-37.633310" lon="-73.362073"><ele>315.0</ele></trkpt>
<trkpt lat="-37.634057" lon="-73.362189"><ele>308.0</ele></trkpt>
<trkpt lat="-37.634632" lon="-73.361836"><ele>308.0</ele></trkpt>
<trkpt lat="-37.635378" lon="-73.361875"><ele>308.0</ele></trkpt>
<trkpt lat="-37.636252" lon="-73.361260"><ele>311.0</ele></trkpt>
<trkpt lat="-37.637281" lon="-73.360869"><ele>311.0</ele></trkpt>
<trkpt lat="-37.638079" lon="-73.360259"><ele>312.0</ele></trkpt>
<trkpt lat="-37.639290" lon="-73.359702"><ele>312.0</ele></trkpt>
<trkpt lat="-37.639995" lon="-73.359573"><ele>340.0</ele></trkpt>
<trkpt lat="-37.640542" lon="-73.359069"><ele>340.0</ele></trkpt>
<trkpt lat="-37.641367" lon="-73.358523"><ele>340.0</ele></trkpt>
<trkpt lat="-37.641865" lon="-73.358462"><ele>334.0</ele></trkpt>
<trkpt lat="-37.643097" lon="-73.358782"><ele>334.0</ele></trkpt>
<trkpt lat="-37.643994" lon="-73.358821"><ele>345.0</ele></trkpt>
<trkpt lat="-37.644643" lon="-73.359066"><ele>345.0</ele></trkpt>
<trkpt lat="-37.644893" lon="-73.359044"><ele>345.0</ele></trkpt>
<trkpt lat="-37.645254" lon="-73.358683"><ele>345.0</ele></trkpt>
<trkpt lat="-37.645562" lon="-73.357819"><ele>317.0</ele></trkpt>
<trkpt lat="-37.645959" lon="-73.357442"><ele>339.0</ele></trkpt>
<trkpt lat="-37.646704" lon="-73.357331"><ele>339.0</ele></trkpt>
<trkpt lat="-37.647094" lon="-73.357408"><ele>339.0</ele></trkpt>
<trkpt lat="-37.647522" lon="-73.357624"><ele>339.0</ele></trkpt>
<trkpt lat="-37.648054" lon="-73.357365"><ele>353.0</ele></trkpt>
<trkpt lat="-37.649614" lon="-73.355993"><ele>339.0</ele></trkpt>
<trkpt lat="-37.650475" lon="-73.355339"><ele>359.0</ele></trkpt>
<trkpt lat="-37.650675" lon="-73.354914"><ele>359.0</ele></trkpt>
<trkpt lat="-37.650737" lon="-73.353655"><ele>356.0</ele></trkpt>
<trkpt lat="-37.651208" lon="-73.352976"><ele>356.0</ele></trkpt>
<trkpt lat="-37.651414" lon="-73.352447"><ele>356.0</ele></trkpt>
<trkpt lat="-37.651671" lon="-73.352151"><ele>356.0</ele></trkpt>
<trkpt lat="-37.652580" lon="-73.351934"><ele>354.0</ele></trkpt>
<trkpt lat="-37.652993" lon="-73.351659"><ele>354.0</ele></trkpt>
<trkpt lat="-37.653237" lon="-73.351391"><ele>354.0</ele></trkpt>
<trkpt lat="-37.653538" lon="-73.350886"><ele>354.0</ele></trkpt>
<trkpt lat="-37.653672" lon="-73.350182"><ele>354.0</ele></trkpt>
<trkpt lat="-37.654207" lon="-73.348853"><ele>362.0</ele></trkpt>
</trkseg></trk>
<trk><name>Cumbres de Nahuelbuta</name><trkseg>
<trkpt lat="-37.722614" lon="-73.258090"><ele>322.0</ele></trkpt>
<trkpt lat="-37.722429" lon="-73.258125"><ele>322.0</ele></trkpt>
<trkpt lat="-37.722312" lon="-73.258401"><ele>305.0</ele></trkpt>
<trkpt lat="-37.722213" lon="-73.259196"><ele>305.0</ele></trkpt>
<trkpt lat="-37.722320" lon="-73.259484"><ele>305.0</ele></trkpt>
<trkpt lat="-37.722624" lon="-73.259722"><ele>305.0</ele></trkpt>
<trkpt lat="-37.722916" lon="-73.260122"><ele>305.0</ele></trkpt>
<trkpt lat="-37.723374" lon="-73.260479"><ele>297.0</ele></trkpt>
<trkpt lat="-37.723676" lon="-73.260920"><ele>297.0</ele></trkpt>
<trkpt lat="-37.723698" lon="-73.261546"><ele>297.0</ele></trkpt>
<trkpt lat="-37.724043" lon="-73.262425"><ele>297.0</ele></trkpt>
<trkpt lat="-37.723959" lon="-73.262498"><ele>297.0</ele></trkpt>
<trkpt lat="-37.723658" lon="-73.262365"><ele>297.0</ele></trkpt>
<trkpt lat="-37.723447" lon="-73.262418"><ele>297.0</ele></trkpt>
<trkpt lat="-37.723287" lon="-73.262597"><ele>290.0</ele></trkpt>
<trkpt lat="-37.723273" lon="-73.262773"><ele>290.0</ele></trkpt>
<trkpt lat="-37.723727" lon="-73.263590"><ele>290.0</ele></trkpt>
<trkpt lat="-37.723748" lon="-73.263858"><ele>290.0</ele></trkpt>
<trkpt lat="-37.724043" lon="-73.264316"><ele>290.0</ele></trkpt>
<trkpt lat="-37.724342" lon="-73.264436"><ele>290.0</ele></trkpt>
<trkpt lat="-37.724523" lon="-73.264768"><ele>314.0</ele></trkpt>
<trkpt lat="-37.724530" lon="-73.265222"><ele>314.0</ele></trkpt>
<trkpt lat="-37.724751" lon="-73.265790"><ele>314.0</ele></trkpt>
<trkpt lat="-37.724835" lon="-73.266600"><ele>314.0</ele></trkpt>
<trkpt lat="-37.725030" lon="-73.267427"><ele>274.0</ele></trkpt>
<trkpt lat="-37.725600" lon="-73.268991"><ele>268.0</ele></trkpt>
<trkpt lat="-37.725572" lon="-73.269164"><ele>268.0</ele></trkpt>
<trkpt lat="-37.725192" lon="-73.269701"><ele>268.0</ele></trkpt>
<trkpt lat="-37.725161" lon="-73.270187"><ele>268.0</ele></trkpt>
<trkpt lat="-37.725317" lon="-73.270595"><ele>268.0</ele></trkpt>
<trkpt lat="-37.725795" lon="-73.271271"><ele>260.0</ele></trkpt>
<trkpt lat="-37.725945" lon="-73.271868"><ele>260.0</ele></trkpt>
<trkpt lat="-37.726151" lon="-73.271873"><ele>260.0</ele></trkpt>
<trkpt lat="-37.726783" lon="-73.271208"><ele>260.0</ele></trkpt>
<trkpt lat="-37.726805" lon="-73.270945"><ele>260.0</ele></trkpt>
<trkpt lat="-37.726606" lon="-73.270419"><ele>268.0</ele></trkpt>
<trkpt lat="-37.726663" lon="-73.269789"><ele>268.0</ele></trkpt>
<trkpt lat="-37.727314" lon="-73.268955"><ele>215.0</ele></trkpt>
<trkpt lat="-37.727445" lon="-73.268635"><ele>219.0</ele></trkpt>
<trkpt lat="-37.727383" lon="-73.267345"><ele>219.0</ele></trkpt>
<trkpt lat="-37.727714" lon="-73.266651"><ele>214.0</ele></trkpt>
<trkpt lat="-37.727935" lon="-73.265233"><ele>214.0</ele></trkpt>
<trkpt lat="-37.727693" lon="-73.264384"><ele>211.0</ele></trkpt>
<trkpt lat="-37.727555" lon="-73.264120"><ele>211.0</ele></trkpt>
<trkpt lat="-37.727140" lon="-73.263689"><ele>211.0</ele></trkpt>
<trkpt lat="-37.727082" lon="-73.263387"><ele>243.0</ele></trkpt>
<trkpt lat="-37.727298" lon="-73.262432"><ele>212.0</ele></trkpt>
<trkpt lat="-37.727481" lon="-73.261989"><ele>212.0</ele></trkpt>
<trkpt lat="-37.727626" lon="-73.261881"><ele>212.0</ele></trkpt>
<trkpt lat="-37.727832" lon="-73.261951"><ele>212.0</ele></trkpt>
<trkpt lat="-37.728045" lon="-73.262314"><ele>212.0</ele></trkpt>
<trkpt lat="-37.728210" lon="-73.262404"><ele>212.0</ele></trkpt>
<trkpt lat="-37.728145" lon="-73.262509"><ele>211.0</ele></trkpt>
<trkpt lat="-37.728125" lon="-73.262439"><ele>212.0</ele></trkpt>
<trkpt lat="-37.728405" lon="-73.262394"><ele>212.0</ele></trkpt>
<trkpt lat="-37.728852" lon="-73.262542"><ele>211.0</ele></trkpt>
<trkpt lat="-37.729741" lon="-73.263657"><ele>253.0</ele></trkpt>
<trkpt lat="-37.730024" lon="-73.264126"><ele>253.0</ele></trkpt>
<trkpt lat="-37.730186" lon="-73.265143"><ele>243.0</ele></trkpt>
<trkpt lat="-37.730077" lon="-73.266221"><ele>243.0</ele></trkpt>
<trkpt lat="-37.730120" lon="-73.266899"><ele>225.0</ele></trkpt>
<trkpt lat="-37.730201" lon="-73.267150"><ele>225.0</ele></trkpt>
<trkpt lat="-37.730697" lon="-73.267867"><ele>225.0</ele></trkpt>
<trkpt lat="-37.730771" lon="-73.268122"><ele>225.0</ele></trkpt>
<trkpt lat="-37.730995" lon="-73.270776"><ele>202.0</ele></trkpt>
<trkpt lat="-37.731211" lon="-73.271193"><ele>185.0</ele></trkpt>
<trkpt lat="-37.731359" lon="-73.271799"><ele>243.0</ele></trkpt>
<trkpt lat="-37.731828" lon="-73.272970"><ele>194.0</ele></trkpt>
<trkpt lat="-37.732088" lon="-73.273209"><ele>194.0</ele></trkpt>
<trkpt lat="-37.733473" lon="-73.274072"><ele>226.0</ele></trkpt>
<trkpt lat="-37.734018" lon="-73.274909"><ele>226.0</ele></trkpt>
<trkpt lat="-37.734563" lon="-73.275426"><ele>178.0</ele></trkpt>
<trkpt lat="-37.734793" lon="-73.276423"><ele>178.0</ele></trkpt>
<trkpt lat="-37.734930" lon="-73.278138"><ele>175.0</ele></trkpt>
<trkpt lat="-37.735167" lon="-73.279369"><ele>192.0</ele></trkpt>
<trkpt lat="-37.735052" lon="-73.279750"><ele>192.0</ele></trkpt>
<trkpt lat="-37.734391" lon="-73.280371"><ele>192.0</ele></trkpt>
<trkpt lat="-37.733965" lon="-73.281265"><ele>227.0</ele></trkpt>
<trkpt lat="-37.733787" lon="-73.281488"><ele>227.0</ele></trkpt>
<trkpt lat="-37.733603" lon="-73.281629"><ele>227.0</ele></trkpt>
<trkpt lat="-37.733118" lon="-73.281795"><ele>174.0</ele></trkpt>
<trkpt lat="-37.732919" lon="-73.281985"><ele>174.0</ele></trkpt>
<trkpt lat="-37.732724" lon="-73.282417"><ele>174.0</ele></trkpt>
<trkpt lat="-37.732282" lon="-73.283070"><ele>174.0</ele></trkpt>
<trkpt lat="-37.732035" lon="-73.283871"><ele>221.0</ele></trkpt>
<trkpt lat="-37.731566" lon="-73.284362"><ele>221.0</ele></trkpt>
<trkpt lat="-37.731091" lon="-73.285156"><ele>169.0</ele></trkpt>
<trkpt lat="-37.730257" lon="-73.286082"><ele>224.0</ele></trkpt>
<trkpt lat="-37.729876" lon="-73.286185"><ele>224.0</ele></trkpt>
<trkpt lat="-37.729727" lon="-73.286308"><ele>224.0</ele></trkpt>
<trkpt lat="-37.728805" lon="-73.287813"><ele>227.0</ele></trkpt>
<trkpt lat="-37.728074" lon="-73.289370"><ele>227.0</ele></trkpt>
<trkpt lat="-37.727374" lon="-73.289980"><ele>291.0</ele></trkpt>
<trkpt lat="-37.727265" lon="-73.290453"><ele>291.0</ele></trkpt>
<trkpt lat="-37.727362" lon="-73.291348"><ele>291.0</ele></trkpt>
<trkpt lat="-37.727509" lon="-73.291710"><ele>260.0</ele></trkpt>
<trkpt lat="-37.727860" lon="-73.292019"><ele>260.0</ele></trkpt>
<trkpt lat="-37.728003" lon="-73.292330"><ele>260.0</ele></trkpt>
<trkpt lat="-37.727753" lon="-73.292976"><ele>260.0</ele></trkpt>
<trkpt lat="-37.727496" lon="-73.294063"><ele>282.0</ele></trkpt>
<trkpt lat="-37.727084" lon="-73.294859"><ele>282.0</ele></trkpt>
<trkpt lat="-37.726814" lon="-73.295070"><ele>207.0</ele></trkpt>
<trkpt lat="-37.725296" lon="-73.295415"><ele>207.0</ele></trkpt>
<trkpt lat="-37.724776" lon="-73.295721"><ele>164.0</ele></trkpt>
<trkpt lat="-37.724305" lon="-73.296462"><ele>175.0</ele></trkpt>
<trkpt lat="-37.724153" lon="-73.297290"><ele>175.0</ele></trkpt>
<trkpt lat="-37.723470" lon="-73.297784"><ele>175.0</ele></trkpt>
<trkpt lat="-37.723104" lon="-73.298277"><ele>182.0</ele></trkpt>
<trkpt lat="-37.723088" lon="-73.298626"><ele>182.0</ele></trkpt>
<trkpt lat="-37.723404" lon="-73.298817"><ele>182.0</ele></trkpt>
<trkpt lat="-37.723430" lon="-73.298928"><ele>182.0</ele></trkpt>
<trkpt lat="-37.723268" lon="-73.299007"><ele>182.0</ele></trkpt>
<trkpt lat="-37.722730" lon="-73.298996"><ele>131.0</ele></trkpt>
<trkpt lat="-37.722566" lon="-73.299083"><ele>131.0</ele></trkpt>
<trkpt lat="-37.721568" lon="-73.300445"><ele>159.0</ele></trkpt>
<trkpt lat="-37.721436" lon="-73.300913"><ele>159.0</ele></trkpt>
<trkpt lat="-37.721349" lon="-73.301810"><ele>159.0</ele></trkpt>
<trkpt lat="-37.720432" lon="-73.304214"><ele>117.0</ele></trkpt>
<trkpt lat="-37.720420" lon="-73.304983"><ele>117.0</ele></trkpt>
<trkpt lat="-37.720220" lon="-73.305710"><ele>117.0</ele></trkpt>
<trkpt lat="-37.719422" lon="-73.306983"><ele>155.0</ele></trkpt>
<trkpt lat="-37.719427" lon="-73.307520"><ele>155.0</ele></trkpt>
<trkpt lat="-37.719625" lon="-73.308390"><ele>151.0</ele></trkpt>
<trkpt lat="-37.719570" lon="-73.309882"><ele>151.0</ele></trkpt>
<trkpt lat="-37.719671" lon="-73.310641"><ele>158.0</ele></trkpt>
<trkpt lat="-37.718683" lon="-73.312002"><ele>111.0</ele></trkpt>
<trkpt lat="-37.718145" lon="-73.312910"><ele>127.0</ele></trkpt>
<trkpt lat="-37.717930" lon="-73.313482"><ele>127.0</ele></trkpt>
<trkpt lat="-37.717362" lon="-73.313947"><ele>127.0</ele></trkpt>
<trkpt lat="-37.717133" lon="-73.314453"><ele>127.0</ele></trkpt>
<trkpt lat="-37.717069" lon="-73.315264"><ele>179.0</ele></trkpt>
<trkpt lat="-37.717254" lon="-73.315996"><ele>179.0</ele></trkpt>
<trkpt lat="-37.717281" lon="-73.316540"><ele>179.0</ele></trkpt>
<trkpt lat="-37.717198" lon="-73.316934"><ele>176.0</ele></trkpt>
<trkpt lat="-37.717212" lon="-73.318201"><ele>176.0</ele></trkpt>
<trkpt lat="-37.717350" lon="-73.318568"><ele>176.0</ele></trkpt>
<trkpt lat="-37.717510" lon="-73.318734"><ele>176.0</ele></trkpt>
<trkpt lat="-37.717479" lon="-73.318264"><ele>176.0</ele></trkpt>
<trkpt lat="-37.717894" lon="-73.316734"><ele>176.0</ele></trkpt>
<trkpt lat="-37.718285" lon="-73.315868"><ele>179.0</ele></trkpt>
<trkpt lat="-37.718692" lon="-73.315364"><ele>179.0</ele></trkpt>
<trkpt lat="-37.718938" lon="-73.315318"><ele>200.0</ele></trkpt>
<trkpt lat="-37.718977" lon="-73.315390"><ele>200.0</ele></trkpt>
<trkpt lat="-37.718698" lon="-73.316552"><ele>179.0</ele></trkpt>
<trkpt lat="-37.718910" lon="-73.317367"><ele>237.0</ele></trkpt>
<trkpt lat="-37.719074" lon="-73.317513"><ele>237.0</ele></trkpt>
<trkpt lat="-37.719159" lon="-73.317321"><ele>237.0</ele></trkpt>
<trkpt lat="-37.719167" lon="-73.316742"><ele>237.0</ele></trkpt>
<trkpt lat="-37.719555" lon="-73.316352"><ele>200.0</ele></trkpt>
<trkpt lat="-37.719868" lon="-73.316380"><ele>200.0</ele></trkpt>
<trkpt lat="-37.720340" lon="-73.316860"><ele>237.0</ele></trkpt>
<trkpt lat="-37.720479" lon="-73.316844"><ele>237.0</ele></trkpt>
<trkpt lat="-37.720593" lon="-73.316562"><ele>200.0</ele></trkpt>
<trkpt lat="-37.720567" lon="-73.315792"><ele>200.0</ele></trkpt>
<trkpt lat="-37.720695" lon="-73.315533"><ele>200.0</ele></trkpt>
<trkpt lat="-37.721644" lon="-73.315320"><ele>258.0</ele></trkpt>
<trkpt lat="-37.721993" lon="-73.315537"><ele>258.0</ele></trkpt>
<trkpt lat="-37.722088" lon="-73.315490"><ele>258.0</ele></trkpt>
<trkpt lat="-37.722318" lon="-73.314830"><ele>258.0</ele></trkpt>
<trkpt lat="-37.722669" lon="-73.314461"><ele>248.0</ele></trkpt>
<trkpt lat="-37.722448" lon="-73.314254"><ele>248.0</ele></trkpt>
<trkpt lat="-37.722245" lon="-73.313881"><ele>248.0</ele></trkpt>
<trkpt lat="-37.722435" lon="-73.313162"><ele>248.0</ele></trkpt>
<trkpt lat="-37.722899" lon="-73.312413"><ele>216.0</ele></trkpt>
<trkpt lat="-37.723616" lon="-73.311677"><ele>268.0</ele></trkpt>
<trkpt lat="-37.723764" lon="-73.311782"><ele>268.0</ele></trkpt>
<trkpt lat="-37.723794" lon="-73.312141"><ele>268.0</ele></trkpt>
<trkpt lat="-37.723933" lon="-73.312456"><ele>268.0</ele></trkpt>
<trkpt lat="-37.724632" lon="-73.312795"><ele>288.0</ele></trkpt>
<trkpt lat="-37.725138" lon="-73.313546"><ele>351.0</ele></trkpt>
<trkpt lat="-37.724435" lon="-73.315071"><ele>307.0</ele></trkpt>
<trkpt lat="-37.724359" lon="-73.315467"><ele>307.0</ele></trkpt>
<trkpt lat="-37.724405" lon="-73.315994"><ele>307.0</ele></trkpt>
<trkpt lat="-37.724861" lon="-73.316631"><ele>307.0</ele></trkpt>
<trkpt lat="-37.724970" lon="-73.316913"><ele>316.0</ele></trkpt>
<trkpt lat="-37.724924" lon="-73.317218"><ele>316.0</ele></trkpt>
<trkpt lat="-37.724722" lon="-73.317409"><ele>316.0</ele></trkpt>
<trkpt lat="-37.724638" lon="-73.317609"><ele>316.0</ele></trkpt>
<trkpt lat="-37.724617" lon="-73.317925"><ele>316.0</ele></trkpt>
<trkpt lat="-37.724715" lon="-73.318396"><ele>316.0</ele></trkpt>
<trkpt lat="-37.724143" lon="-73.319192"><ele>353.0</ele></trkpt>
<trkpt lat="-37.723736" lon="-73.320592"><ele>353.0</ele></trkpt>
<trkpt lat="-37.723789" lon="-73.320947"><ele>359.0</ele></trkpt>
<trkpt lat="-37.723951" lon="-73.321247"><ele>359.0</ele></trkpt>
<trkpt lat="-37.724603" lon="-73.321954"><ele>359.0</ele></trkpt>
<trkpt lat="-37.724973" lon="-73.322122"><ele>359.0</ele></trkpt>
<trkpt lat="-37.725544" lon="-73.322195"><ele>392.0</ele></trkpt>
<trkpt lat="-37.725780" lon="-73.322092"><ele>392.0</ele></trkpt>
<trkpt lat="-37.726130" lon="-73.321636"><ele>392.0</ele></trkpt>
<trkpt lat="-37.726494" lon="-73.320857"><ele>392.0</ele></trkpt>
<trkpt lat="-37.726493" lon="-73.319693"><ele>397.0</ele></trkpt>
<trkpt lat="-37.726899" lon="-73.319063"><ele>397.0</ele></trkpt>
<trkpt lat="-37.727129" lon="-73.318163"><ele>425.0</ele></trkpt>
<trkpt lat="-37.727569" lon="-73.317720"><ele>425.0</ele></trkpt>
<trkpt lat="-37.727782" lon="-73.317853"><ele>425.0</ele></trkpt>
<trkpt lat="-37.727730" lon="-73.318564"><ele>425.0</ele></trkpt>
<trkpt lat="-37.728105" lon="-73.319582"><ele>441.0</ele></trkpt>
<trkpt lat="-37.728133" lon="-73.321481"><ele>459.0</ele></trkpt>
<trkpt lat="-37.727814" lon="-73.322283"><ele>459.0</ele></trkpt>
<trkpt lat="-37.727801" lon="-73.322553"><ele>459.0</ele></trkpt>
<trkpt lat="-37.727886" lon="-73.322749"><ele>459.0</ele></trkpt>
<trkpt lat="-37.728117" lon="-73.322833"><ele>459.0</ele></trkpt>
<trkpt lat="-37.728362" lon="-73.322648"><ele>459.0</ele></trkpt>
<trkpt lat="-37.728777" lon="-73.322027"><ele>459.0</ele></trkpt>
<trkpt lat="-37.729502" lon="-73.321289"><ele>446.0</ele></trkpt>
<trkpt lat="-37.730006" lon="-73.321052"><ele>446.0</ele></trkpt>
<trkpt lat="-37.730533" lon="-73.320927"><ele>446.0</ele></trkpt>
<trkpt lat="-37.730686" lon="-73.320576"><ele>512.0</ele></trkpt>
<trkpt lat="-37.730673" lon="-73.320036"><ele>512.0</ele></trkpt>
<trkpt lat="-37.730889" lon="-73.319269"><ele>512.0</ele></trkpt>
<trkpt lat="-37.731090" lon="-73.318844"><ele>512.0</ele></trkpt>
<trkpt lat="-37.731368" lon="-73.318570"><ele>539.0</ele></trkpt>
<trkpt lat="-37.731559" lon="-73.317793"><ele>539.0</ele></trkpt>
<trkpt lat="-37.731586" lon="-73.317250"><ele>539.0</ele></trkpt>
<trkpt lat="-37.731740" lon="-73.316651"><ele>537.0</ele></trkpt>
<trkpt lat="-37.731594" lon="-73.316190"><ele>537.0</ele></trkpt>
<trkpt lat="-37.731703" lon="-73.315434"><ele>537.0</ele></trkpt>
<trkpt lat="-37.731623" lon="-73.314857"><ele>537.0</ele></trkpt>
<trkpt lat="-37.731822" lon="-73.314436"><ele>499.0</ele></trkpt>
<trkpt lat="-37.732068" lon="-73.314500"><ele>499.0</ele></trkpt>
<trkpt lat="-37.732013" lon="-73.314850"><ele>537.0</ele></trkpt>
<trkpt lat="-37.732084" lon="-73.315293"><ele>537.0</ele></trkpt>
<trkpt lat="-37.731974" lon="-73.316179"><ele>537.0</ele></trkpt>
<trkpt lat="-37.732088" lon="-73.316460"><ele>537.0</ele></trkpt>
<trkpt lat="-37.732522" lon="-73.317048"><ele>539.0</ele></trkpt>
<trkpt lat="-37.732335" lon="-73.318011"><ele>539.0</ele></trkpt>
<trkpt lat="-37.732363" lon="-73.318597"><ele>539.0</ele></trkpt>
<trkpt lat="-37.732269" lon="-73.319173"><ele>549.0</ele></trkpt>
<trkpt lat="-37.732366" lon="-73.320935"><ele>543.0</ele></trkpt>
<trkpt lat="-37.732443" lon="-73.321078"><ele>543.0</ele></trkpt>
<trkpt lat="-37.732542" lon="-73.321094"><ele>543.0</ele></trkpt>
<trkpt lat="-37.732785" lon="-73.320272"><ele>549.0</ele></trkpt>
<trkpt lat="-37.733301" lon="-73.319877"><ele>549.0</ele></trkpt>
<trkpt lat="-37.733825" lon="-73.319076"><ele>532.0</ele></trkpt>
<trkpt lat="-37.733821" lon="-73.318763"><ele>532.0</ele></trkpt>
<trkpt lat="-37.733673" lon="-73.318252"><ele>570.0</ele></trkpt>
<trkpt lat="-37.733784" lon="-73.317690"><ele>570.0</ele></trkpt>
<trkpt lat="-37.733934" lon="-73.317496"><ele>570.0</ele></trkpt>
<trkpt lat="-37.734643" lon="-73.316964"><ele>570.0</ele></trkpt>
<trkpt lat="-37.735141" lon="-73.316193"><ele>589.0</ele></trkpt>
<trkpt lat="-37.735257" lon="-73.314574"><ele>560.0</ele></trkpt>
<trkpt lat="-37.735184" lon="-73.313813"><ele>560.0</ele></trkpt>
<trkpt lat="-37.735356" lon="-73.312932"><ele>560.0</ele></trkpt>
<trkpt lat="-37.735427" lon="-73.311984"><ele>590.0</ele></trkpt>
<trkpt lat="-37.735639" lon="-73.311617"><ele>590.0</ele></trkpt>
<trkpt lat="-37.736151" lon="-73.311119"><ele>590.0</ele></trkpt>
<trkpt lat="-37.736465" lon="-73.310624"><ele>590.0</ele></trkpt>
<trkpt lat="-37.736640" lon="-73.310573"><ele>590.0</ele></trkpt>
<trkpt lat="-37.737063" lon="-73.310644"><ele>590.0</ele></trkpt>
<trkpt lat="-37.737697" lon="-73.310501"><ele>545.0</ele></trkpt>
<trkpt lat="-37.738371" lon="-73.310196"><ele>608.0</ele></trkpt>
<trkpt lat="-37.738787" lon="-73.309697"><ele>608.0</ele></trkpt>
<trkpt lat="-37.739153" lon="-73.309410"><ele>608.0</ele></trkpt>
<trkpt lat="-37.739603" lon="-73.309265"><ele>610.0</ele></trkpt>
<trkpt lat="-37.740777" lon="-73.309477"><ele>610.0</ele></trkpt>
<trkpt lat="-37.741510" lon="-73.309930"><ele>610.0</ele></trkpt>
<trkpt lat="-37.741682" lon="-73.309875"><ele>637.0</ele></trkpt>
<trkpt lat="-37.742003" lon="-73.309522"><ele>637.0</ele></trkpt>
<trkpt lat="-37.742356" lon="-73.309575"><ele>637.0</ele></trkpt>
<trkpt lat="-37.742661" lon="-73.309476"><ele>637.0</ele></trkpt>
<trkpt lat="-37.743292" lon="-73.310444"><ele>606.0</ele></trkpt>
<trkpt lat="-37.744141" lon="-73.310354"><ele>640.0</ele></trkpt>
<trkpt lat="-37.744155" lon="-73.310284"><ele>640.0</ele></trkpt>
<trkpt lat="-37.745161" lon="-73.312254"><ele>634.0</ele></trkpt>
<trkpt lat="-37.745261" lon="-73.312830"><ele>607.0</ele></trkpt>
<trkpt lat="-37.745207" lon="-73.313821"><ele>607.0</ele></trkpt>
<trkpt lat="-37.745949" lon="-73.313793"><ele>614.0</ele></trkpt>
<trkpt lat="-37.746094" lon="-73.313922"><ele>614.0</ele></trkpt>
<trkpt lat="-37.746681" lon="-73.315115"><ele>598.0</ele></trkpt>
<trkpt lat="-37.747695" lon="-73.316520"><ele>598.0</ele></trkpt>
<trkpt lat="-37.747648" lon="-73.317459"><ele>605.0</ele></trkpt>
<trkpt lat="-37.747380" lon="-73.317939"><ele>605.0</ele></trkpt>
<trkpt lat="-37.746584" lon="-73.318921"><ele>587.0</ele></trkpt>
<trkpt lat="-37.746389" lon="-73.319355"><ele>587.0</ele></trkpt>
<trkpt lat="-37.746219" lon="-73.321136"><ele>599.0</ele></trkpt>
<trkpt lat="-37.746131" lon="-73.321333"><ele>599.0</ele></trkpt>
<trkpt lat="-37.745075" lon="-73.322255"><ele>579.0</ele></trkpt>
<trkpt lat="-37.744236" lon="-73.322660"><ele>579.0</ele></trkpt>
<trkpt lat="-37.743500" lon="-73.322842"><ele>550.0</ele></trkpt>
<trkpt lat="-37.742971" lon="-73.323223"><ele>565.0</ele></trkpt>
<trkpt lat="-37.742505" lon="-73.323968"><ele>565.0</ele></trkpt>
<trkpt lat="-37.741976" lon="-73.324510"><ele>565.0</ele></trkpt>
<trkpt lat="-37.741756" lon="-73.324923"><ele>565.0</ele></trkpt>
<trkpt lat="-37.741415" lon="-73.325922"><ele>505.0</ele></trkpt>
<trkpt lat="-37.741213" lon="-73.326933"><ele>505.0</ele></trkpt>
<trkpt lat="-37.741106" lon="-73.327113"><ele>498.0</ele></trkpt>
<trkpt lat="-37.740651" lon="-73.327375"><ele>498.0</ele></trkpt>
<trkpt lat="-37.740021" lon="-73.327979"><ele>498.0</ele></trkpt>
<trkpt lat="-37.738900" lon="-73.329445"><ele>497.0</ele></trkpt>
<trkpt lat="-37.738334" lon="-73.330002"><ele>497.0</ele></trkpt>
<trkpt lat="-37.737739" lon="-73.330509"><ele>497.0</ele></trkpt>
<trkpt lat="-37.736938" lon="-73.330904"><ele>471.0</ele></trkpt>
<trkpt lat="-37.735930" lon="-73.331599"><ele>505.0</ele></trkpt>
<trkpt lat="-37.735525" lon="-73.332114"><ele>505.0</ele></trkpt>
<trkpt lat="-37.735124" lon="-73.333078"><ele>443.0</ele></trkpt>
<trkpt lat="-37.734771" lon="-73.333650"><ele>467.0</ele></trkpt>
<trkpt lat="-37.734531" lon="-73.333844"><ele>467.0</ele></trkpt>
<trkpt lat="-37.733978" lon="-73.334040"><ele>467.0</ele></trkpt>
<trkpt lat="-37.733670" lon="-73.334266"><ele>467.0</ele></trkpt>
<trkpt lat="-37.733391" lon="-73.334794"><ele>467.0</ele></trkpt>
<trkpt lat="-37.733320" lon="-73.335327"><ele>432.0</ele></trkpt>
<trkpt lat="-37.733192" lon="-73.335650"><ele>463.0</ele></trkpt>
<trkpt lat="-37.732960" lon="-73.335862"><ele>463.0</ele></trkpt>
<trkpt lat="-37.732306" lon="-73.336227"><ele>463.0</ele></trkpt>
<trkpt lat="-37.731942" lon="-73.337107"><ele>463.0</ele></trkpt>
<trkpt lat="-37.731727" lon="-73.337405"><ele>463.0</ele></trkpt>
<trkpt lat="-37.731631" lon="-73.337464"><ele>463.0</ele></trkpt>
<trkpt lat="-37.731495" lon="-73.337421"><ele>463.0</ele></trkpt>
<trkpt lat="-37.730937" lon="-73.336785"><ele>446.0</ele></trkpt>
<trkpt lat="-37.730734" lon="-73.336704"><ele>446.0</ele></trkpt>
<trkpt lat="-37.730207" lon="-73.336830"><ele>446.0</ele></trkpt>
<trkpt lat="-37.729660" lon="-73.337160"><ele>446.0</ele></trkpt>
<trkpt lat="-37.729506" lon="-73.337461"><ele>446.0</ele></trkpt>
<trkpt lat="-37.729384" lon="-73.338445"><ele>427.0</ele></trkpt>
<trkpt lat="-37.729236" lon="-73.338749"><ele>427.0</ele></trkpt>
<trkpt lat="-37.728923" lon="-73.338958"><ele>470.0</ele></trkpt>
<trkpt lat="-37.728353" lon="-73.339001"><ele>470.0</ele></trkpt>
<trkpt lat="-37.728193" lon="-73.339174"><ele>470.0</ele></trkpt>
<trkpt lat="-37.728191" lon="-73.340323"><ele>441.0</ele></trkpt>
<trkpt lat="-37.728125" lon="-73.340484"><ele>441.0</ele></trkpt>
<trkpt lat="-37.727661" lon="-73.340908"><ele>441.0</ele></trkpt>
<trkpt lat="-37.727509" lon="-73.341160"><ele>441.0</ele></trkpt>
<trkpt lat="-37.727457" lon="-73.341560"><ele>441.0</ele></trkpt>
<trkpt lat="-37.727508" lon="-73.341962"><ele>377.0</ele></trkpt>
<trkpt lat="-37.727377" lon="-73.342275"><ele>377.0</ele></trkpt>
<trkpt lat="-37.727277" lon="-73.342323"><ele>377.0</ele></trkpt>
<trkpt lat="-37.727141" lon="-73.342269"><ele>377.0</ele></trkpt>
<trkpt lat="-37.726651" lon="-73.341813"><ele>392.0</ele></trkpt>
<trkpt lat="-37.726524" lon="-73.341595"><ele>399.0</ele></trkpt>
<trkpt lat="-37.726472" lon="-73.341114"><ele>399.0</ele></trkpt>
<trkpt lat="-37.726285" lon="-73.341212"><ele>399.0</ele></trkpt>
<trkpt lat="-37.726155" lon="-73.341581"><ele>399.0</ele></trkpt>
<trkpt lat="-37.726008" lon="-73.342836"><ele>392.0</ele></trkpt>
<trkpt lat="-37.726014" lon="-73.343970"><ele>373.0</ele></trkpt>
<trkpt lat="-37.726044" lon="-73.344240"><ele>373.0</ele></trkpt>
<trkpt lat="-37.726347" lon="-73.344998"><ele>373.0</ele></trkpt>
<trkpt lat="-37.725832" lon="-73.346290"><ele>333.0</ele></trkpt>
<trkpt lat="-37.725651" lon="-73.346427"><ele>333.0</ele></trkpt>
<trkpt lat="-37.725272" lon="-73.346298"><ele>333.0</ele></trkpt>
<trkpt lat="-37.725076" lon="-73.346399"><ele>333.0</ele></trkpt>
<trkpt lat="-37.724814" lon="-73.346828"><ele>349.0</ele></trkpt>
<trkpt lat="-37.724602" lon="-73.347597"><ele>349.0</ele></trkpt>
<trkpt lat="-37.724470" lon="-73.347811"><ele>349.0</ele></trkpt>
<trkpt lat="-37.724335" lon="-73.347870"><ele>349.0</ele></trkpt>
<trkpt lat="-37.723728" lon="-73.347820"><ele>349.0</ele></trkpt>
<trkpt lat="-37.723535" lon="-73.347713"><ele>349.0</ele></trkpt>
<trkpt lat="-37.723541" lon="-73.347142"><ele>349.0</ele></trkpt>
<trkpt lat="-37.723365" lon="-73.346878"><ele>349.0</ele></trkpt>
<trkpt lat="-37.722942" lon="-73.346784"><ele>349.0</ele></trkpt>
<trkpt lat="-37.722766" lon="-73.346814"><ele>300.0</ele></trkpt>
<trkpt lat="-37.722702" lon="-73.346922"><ele>300.0</ele></trkpt>
<trkpt lat="-37.722721" lon="-73.347180"><ele>300.0</ele></trkpt>
<trkpt lat="-37.723157" lon="-73.347356"><ele>349.0</ele></trkpt>
<trkpt lat="-37.723239" lon="-73.347542"><ele>349.0</ele></trkpt>
<trkpt lat="-37.722647" lon="-73.348660"><ele>287.0</ele></trkpt>
<trkpt lat="-37.722693" lon="-73.349192"><ele>287.0</ele></trkpt>
<trkpt lat="-37.723011" lon="-73.350001"><ele>292.0</ele></trkpt>
<trkpt lat="-37.722972" lon="-73.350214"><ele>292.0</ele></trkpt>
<trkpt lat="-37.722801" lon="-73.350175"><ele>271.0</ele></trkpt>
<trkpt lat="-37.722559" lon="-73.349788"><ele>287.0</ele></trkpt>
<trkpt lat="-37.722103" lon="-73.348120"><ele>287.0</ele></trkpt>
<trkpt lat="-37.721908" lon="-73.347945"><ele>287.0</ele></trkpt>
<trkpt lat="-37.721785" lon="-73.348029"><ele>287.0</ele></trkpt>
<trkpt lat="-37.721744" lon="-73.348291"><ele>287.0</ele></trkpt>
<trkpt lat="-37.721954" lon="-73.349533"><ele>287.0</ele></trkpt>
<trkpt lat="-37.721739" lon="-73.350773"><ele>271.0</ele></trkpt>
<trkpt lat="-37.721614" lon="-73.351099"><ele>271.0</ele></trkpt>
<trkpt lat="-37.721471" lon="-73.351236"><ele>271.0</ele></trkpt>
<trkpt lat="-37.720866" lon="-73.351292"><ele>271.0</ele></trkpt>
<trkpt lat="-37.720479" lon="-73.351610"><ele>208.0</ele></trkpt>
<trkpt lat="-37.720247" lon="-73.352269"><ele>204.0</ele></trkpt>
<trkpt lat="-37.720166" lon="-73.353352"><ele>204.0</ele></trkpt>
<trkpt lat="-37.720023" lon="-73.354007"><ele>204.0</ele></trkpt>
<trkpt lat="-37.720090" lon="-73.354205"><ele>168.0</ele></trkpt>
<trkpt lat="-37.720440" lon="-73.354301"><ele>168.0</ele></trkpt>
<trkpt lat="-37.720602" lon="-73.354476"><ele>168.0</ele></trkpt>
<trkpt lat="-37.721062" lon="-73.355649"><ele>264.0</ele></trkpt>
<trkpt lat="-37.721402" lon="-73.356114"><ele>264.0</ele></trkpt>
<trkpt lat="-37.721476" lon="-73.356502"><ele>256.0</ele></trkpt>
<trkpt lat="-37.721388" lon="-73.356895"><ele>256.0</ele></trkpt>
<trkpt lat="-37.721166" lon="-73.357361"><ele>256.0</ele></trkpt>
<trkpt lat="-37.720788" lon="-73.357778"><ele>183.0</ele></trkpt>
<trkpt lat="-37.720092" lon="-73.358340"><ele>185.0</ele></trkpt>
<trkpt lat="-37.719859" lon="-73.358790"><ele>185.0</ele></trkpt>
<trkpt lat="-37.720034" lon="-73.362451"><ele>172.0</ele></trkpt>
<trkpt lat="-37.719979" lon="-73.364259"><ele>157.0</ele></trkpt>
<trkpt lat="-37.719717" lon="-73.364683"><ele>148.0</ele></trkpt>
<trkpt lat="-37.718863" lon="-73.365022"><ele>148.0</ele></trkpt>
<trkpt lat="-37.718718" lon="-73.365260"><ele>116.0</ele></trkpt>
<trkpt lat="-37.718897" lon="-73.365887"><ele>148.0</ele></trkpt>
<trkpt lat="-37.719963" lon="-73.366804"><ele>117.0</ele></trkpt>
<trkpt lat="-37.720641" lon="-73.367658"><ele>117.0</ele></trkpt>
<trkpt lat="-37.720628" lon="-73.367735"><ele>117.0</ele></trkpt>
<trkpt lat="-37.720092" lon="-73.367700"><ele>117.0</ele></trkpt>
<trkpt lat="-37.719093" lon="-73.367843"><ele>117.0</ele></trkpt>
<trkpt lat="-37.718036" lon="-73.367592"><ele>108.0</ele></trkpt>
<trkpt lat="-37.717105" lon="-73.367562"><ele>108.0</ele></trkpt>
<trkpt lat="-37.715829" lon="-73.369400"><ele>75.0</ele></trkpt>
<trkpt lat="-37.715033" lon="-73.370171"><ele>75.0</ele></trkpt>
<trkpt lat="-37.714711" lon="-73.370876"><ele>58.0</ele></trkpt>
<trkpt lat="-37.714599" lon="-73.371752"><ele>58.0</ele></trkpt>
<trkpt lat="-37.714100" lon="-73.372108"><ele>75.0</ele></trkpt>
<trkpt lat="-37.713442" lon="-73.372805"><ele>75.0</ele></trkpt>
<trkpt lat="-37.713023" lon="-73.372906"><ele>75.0</ele></trkpt>
<trkpt lat="-37.712799" lon="-73.372767"><ele>75.0</ele></trkpt>
<trkpt lat="-37.712086" lon="-73.371939"><ele>73.0</ele></trkpt>
<trkpt lat="-37.711730" lon="-73.371156"><ele>73.0</ele></trkpt>
<trkpt lat="-37.710707" lon="-73.369405"><ele>94.0</ele></trkpt>
<trkpt lat="-37.709762" lon="-73.368505"><ele>105.0</ele></trkpt>
<trkpt lat="-37.709171" lon="-73.368079"><ele>105.0</ele></trkpt>
<trkpt lat="-37.706714" lon="-73.367699"><ele>112.0</ele></trkpt>
<trkpt lat="-37.705781" lon="-73.367740"><ele>106.0</ele></trkpt>
<trkpt lat="-37.704283" lon="-73.367949"><ele>106.0</ele></trkpt>
<trkpt lat="-37.703235" lon="-73.367632"><ele>113.0</ele></trkpt>
<trkpt lat="-37.702272" lon="-73.367496"><ele>113.0</ele></trkpt>
<trkpt lat="-37.699203" lon="-73.366751"><ele>116.0</ele></trkpt>
<trkpt lat="-37.698594" lon="-73.366679"><ele>116.0</ele></trkpt>
<trkpt lat="-37.697213" lon="-73.366198"><ele>99.0</ele></trkpt>
<trkpt lat="-37.697024" lon="-73.365992"><ele>99.0</ele></trkpt>
<trkpt lat="-37.696857" lon="-73.365590"><ele>99.0</ele></trkpt>
<trkpt lat="-37.696705" lon="-73.365477"><ele>99.0</ele></trkpt>
<trkpt lat="-37.695880" lon="-73.365458"><ele>99.0</ele></trkpt>
<trkpt lat="-37.694993" lon="-73.365289"><ele>83.0</ele></trkpt>
<trkpt lat="-37.694795" lon="-73.365096"><ele>83.0</ele></trkpt>
<trkpt lat="-37.694615" lon="-73.364601"><ele>83.0</ele></trkpt>
<trkpt lat="-37.694535" lon="-73.363888"><ele>112.0</ele></trkpt>
<trkpt lat="-37.694823" lon="-73.362720"><ele>112.0</ele></trkpt>
<trkpt lat="-37.695287" lon="-73.361707"><ele>71.0</ele></trkpt>
<trkpt lat="-37.695139" lon="-73.360549"><ele>71.0</ele></trkpt>
<trkpt lat="-37.695297" lon="-73.359394"><ele>71.0</ele></trkpt>
<trkpt lat="-37.695109" lon="-73.359128"><ele>71.0</ele></trkpt>
<trkpt lat="-37.693690" lon="-73.358058"><ele>75.0</ele></trkpt>
<trkpt lat="-37.693399" lon="-73.357878"><ele>75.0</ele></trkpt>
<trkpt lat="-37.692589" lon="-73.357676"><ele>75.0</ele></trkpt>
</trkseg></trk>
<trk><name>Cumbres de Nahuelbuta</name><trkseg>
<trkpt lat="-37.690114" lon="-73.338055"><ele>80.0</ele></trkpt>
<trkpt lat="-37.689971" lon="-73.336115"><ele>83.0</ele></trkpt>
<trkpt lat="-37.689570" lon="-73.333765"><ele>120.0</ele></trkpt>
<trkpt lat="-37.688837" lon="-73.332593"><ele>104.0</ele></trkpt>
<trkpt lat="-37.688712" lon="-73.331979"><ele>104.0</ele></trkpt>
<trkpt lat="-37.688921" lon="-73.331120"><ele>135.0</ele></trkpt>
<trkpt lat="-37.689393" lon="-73.330707"><ele>135.0</ele></trkpt>
<trkpt lat="-37.690049" lon="-73.330337"><ele>89.0</ele></trkpt>
<trkpt lat="-37.690384" lon="-73.329994"><ele>89.0</ele></trkpt>
<trkpt lat="-37.690602" lon="-73.329633"><ele>89.0</ele></trkpt>
<trkpt lat="-37.690591" lon="-73.329181"><ele>89.0</ele></trkpt>
<trkpt lat="-37.690312" lon="-73.328778"><ele>99.0</ele></trkpt>
<trkpt lat="-37.689758" lon="-73.328454"><ele>99.0</ele></trkpt>
<trkpt lat="-37.689454" lon="-73.328141"><ele>130.0</ele></trkpt>
<trkpt lat="-37.688776" lon="-73.326697"><ele>107.0</ele></trkpt>
<trkpt lat="-37.688577" lon="-73.325408"><ele>107.0</ele></trkpt>
<trkpt lat="-37.688640" lon="-73.325198"><ele>107.0</ele></trkpt>
<trkpt lat="-37.688767" lon="-73.325111"><ele>107.0</ele></trkpt>
<trkpt lat="-37.689355" lon="-73.324906"><ele>142.0</ele></trkpt>
<trkpt lat="-37.689696" lon="-73.324657"><ele>108.0</ele></trkpt>
<trkpt lat="-37.690093" lon="-73.323965"><ele>108.0</ele></trkpt>
<trkpt lat="-37.690095" lon="-73.323785"><ele>108.0</ele></trkpt>
<trkpt lat="-37.689917" lon="-73.323391"><ele>108.0</ele></trkpt>
<trkpt lat="-37.689495" lon="-73.322782"><ele>138.0</ele></trkpt>
<trkpt lat="-37.689424" lon="-73.322339"><ele>138.0</ele></trkpt>
<trkpt lat="-37.690118" lon="-73.319340"><ele>89.0</ele></trkpt>
<trkpt lat="-37.690052" lon="-73.318898"><ele>89.0</ele></trkpt>
<trkpt lat="-37.689903" lon="-73.318538"><ele>87.0</ele></trkpt>
<trkpt lat="-37.689894" lon="-73.318220"><ele>87.0</ele></trkpt>
<trkpt lat="-37.690196" lon="-73.316915"><ele>87.0</ele></trkpt>
<trkpt lat="-37.690176" lon="-73.316283"><ele>89.0</ele></trkpt>
<trkpt lat="-37.690089" lon="-73.316090"><ele>89.0</ele></trkpt>
<trkpt lat="-37.689698" lon="-73.316024"><ele>89.0</ele></trkpt>
<trkpt lat="-37.689474" lon="-73.316356"><ele>101.0</ele></trkpt>
<trkpt lat="-37.688972" lon="-73.316370"><ele>101.0</ele></trkpt>
<trkpt lat="-37.688522" lon="-73.315555"><ele>101.0</ele></trkpt>
<trkpt lat="-37.688254" lon="-73.314288"><ele>94.0</ele></trkpt>
<trkpt lat="-37.687765" lon="-73.313180"><ele>94.0</ele></trkpt>
<trkpt lat="-37.687764" lon="-73.311869"><ele>91.0</ele></trkpt>
<trkpt lat="-37.687372" lon="-73.309007"><ele>159.0</ele></trkpt>
<trkpt lat="-37.687107" lon="-73.308364"><ele>159.0</ele></trkpt>
<trkpt lat="-37.685624" lon="-73.306324"><ele>102.0</ele></trkpt>
<trkpt lat="-37.685191" lon="-73.305780"><ele>103.0</ele></trkpt>
<trkpt lat="-37.684756" lon="-73.305463"><ele>103.0</ele></trkpt>
<trkpt lat="-37.682777" lon="-73.304504"><ele>150.0</ele></trkpt>
<trkpt lat="-37.682456" lon="-73.304449"><ele>150.0</ele></trkpt>
<trkpt lat="-37.682216" lon="-73.304539"><ele>150.0</ele></trkpt>
<trkpt lat="-37.681767" lon="-73.305181"><ele>150.0</ele></trkpt>
<trkpt lat="-37.681611" lon="-73.305280"><ele>150.0</ele></trkpt>
<trkpt lat="-37.681196" lon="-73.305016"><ele>161.0</ele></trkpt>
<trkpt lat="-37.681038" lon="-73.304714"><ele>161.0</ele></trkpt>
<trkpt lat="-37.680990" lon="-73.304356"><ele>161.0</ele></trkpt>
<trkpt lat="-37.681111" lon="-73.301956"><ele>149.0</ele></trkpt>
<trkpt lat="-37.681048" lon="-73.300555"><ele>149.0</ele></trkpt>
<trkpt lat="-37.681189" lon="-73.299162"><ele>167.0</ele></trkpt>
<trkpt lat="-37.681136" lon="-73.297710"><ele>153.0</ele></trkpt>
<trkpt lat="-37.680965" lon="-73.296787"><ele>153.0</ele></trkpt>
<trkpt lat="-37.681445" lon="-73.294807"><ele>167.0</ele></trkpt>
<trkpt lat="-37.681369" lon="-73.294605"><ele>167.0</ele></trkpt>
<trkpt lat="-37.680934" lon="-73.294139"><ele>161.0</ele></trkpt>
<trkpt lat="-37.680826" lon="-73.293755"><ele>161.0</ele></trkpt>
<trkpt lat="-37.680819" lon="-73.293211"><ele>150.0</ele></trkpt>
<trkpt lat="-37.681114" lon="-73.291857"><ele>150.0</ele></trkpt>
<trkpt lat="-37.681062" lon="-73.290363"><ele>166.0</ele></trkpt>
<trkpt lat="-37.681136" lon="-73.289551"><ele>207.0</ele></trkpt>
<trkpt lat="-37.681547" lon="-73.288933"><ele>123.0</ele></trkpt>
<trkpt lat="-37.681693" lon="-73.288571"><ele>123.0</ele></trkpt>
<trkpt lat="-37.681797" lon="-73.285908"><ele>123.0</ele></trkpt>
<trkpt lat="-37.682040" lon="-73.285153"><ele>131.0</ele></trkpt>
<trkpt lat="-37.682146" lon="-73.284396"><ele>131.0</ele></trkpt>
<trkpt lat="-37.682980" lon="-73.282439"><ele>147.0</ele></trkpt>
<trkpt lat="-37.683135" lon="-73.281793"><ele>147.0</ele></trkpt>
<trkpt lat="-37.682997" lon="-73.281047"><ele>136.0</ele></trkpt>
<trkpt lat="-37.681387" lon="-73.275803"><ele>140.0</ele></trkpt>
<trkpt lat="-37.680408" lon="-73.272977"><ele>146.0</ele></trkpt>
<trkpt lat="-37.680326" lon="-73.272396"><ele>150.0</ele></trkpt>
<trkpt lat="-37.680358" lon="-73.270399"><ele>156.0</ele></trkpt>
<trkpt lat="-37.680247" lon="-73.267274"><ele>160.0</ele></trkpt>
<trkpt lat="-37.680301" lon="-73.267011"><ele>160.0</ele></trkpt>
<trkpt lat="-37.680809" lon="-73.266310"><ele>166.0</ele></trkpt>
<trkpt lat="-37.680864" lon="-73.266051"><ele>166.0</ele></trkpt>
<trkpt lat="-37.680835" lon="-73.265737"><ele>166.0</ele></trkpt>
<trkpt lat="-37.680518" lon="-73.265078"><ele>166.0</ele></trkpt>
<trkpt lat="-37.680444" lon="-73.264637"><ele>166.0</ele></trkpt>
<trkpt lat="-37.680864" lon="-73.262628"><ele>177.0</ele></trkpt>
<trkpt lat="-37.681632" lon="-73.260996"><ele>201.0</ele></trkpt>
<trkpt lat="-37.681676" lon="-73.260638"><ele>201.0</ele></trkpt>
<trkpt lat="-37.681596" lon="-73.260106"><ele>225.0</ele></trkpt>
<trkpt lat="-37.681662" lon="-73.259572"><ele>225.0</ele></trkpt>
<trkpt lat="-37.682838" lon="-73.257520"><ele>224.0</ele></trkpt>
<trkpt lat="-37.682947" lon="-73.256263"><ele>224.0</ele></trkpt>
<trkpt lat="-37.682838" lon="-73.255935"><ele>256.0</ele></trkpt>
<trkpt lat="-37.681946" lon="-73.254632"><ele>256.0</ele></trkpt>
<trkpt lat="-37.681133" lon="-73.253969"><ele>263.0</ele></trkpt>
<trkpt lat="-37.680808" lon="-73.253552"><ele>263.0</ele></trkpt>
<trkpt lat="-37.680642" lon="-73.252218"><ele>263.0</ele></trkpt>
<trkpt lat="-37.680538" lon="-73.251980"><ele>307.0</ele></trkpt>
<trkpt lat="-37.679692" lon="-73.250871"><ele>307.0</ele></trkpt>
<trkpt lat="-37.679322" lon="-73.250095"><ele>307.0</ele></trkpt>
<trkpt lat="-37.679279" lon="-73.249421"><ele>359.0</ele></trkpt>
<trkpt lat="-37.679433" lon="-73.248400"><ele>359.0</ele></trkpt>
<trkpt lat="-37.679960" lon="-73.246525"><ele>348.0</ele></trkpt>
<trkpt lat="-37.680748" lon="-73.243085"><ele>333.0</ele></trkpt>
<trkpt lat="-37.681976" lon="-73.239904"><ele>351.0</ele></trkpt>
<trkpt lat="-37.682259" lon="-73.239494"><ele>341.0</ele></trkpt>
<trkpt lat="-37.682724" lon="-73.239164"><ele>341.0</ele></trkpt>
<trkpt lat="-37.682932" lon="-73.238746"><ele>341.0</ele></trkpt>
<trkpt lat="-37.683713" lon="-73.235354"><ele>432.0</ele></trkpt>
<trkpt lat="-37.683733" lon="-73.234903"><ele>432.0</ele></trkpt>
<trkpt lat="-37.683599" lon="-73.234200"><ele>432.0</ele></trkpt>
<trkpt lat="-37.683700" lon="-73.233442"><ele>432.0</ele></trkpt>
<trkpt lat="-37.684096" lon="-73.232746"><ele>414.0</ele></trkpt>
<trkpt lat="-37.684756" lon="-73.232402"><ele>414.0</ele></trkpt>
<trkpt lat="-37.685555" lon="-73.231714"><ele>460.0</ele></trkpt>
<trkpt lat="-37.685863" lon="-73.231402"><ele>460.0</ele></trkpt>
<trkpt lat="-37.686057" lon="-73.231040"><ele>455.0</ele></trkpt>
<trkpt lat="-37.686028" lon="-73.230701"><ele>455.0</ele></trkpt>
<trkpt lat="-37.684653" lon="-73.229318"><ele>428.0</ele></trkpt>
<trkpt lat="-37.684231" lon="-73.229075"><ele>470.0</ele></trkpt>
<trkpt lat="-37.683928" lon="-73.228574"><ele>470.0</ele></trkpt>
<trkpt lat="-37.683329" lon="-73.228000"><ele>447.0</ele></trkpt>
<trkpt lat="-37.682585" lon="-73.225305"><ele>475.0</ele></trkpt>
<trkpt lat="-37.682405" lon="-73.225090"><ele>475.0</ele></trkpt>
<trkpt lat="-37.681882" lon="-73.224949"><ele>520.0</ele></trkpt>
<trkpt lat="-37.681717" lon="-73.224784"><ele>520.0</ele></trkpt>
<trkpt lat="-37.681546" lon="-73.223998"><ele>520.0</ele></trkpt>
<trkpt lat="-37.681125" lon="-73.220827"><ele>508.0</ele></trkpt>
<trkpt lat="-37.681279" lon="-73.218809"><ele>577.0</ele></trkpt>
<trkpt lat="-37.681263" lon="-73.218041"><ele>614.0</ele></trkpt>
<trkpt lat="-37.681431" lon="-73.217492"><ele>614.0</ele></trkpt>
<trkpt lat="-37.681608" lon="-73.217345"><ele>614.0</ele></trkpt>
<trkpt lat="-37.682034" lon="-73.217328"><ele>614.0</ele></trkpt>
<trkpt lat="-37.682391" lon="-73.217026"><ele>614.0</ele></trkpt>
<trkpt lat="-37.682646" lon="-73.216429"><ele>561.0</ele></trkpt>
<trkpt lat="-37.683482" lon="-73.215247"><ele>645.0</ele></trkpt>
<trkpt lat="-37.683663" lon="-73.214607"><ele>645.0</ele></trkpt>
<trkpt lat="-37.684276" lon="-73.213381"><ele>622.0</ele></trkpt>
<trkpt lat="-37.685620" lon="-73.211757"><ele>655.0</ele></trkpt>
<trkpt lat="-37.685726" lon="-73.211000"><ele>655.0</ele></trkpt>
<trkpt lat="-37.685929" lon="-73.210634"><ele>655.0</ele></trkpt>
<trkpt lat="-37.686050" lon="-73.210535"><ele>655.0</ele></trkpt>
<trkpt lat="-37.686788" lon="-73.210343"><ele>591.0</ele></trkpt>
<trkpt lat="-37.687632" lon="-73.209808"><ele>684.0</ele></trkpt>
<trkpt lat="-37.687706" lon="-73.210109"><ele>684.0</ele></trkpt>
<trkpt lat="-37.687632" lon="-73.209909"><ele>684.0</ele></trkpt>
<trkpt lat="-37.687496" lon="-73.210326"><ele>591.0</ele></trkpt>
<trkpt lat="-37.687211" lon="-73.210729"><ele>655.0</ele></trkpt>
<trkpt lat="-37.686240" lon="-73.211177"><ele>655.0</ele></trkpt>
<trkpt lat="-37.686149" lon="-73.211414"><ele>655.0</ele></trkpt>
<trkpt lat="-37.686231" lon="-73.211751"><ele>655.0</ele></trkpt>
<trkpt lat="-37.686671" lon="-73.212201"><ele>655.0</ele></trkpt>
<trkpt lat="-37.686630" lon="-73.212867"><ele>671.0</ele></trkpt>
<trkpt lat="-37.686728" lon="-73.213108"><ele>671.0</ele></trkpt>
<trkpt lat="-37.687020" lon="-73.213339"><ele>671.0</ele></trkpt>
<trkpt lat="-37.686871" lon="-73.214247"><ele>671.0</ele></trkpt>
<trkpt lat="-37.686626" lon="-73.214739"><ele>696.0</ele></trkpt>
<trkpt lat="-37.686745" lon="-73.215446"><ele>696.0</ele></trkpt>
<trkpt lat="-37.686875" lon="-73.215704"><ele>696.0</ele></trkpt>
<trkpt lat="-37.687138" lon="-73.215613"><ele>696.0</ele></trkpt>
<trkpt lat="-37.687826" lon="-73.214978"><ele>743.0</ele></trkpt>
<trkpt lat="-37.688029" lon="-73.215142"><ele>743.0</ele></trkpt>
<trkpt lat="-37.688329" lon="-73.215706"><ele>743.0</ele></trkpt>
<trkpt lat="-37.688425" lon="-73.215694"><ele>743.0</ele></trkpt>
<trkpt lat="-37.688695" lon="-73.214437"><ele>754.0</ele></trkpt>
<trkpt lat="-37.688668" lon="-73.213359"><ele>754.0</ele></trkpt>
<trkpt lat="-37.688936" lon="-73.213066"><ele>754.0</ele></trkpt>
<trkpt lat="-37.689074" lon="-73.213038"><ele>754.0</ele></trkpt>
<trkpt lat="-37.689968" lon="-73.213598"><ele>811.0</ele></trkpt>
<trkpt lat="-37.690110" lon="-73.213800"><ele>811.0</ele></trkpt>
<trkpt lat="-37.689984" lon="-73.214441"><ele>811.0</ele></trkpt>
<trkpt lat="-37.690065" lon="-73.214881"><ele>787.0</ele></trkpt>
<trkpt lat="-37.690020" lon="-73.215284"><ele>787.0</ele></trkpt>
<trkpt lat="-37.690087" lon="-73.215440"><ele>787.0</ele></trkpt>
<trkpt lat="-37.690220" lon="-73.215425"><ele>787.0</ele></trkpt>
<trkpt lat="-37.690903" lon="-73.214849"><ele>787.0</ele></trkpt>
<trkpt lat="-37.691477" lon="-73.214857"><ele>787.0</ele></trkpt>
<trkpt lat="-37.692032" lon="-73.215137"><ele>793.0</ele></trkpt>
<trkpt lat="-37.692383" lon="-73.215051"><ele>793.0</ele></trkpt>
<trkpt lat="-37.692734" lon="-73.214848"><ele>793.0</ele></trkpt>
<trkpt lat="-37.693099" lon="-73.215383"><ele>793.0</ele></trkpt>
<trkpt lat="-37.693564" lon="-73.215715"><ele>793.0</ele></trkpt>
<trkpt lat="-37.693645" lon="-73.216059"><ele>793.0</ele></trkpt>
<trkpt lat="-37.693652" lon="-73.216829"><ele>751.0</ele></trkpt>
<trkpt lat="-37.693789" lon="-73.217019"><ele>761.0</ele></trkpt>
<trkpt lat="-37.693968" lon="-73.216902"><ele>761.0</ele></trkpt>
<trkpt lat="-37.694794" lon="-73.215385"><ele>772.0</ele></trkpt>
<trkpt lat="-37.695037" lon="-73.215118"><ele>772.0</ele></trkpt>
<trkpt lat="-37.695284" lon="-73.215094"><ele>772.0</ele></trkpt>
<trkpt lat="-37.695449" lon="-73.215178"><ele>772.0</ele></trkpt>
<trkpt lat="-37.695702" lon="-73.215668"><ele>772.0</ele></trkpt>
<trkpt lat="-37.695884" lon="-73.215807"><ele>767.0</ele></trkpt>
<trkpt lat="-37.696094" lon="-73.215575"><ele>767.0</ele></trkpt>
<trkpt lat="-37.696221" lon="-73.215151"><ele>767.0</ele></trkpt>
<trkpt lat="-37.696428" lon="-73.215143"><ele>767.0</ele></trkpt>
<trkpt lat="-37.697361" lon="-73.215909"><ele>767.0</ele></trkpt>
<trkpt lat="-37.697532" lon="-73.215977"><ele>767.0</ele></trkpt>
<trkpt lat="-37.697886" lon="-73.215947"><ele>767.0</ele></trkpt>
<trkpt lat="-37.698507" lon="-73.216885"><ele>777.0</ele></trkpt>
<trkpt lat="-37.698611" lon="-73.217303"><ele>777.0</ele></trkpt>
<trkpt lat="-37.698364" lon="-73.217793"><ele>777.0</ele></trkpt>
<trkpt lat="-37.698415" lon="-73.218146"><ele>777.0</ele></trkpt>
<trkpt lat="-37.698546" lon="-73.218356"><ele>777.0</ele></trkpt>
<trkpt lat="-37.698708" lon="-73.218413"><ele>777.0</ele></trkpt>
<trkpt lat="-37.698967" lon="-73.218168"><ele>777.0</ele></trkpt>
<trkpt lat="-37.699235" lon="-73.218040"><ele>777.0</ele></trkpt>
<trkpt lat="-37.699662" lon="-73.218077"><ele>777.0</ele></trkpt>
<trkpt lat="-37.699792" lon="-73.218154"><ele>777.0</ele></trkpt>
<trkpt lat="-37.700556" lon="-73.219222"><ele>790.0</ele></trkpt>
<trkpt lat="-37.701102" lon="-73.219442"><ele>790.0</ele></trkpt>
<trkpt lat="-37.701538" lon="-73.219970"><ele>790.0</ele></trkpt>
<trkpt lat="-37.702195" lon="-73.220197"><ele>824.0</ele></trkpt>
<trkpt lat="-37.702535" lon="-73.220451"><ele>824.0</ele></trkpt>
<trkpt lat="-37.703709" lon="-73.220844"><ele>789.0</ele></trkpt>
<trkpt lat="-37.704094" lon="-73.220753"><ele>824.0</ele></trkpt>
<trkpt lat="-37.704491" lon="-73.220449"><ele>844.0</ele></trkpt>
<trkpt lat="-37.704776" lon="-73.220471"><ele>844.0</ele></trkpt>
<trkpt lat="-37.705310" lon="-73.220988"><ele>823.0</ele></trkpt>
<trkpt lat="-37.706260" lon="-73.221512"><ele>842.0</ele></trkpt>
<trkpt lat="-37.707263" lon="-73.220440"><ele>861.0</ele></trkpt>
<trkpt lat="-37.707584" lon="-73.220444"><ele>861.0</ele></trkpt>
<trkpt lat="-37.707964" lon="-73.220315"><ele>861.0</ele></trkpt>
<trkpt lat="-37.708220" lon="-73.220455"><ele>861.0</ele></trkpt>
<trkpt lat="-37.708786" lon="-73.221275"><ele>864.0</ele></trkpt>
<trkpt lat="-37.709316" lon="-73.221817"><ele>864.0</ele></trkpt>
<trkpt lat="-37.709440" lon="-73.222092"><ele>864.0</ele></trkpt>
<trkpt lat="-37.709491" lon="-73.222672"><ele>864.0</ele></trkpt>
<trkpt lat="-37.709269" lon="-73.223058"><ele>855.0</ele></trkpt>
<trkpt lat="-37.709255" lon="-73.223550"><ele>855.0</ele></trkpt>
<trkpt lat="-37.709892" lon="-73.224197"><ele>855.0</ele></trkpt>
<trkpt lat="-37.709806" lon="-73.224815"><ele>855.0</ele></trkpt>
<trkpt lat="-37.709926" lon="-73.225241"><ele>844.0</ele></trkpt>
<trkpt lat="-37.710085" lon="-73.225543"><ele>844.0</ele></trkpt>
<trkpt lat="-37.710515" lon="-73.225870"><ele>823.0</ele></trkpt>
<trkpt lat="-37.710699" lon="-73.226200"><ele>823.0</ele></trkpt>
<trkpt lat="-37.710624" lon="-73.226490"><ele>823.0</ele></trkpt>
<trkpt lat="-37.710356" lon="-73.226715"><ele>844.0</ele></trkpt>
<trkpt lat="-37.710362" lon="-73.227015"><ele>844.0</ele></trkpt>
<trkpt lat="-37.710565" lon="-73.227186"><ele>809.0</ele></trkpt>
<trkpt lat="-37.710958" lon="-73.226974"><ele>823.0</ele></trkpt>
<trkpt lat="-37.711164" lon="-73.226994"><ele>823.0</ele></trkpt>
<trkpt lat="-37.711172" lon="-73.227081"><ele>823.0</ele></trkpt>
<trkpt lat="-37.710945" lon="-73.227362"><ele>809.0</ele></trkpt>
<trkpt lat="-37.710957" lon="-73.227538"><ele>809.0</ele></trkpt>
<trkpt lat="-37.711243" lon="-73.227799"><ele>809.0</ele></trkpt>
<trkpt lat="-37.712134" lon="-73.228272"><ele>809.0</ele></trkpt>
<trkpt lat="-37.712203" lon="-73.228663"><ele>809.0</ele></trkpt>
<trkpt lat="-37.712144" lon="-73.229151"><ele>809.0</ele></trkpt>
<trkpt lat="-37.712583" lon="-73.229724"><ele>752.0</ele></trkpt>
<trkpt lat="-37.712580" lon="-73.230128"><ele>752.0</ele></trkpt>
<trkpt lat="-37.712343" lon="-73.230838"><ele>810.0</ele></trkpt>
<trkpt lat="-37.712275" lon="-73.231329"><ele>792.0</ele></trkpt>
<trkpt lat="-37.712344" lon="-73.231578"><ele>792.0</ele></trkpt>
<trkpt lat="-37.712623" lon="-73.231916"><ele>731.0</ele></trkpt>
<trkpt lat="-37.712613" lon="-73.232231"><ele>731.0</ele></trkpt>
<trkpt lat="-37.712412" lon="-73.232954"><ele>792.0</ele></trkpt>
<trkpt lat="-37.712504" lon="-73.233431"><ele>716.0</ele></trkpt>
<trkpt lat="-37.712477" lon="-73.234065"><ele>771.0</ele></trkpt>
<trkpt lat="-37.712405" lon="-73.234368"><ele>771.0</ele></trkpt>
<trkpt lat="-37.712141" lon="-73.234795"><ele>771.0</ele></trkpt>
<trkpt lat="-37.712143" lon="-73.235013"><ele>771.0</ele></trkpt>
<trkpt lat="-37.712239" lon="-73.235045"><ele>771.0</ele></trkpt>
<trkpt lat="-37.712515" lon="-73.234834"><ele>716.0</ele></trkpt>
<trkpt lat="-37.712761" lon="-73.234809"><ele>716.0</ele></trkpt>
<trkpt lat="-37.712923" lon="-73.234900"><ele>716.0</ele></trkpt>
<trkpt lat="-37.713312" lon="-73.235370"><ele>716.0</ele></trkpt>
<trkpt lat="-37.713521" lon="-73.235427"><ele>695.0</ele></trkpt>
<trkpt lat="-37.713694" lon="-73.235377"><ele>716.0</ele></trkpt>
<trkpt lat="-37.713838" lon="-73.235182"><ele>716.0</ele></trkpt>
<trkpt lat="-37.713841" lon="-73.234824"><ele>716.0</ele></trkpt>
<trkpt lat="-37.713737" lon="-73.234588"><ele>716.0</ele></trkpt>
<trkpt lat="-37.713418" lon="-73.234300"><ele>716.0</ele></trkpt>
<trkpt lat="-37.713399" lon="-73.234166"><ele>716.0</ele></trkpt>
<trkpt lat="-37.713491" lon="-73.234104"><ele>716.0</ele></trkpt>
<trkpt lat="-37.714140" lon="-73.234812"><ele>716.0</ele></trkpt>
<trkpt lat="-37.714606" lon="-73.235049"><ele>662.0</ele></trkpt>
<trkpt lat="-37.714789" lon="-73.235260"><ele>662.0</ele></trkpt>
<trkpt lat="-37.715020" lon="-73.235974"><ele>662.0</ele></trkpt>
<trkpt lat="-37.714946" lon="-73.236358"><ele>662.0</ele></trkpt>
<trkpt lat="-37.714643" lon="-73.236486"><ele>662.0</ele></trkpt>
<trkpt lat="-37.714184" lon="-73.236395"><ele>695.0</ele></trkpt>
<trkpt lat="-37.714019" lon="-73.236531"><ele>695.0</ele></trkpt>
<trkpt lat="-37.714237" lon="-73.236689"><ele>695.0</ele></trkpt>
<trkpt lat="-37.714659" lon="-73.236798"><ele>662.0</ele></trkpt>
<trkpt lat="-37.715122" lon="-73.236729"><ele>662.0</ele></trkpt>
<trkpt lat="-37.715827" lon="-73.236417"><ele>662.0</ele></trkpt>
<trkpt lat="-37.715892" lon="-73.235396"><ele>662.0</ele></trkpt>
<trkpt lat="-37.716005" lon="-73.235117"><ele>662.0</ele></trkpt>
<trkpt lat="-37.716129" lon="-73.235074"><ele>662.0</ele></trkpt>
<trkpt lat="-37.716678" lon="-73.236487"><ele>591.0</ele></trkpt>
<trkpt lat="-37.716705" lon="-73.237252"><ele>591.0</ele></trkpt>
<trkpt lat="-37.716623" lon="-73.237453"><ele>662.0</ele></trkpt>
<trkpt lat="-37.716313" lon="-73.237679"><ele>627.0</ele></trkpt>
<trkpt lat="-37.715639" lon="-73.237744"><ele>627.0</ele></trkpt>
<trkpt lat="-37.715490" lon="-73.238023"><ele>627.0</ele></trkpt>
<trkpt lat="-37.715722" lon="-73.238369"><ele>627.0</ele></trkpt>
<trkpt lat="-37.716123" lon="-73.238561"><ele>627.0</ele></trkpt>
<trkpt lat="-37.716379" lon="-73.238993"><ele>627.0</ele></trkpt>
<trkpt lat="-37.716609" lon="-73.239209"><ele>627.0</ele></trkpt>
<trkpt lat="-37.717227" lon="-73.239543"><ele>576.0</ele></trkpt>
<trkpt lat="-37.717380" lon="-73.239947"><ele>595.0</ele></trkpt>
<trkpt lat="-37.717957" lon="-73.240315"><ele>595.0</ele></trkpt>
<trkpt lat="-37.718161" lon="-73.240274"><ele>595.0</ele></trkpt>
<trkpt lat="-37.718896" lon="-73.239634"><ele>581.0</ele></trkpt>
<trkpt lat="-37.719862" lon="-73.239615"><ele>581.0</ele></trkpt>
<trkpt lat="-37.720552" lon="-73.239376"><ele>584.0</ele></trkpt>
<trkpt lat="-37.721076" lon="-73.239480"><ele>612.0</ele></trkpt>
<trkpt lat="-37.721275" lon="-73.239377"><ele>612.0</ele></trkpt>
<trkpt lat="-37.722063" lon="-73.238597"><ele>612.0</ele></trkpt>
<trkpt lat="-37.722234" lon="-73.238536"><ele>612.0</ele></trkpt>
<trkpt lat="-37.723232" lon="-73.238472"><ele>605.0</ele></trkpt>
<trkpt lat="-37.723566" lon="-73.238739"><ele>605.0</ele></trkpt>
<trkpt lat="-37.724071" lon="-73.239380"><ele>605.0</ele></trkpt>
<trkpt lat="-37.724484" lon="-73.241352"><ele>612.0</ele></trkpt>
<trkpt lat="-37.724414" lon="-73.241730"><ele>558.0</ele></trkpt>
<trkpt lat="-37.724101" lon="-73.241770"><ele>558.0</ele></trkpt>
<trkpt lat="-37.723807" lon="-73.241513"><ele>612.0</ele></trkpt>
<trkpt lat="-37.723633" lon="-73.241481"><ele>612.0</ele></trkpt>
<trkpt lat="-37.722980" lon="-73.242011"><ele>558.0</ele></trkpt>
<trkpt lat="-37.722604" lon="-73.241769"><ele>555.0</ele></trkpt>
<trkpt lat="-37.721929" lon="-73.241749"><ele>555.0</ele></trkpt>
<trkpt lat="-37.721705" lon="-73.241974"><ele>555.0</ele></trkpt>
<trkpt lat="-37.721029" lon="-73.243511"><ele>555.0</ele></trkpt>
<trkpt lat="-37.720848" lon="-73.243412"><ele>555.0</ele></trkpt>
<trkpt lat="-37.720696" lon="-73.242858"><ele>543.0</ele></trkpt>
<trkpt lat="-37.720538" lon="-73.242765"><ele>543.0</ele></trkpt>
<trkpt lat="-37.720262" lon="-73.242969"><ele>543.0</ele></trkpt>
<trkpt lat="-37.720014" lon="-73.243357"><ele>543.0</ele></trkpt>
<trkpt lat="-37.719909" lon="-73.243380"><ele>543.0</ele></trkpt>
<trkpt lat="-37.719632" lon="-73.243175"><ele>543.0</ele></trkpt>
<trkpt lat="-37.719386" lon="-73.243140"><ele>543.0</ele></trkpt>
<trkpt lat="-37.718715" lon="-73.243642"><ele>563.0</ele></trkpt>
<trkpt lat="-37.718680" lon="-73.244405"><ele>540.0</ele></trkpt>
<trkpt lat="-37.718258" lon="-73.245021"><ele>540.0</ele></trkpt>
<trkpt lat="-37.718108" lon="-73.245622"><ele>540.0</ele></trkpt>
<trkpt lat="-37.718363" lon="-73.248093"><ele>532.0</ele></trkpt>
<trkpt lat="-37.718435" lon="-73.248396"><ele>532.0</ele></trkpt>
<trkpt lat="-37.718814" lon="-73.249055"><ele>473.0</ele></trkpt>
<trkpt lat="-37.719427" lon="-73.249815"><ele>473.0</ele></trkpt>
<trkpt lat="-37.719591" lon="-73.250311"><ele>477.0</ele></trkpt>
<trkpt lat="-37.719542" lon="-73.250806"><ele>477.0</ele></trkpt>
<trkpt lat="-37.719310" lon="-73.251567"><ele>477.0</ele></trkpt>
<trkpt lat="-37.718633" lon="-73.253160"><ele>502.0</ele></trkpt>
<trkpt lat="-37.718739" lon="-73.253314"><ele>502.0</ele></trkpt>
<trkpt lat="-37.718927" lon="-73.253196"><ele>444.0</ele></trkpt>
<trkpt lat="-37.719184" lon="-73.252762"><ele>444.0</ele></trkpt>
<trkpt lat="-37.719979" lon="-73.251914"><ele>477.0</ele></trkpt>
<trkpt lat="-37.720241" lon="-73.251426"><ele>477.0</ele></trkpt>
<trkpt lat="-37.720749" lon="-73.249782"><ele>473.0</ele></trkpt>
<trkpt lat="-37.721009" lon="-73.248655"><ele>407.0</ele></trkpt>
<trkpt lat="-37.720970" lon="-73.247916"><ele>473.0</ele></trkpt>
<trkpt lat="-37.721377" lon="-73.248415"><ele>407.0</ele></trkpt>
<trkpt lat="-37.721685" lon="-73.249028"><ele>407.0</ele></trkpt>
<trkpt lat="-37.721709" lon="-73.249432"><ele>407.0</ele></trkpt>
<trkpt lat="-37.721420" lon="-73.250306"><ele>383.0</ele></trkpt>
<trkpt lat="-37.721395" lon="-73.251076"><ele>383.0</ele></trkpt>
<trkpt lat="-37.721580" lon="-73.251905"><ele>383.0</ele></trkpt>
<trkpt lat="-37.721912" lon="-73.252597"><ele>384.0</ele></trkpt>
<trkpt lat="-37.721845" lon="-73.253084"><ele>384.0</ele></trkpt>
<trkpt lat="-37.721426" lon="-73.253920"><ele>384.0</ele></trkpt>
<trkpt lat="-37.721423" lon="-73.254147"><ele>384.0</ele></trkpt>
<trkpt lat="-37.721724" lon="-73.254703"><ele>355.0</ele></trkpt>
<trkpt lat="-37.721684" lon="-73.254775"><ele>355.0</ele></trkpt>
<trkpt lat="-37.721231" lon="-73.254877"><ele>355.0</ele></trkpt>
<trkpt lat="-37.721281" lon="-73.255084"><ele>355.0</ele></trkpt>
<trkpt lat="-37.721549" lon="-73.255196"><ele>355.0</ele></trkpt>
<trkpt lat="-37.722149" lon="-73.255124"><ele>355.0</ele></trkpt>
<trkpt lat="-37.722430" lon="-73.254846"><ele>355.0</ele></trkpt>
<trkpt lat="-37.722841" lon="-73.254052"><ele>384.0</ele></trkpt>
<trkpt lat="-37.723403" lon="-73.253566"><ele>315.0</ele></trkpt>
<trkpt lat="-37.723508" lon="-73.253547"><ele>315.0</ele></trkpt>
<trkpt lat="-37.723590" lon="-73.253626"><ele>315.0</ele></trkpt>
<trkpt lat="-37.723297" lon="-73.254190"><ele>307.0</ele></trkpt>
<trkpt lat="-37.723231" lon="-73.255138"><ele>307.0</ele></trkpt>
<trkpt lat="-37.723322" lon="-73.255981"><ele>307.0</ele></trkpt>
<trkpt lat="-37.722938" lon="-73.256287"><ele>296.0</ele></trkpt>
<trkpt lat="-37.722818" lon="-73.256661"><ele>322.0</ele></trkpt>
<trkpt lat="-37.722502" lon="-73.257154"><ele>322.0</ele></trkpt>
<trkpt lat="-37.722466" lon="-73.257867"><ele>322.0</ele></trkpt>
<trkpt lat="-37.722644" lon="-73.258017"><ele>322.0</ele></trkpt>
<trkpt lat="-37.722890" lon="-73.257953"><ele>322.0</ele></trkpt>
<trkpt lat="-37.723090" lon="-73.257656"><ele>296.0</ele></trkpt>
<trkpt lat="-37.723464" lon="-73.257809"><ele>296.0</ele></trkpt>
<trkpt lat="-37.724146" lon="-73.257777"><ele>296.0</ele></trkpt>
<trkpt lat="-37.724893" lon="-73.257908"><ele>296.0</ele></trkpt>
<trkpt lat="-37.725852" lon="-73.257767"><ele>268.0</ele></trkpt>
<trkpt lat="-37.726351" lon="-73.257840"><ele>268.0</ele></trkpt>
<trkpt lat="-37.727046" lon="-73.257804"><ele>268.0</ele></trkpt>
<trkpt lat="-37.726402" lon="-73.257783"><ele>268.0</ele></trkpt>
</trkseg></trk>
</gpx>