<?xml version='1.0' encoding='UTF-8'?>
<gpx xmlns="http://www.topografix.com/GPX/1/1" version="1.1" creator="Bosque Abierto MTB">
  <trk>
    <name>El Ñadi</name>
    <trkseg>
      <trkpt lat="-40.1172062" lon="-73.0123213"><ele>441.0</ele></trkpt>
      <trkpt lat="-40.1172868" lon="-73.0119719"><ele>441.0</ele></trkpt>
      <trkpt lat="-40.1164786" lon="-73.0102458"><ele>429.0</ele></trkpt>
      <trkpt lat="-40.1162376" lon="-73.0098934"><ele>429.0</ele></trkpt>
      <trkpt lat="-40.1155083" lon="-73.0097858"><ele>429.0</ele></trkpt>
      <trkpt lat="-40.1153567" lon="-73.0096885"><ele>429.0</ele></trkpt>
      <trkpt lat="-40.1153047" lon="-73.0094577"><ele>429.0</ele></trkpt>
      <trkpt lat="-40.1154313" lon="-73.0093854"><ele>429.0</ele></trkpt>
      <trkpt lat="-40.1153952" lon="-73.0094252"><ele>429.0</ele></trkpt>
      <trkpt lat="-40.1153412" lon="-73.0093297"><ele>429.0</ele></trkpt>
      <trkpt lat="-40.1151598" lon="-73.0093872"><ele>429.0</ele></trkpt>
      <trkpt lat="-40.1149443" lon="-73.009077"><ele>429.0</ele></trkpt>
      <trkpt lat="-40.1148567" lon="-73.0085372"><ele>429.0</ele></trkpt>
      <trkpt lat="-40.114413" lon="-73.0085099"><ele>378.0</ele></trkpt>
      <trkpt lat="-40.114269" lon="-73.008396"><ele>378.0</ele></trkpt>
      <trkpt lat="-40.1140754" lon="-73.0084889"><ele>378.0</ele></trkpt>
      <trkpt lat="-40.1139713" lon="-73.0082014"><ele>359.0</ele></trkpt>
      <trkpt lat="-40.1140612" lon="-73.007365"><ele>359.0</ele></trkpt>
      <trkpt lat="-40.113482" lon="-73.0069601"><ele>359.0</ele></trkpt>
      <trkpt lat="-40.1133595" lon="-73.0064723"><ele>359.0</ele></trkpt>
      <trkpt lat="-40.1129866" lon="-73.0063088"><ele>359.0</ele></trkpt>
      <trkpt lat="-40.1126979" lon="-73.0059117"><ele>306.0</ele></trkpt>
      <trkpt lat="-40.112755" lon="-73.0055729"><ele>306.0</ele></trkpt>
      <trkpt lat="-40.1129279" lon="-73.0052595"><ele>306.0</ele></trkpt>
      <trkpt lat="-40.1128535" lon="-73.0047096"><ele>306.0</ele></trkpt>
      <trkpt lat="-40.1130523" lon="-73.0043794"><ele>306.0</ele></trkpt>
      <trkpt lat="-40.1128229" lon="-73.0038346"><ele>255.0</ele></trkpt>
      <trkpt lat="-40.1128877" lon="-73.00365"><ele>255.0</ele></trkpt>
      <trkpt lat="-40.1127647" lon="-73.0034257"><ele>255.0</ele></trkpt>
      <trkpt lat="-40.1127895" lon="-73.0028139"><ele>255.0</ele></trkpt>
      <trkpt lat="-40.1127034" lon="-73.0025646"><ele>255.0</ele></trkpt>
      <trkpt lat="-40.11276" lon="-73.0023629"><ele>255.0</ele></trkpt>
      <trkpt lat="-40.1130848" lon="-73.0019533"><ele>208.0</ele></trkpt>
      <trkpt lat="-40.1130736" lon="-73.0016156"><ele>208.0</ele></trkpt>
      <trkpt lat="-40.11315" lon="-73.0013993"><ele>208.0</ele></trkpt>
      <trkpt lat="-40.113028" lon="-73.0004832"><ele>208.0</ele></trkpt>
      <trkpt lat="-40.1127962" lon="-73.0001421"><ele>208.0</ele></trkpt>
      <trkpt lat="-40.1127781" lon="-72.9998277"><ele>169.0</ele></trkpt>
      <trkpt lat="-40.1128996" lon="-72.9991831"><ele>169.0</ele></trkpt>
      <trkpt lat="-40.1127432" lon="-72.9984843"><ele>169.0</ele></trkpt>
      <trkpt lat="-40.1129504" lon="-72.9980194"><ele>169.0</ele></trkpt>
      <trkpt lat="-40.1126733" lon="-72.9973484"><ele>137.0</ele></trkpt>
      <trkpt lat="-40.1127165" lon="-72.9972141"><ele>137.0</ele></trkpt>
      <trkpt lat="-40.1172093" lon="-73.0123389"><ele>441.0</ele></trkpt>
      <trkpt lat="-40.1172868" lon="-73.0119719"><ele>441.0</ele></trkpt>
      <trkpt lat="-40.1164786" lon="-73.0102458"><ele>429.0</ele></trkpt>
      <trkpt lat="-40.1162376" lon="-73.0098934"><ele>429.0</ele></trkpt>
      <trkpt lat="-40.1155083" lon="-73.0097858"><ele>429.0</ele></trkpt>
      <trkpt lat="-40.1153567" lon="-73.0096885"><ele>429.0</ele></trkpt>
      <trkpt lat="-40.1153047" lon="-73.0094577"><ele>429.0</ele></trkpt>
      <trkpt lat="-40.1154313" lon="-73.0093854"><ele>429.0</ele></trkpt>
      <trkpt lat="-40.1153952" lon="-73.0094252"><ele>429.0</ele></trkpt>
      <trkpt lat="-40.1153412" lon="-73.0093297"><ele>429.0</ele></trkpt>
      <trkpt lat="-40.1151598" lon="-73.0093872"><ele>429.0</ele></trkpt>
      <trkpt lat="-40.1149443" lon="-73.009077"><ele>429.0</ele></trkpt>
      <trkpt lat="-40.1148567" lon="-73.0085372"><ele>429.0</ele></trkpt>
      <trkpt lat="-40.114413" lon="-73.0085099"><ele>378.0</ele></trkpt>
      <trkpt lat="-40.114269" lon="-73.008396"><ele>378.0</ele></trkpt>
      <trkpt lat="-40.1140754" lon="-73.0084889"><ele>378.0</ele></trkpt>
      <trkpt lat="-40.1139713" lon="-73.0082014"><ele>359.0</ele></trkpt>
      <trkpt lat="-40.1140612" lon="-73.007365"><ele>359.0</ele></trkpt>
      <trkpt lat="-40.113482" lon="-73.0069601"><ele>359.0</ele></trkpt>
      <trkpt lat="-40.1133595" lon="-73.0064723"><ele>359.0</ele></trkpt>
      <trkpt lat="-40.1129866" lon="-73.0063088"><ele>359.0</ele></trkpt>
      <trkpt lat="-40.1126979" lon="-73.0059117"><ele>306.0</ele></trkpt>
      <trkpt lat="-40.112755" lon="-73.0055729"><ele>306.0</ele></trkpt>
      <trkpt lat="-40.1129279" lon="-73.0052595"><ele>306.0</ele></trkpt>
      <trkpt lat="-40.1128535" lon="-73.0047096"><ele>306.0</ele></trkpt>
      <trkpt lat="-40.1130523" lon="-73.0043794"><ele>306.0</ele></trkpt>
      <trkpt lat="-40.1128229" lon="-73.0038346"><ele>255.0</ele></trkpt>
      <trkpt lat="-40.1128877" lon="-73.00365"><ele>255.0</ele></trkpt>
      <trkpt lat="-40.1127647" lon="-73.0034257"><ele>255.0</ele></trkpt>
      <trkpt lat="-40.1127895" lon="-73.0028139"><ele>255.0</ele></trkpt>
      <trkpt lat="-40.1127034" lon="-73.0025646"><ele>255.0</ele></trkpt>
      <trkpt lat="-40.11276" lon="-73.0023629"><ele>255.0</ele></trkpt>
      <trkpt lat="-40.1130848" lon="-73.0019533"><ele>208.0</ele></trkpt>
      <trkpt lat="-40.1130736" lon="-73.0016156"><ele>208.0</ele></trkpt>
      <trkpt lat="-40.11315" lon="-73.0013993"><ele>208.0</ele></trkpt>
      <trkpt lat="-40.113028" lon="-73.0004832"><ele>208.0</ele></trkpt>
      <trkpt lat="-40.1127962" lon="-73.0001421"><ele>208.0</ele></trkpt>
      <trkpt lat="-40.1127781" lon="-72.9998277"><ele>169.0</ele></trkpt>
      <trkpt lat="-40.1128996" lon="-72.9991831"><ele>169.0</ele></trkpt>
      <trkpt lat="-40.1127432" lon="-72.9984843"><ele>169.0</ele></trkpt>
      <trkpt lat="-40.1129504" lon="-72.9980194"><ele>169.0</ele></trkpt>
      <trkpt lat="-40.11271" lon="-72.9974682"><ele>137.0</ele></trkpt>
      <trkpt lat="-40.1126957" lon="-72.9972341"><ele>137.0</ele></trkpt>
      <trkpt lat="-40.11388915815867" lon="-72.9977242883902"><ele>137.0</ele></trkpt>
      <trkpt lat="-40.11476785501632" lon="-72.99831079293749"><ele>198.0</ele></trkpt>
      <trkpt lat="-40.11518296066586" lon="-72.99812853966854"><ele>198.0</ele></trkpt>
      <trkpt lat="-40.11754827451651" lon="-72.9985515976323"><ele>235.0</ele></trkpt>
      <trkpt lat="-40.11768332380437" lon="-72.9983397159119"><ele>235.0</ele></trkpt>
      <trkpt lat="-40.11785450770819" lon="-72.99740375970174"><ele>182.0</ele></trkpt>
      <trkpt lat="-40.11827699669644" lon="-72.99717544241885"><ele>182.0</ele></trkpt>
      <trkpt lat="-40.11849674477409" lon="-72.99715077230618"><ele>182.0</ele></trkpt>
      <trkpt lat="-40.11876078229448" lon="-72.99725376252388"><ele>196.0</ele></trkpt>
      <trkpt lat="-40.11973669043644" lon="-72.99851962702729"><ele>241.0</ele></trkpt>
      <trkpt lat="-40.12040080997064" lon="-72.9984031130393"><ele>241.0</ele></trkpt>
      <trkpt lat="-40.1205170347254" lon="-72.99852491001604"><ele>241.0</ele></trkpt>
      <trkpt lat="-40.12059210048537" lon="-72.99895290639896"><ele>241.0</ele></trkpt>
      <trkpt lat="-40.12093355921257" lon="-72.99907593499093"><ele>267.0</ele></trkpt>
      <trkpt lat="-40.1213116423498" lon="-72.99897578681475"><ele>267.0</ele></trkpt>
      <trkpt lat="-40.12169299511771" lon="-72.99858330221535"><ele>267.0</ele></trkpt>
      <trkpt lat="-40.12191030966888" lon="-72.99853766695354"><ele>267.0</ele></trkpt>
      <trkpt lat="-40.12250103887643" lon="-72.99902110375436"><ele>267.0</ele></trkpt>
      <trkpt lat="-40.12289449660536" lon="-72.99918380021109"><ele>267.0</ele></trkpt>
      <trkpt lat="-40.12296472251406" lon="-72.99940405899574"><ele>241.0</ele></trkpt>
      <trkpt lat="-40.12288715042435" lon="-72.99995761338305"><ele>267.0</ele></trkpt>
      <trkpt lat="-40.12267631649022" lon="-72.99992144624237"><ele>267.0</ele></trkpt>
      <trkpt lat="-40.12248666806569" lon="-72.99973763892827"><ele>267.0</ele></trkpt>
      <trkpt lat="-40.12200860099796" lon="-72.99980692380574"><ele>267.0</ele></trkpt>
      <trkpt lat="-40.12185505537681" lon="-73.00008188154466"><ele>305.0</ele></trkpt>
      <trkpt lat="-40.12151888367423" lon="-73.00021049518938"><ele>305.0</ele></trkpt>
      <trkpt lat="-40.12128595352235" lon="-73.0006003810551"><ele>305.0</ele></trkpt>
      <trkpt lat="-40.120759138596" lon="-73.00070797435302"><ele>305.0</ele></trkpt>
      <trkpt lat="-40.12057180283714" lon="-73.00096837634537"><ele>305.0</ele></trkpt>
      <trkpt lat="-40.11981900023015" lon="-73.0015554772204"><ele>305.0</ele></trkpt>
      <trkpt lat="-40.11955025526863" lon="-73.00189469390145"><ele>305.0</ele></trkpt>
      <trkpt lat="-40.11930022326404" lon="-73.00184292889573"><ele>305.0</ele></trkpt>
      <trkpt lat="-40.11852571185774" lon="-73.00107655216081"><ele>296.0</ele></trkpt>
      <trkpt lat="-40.1184068633594" lon="-73.00101211247984"><ele>296.0</ele></trkpt>
      <trkpt lat="-40.11821826374745" lon="-73.00104136078366"><ele>296.0</ele></trkpt>
      <trkpt lat="-40.11803855830606" lon="-73.00117747613824"><ele>296.0</ele></trkpt>
      <trkpt lat="-40.11780770139902" lon="-73.0019010813613"><ele>296.0</ele></trkpt>
      <trkpt lat="-40.11739161942211" lon="-73.00218083756006"><ele>358.0</ele></trkpt>
      <trkpt lat="-40.11715075192463" lon="-73.00280896584896"><ele>358.0</ele></trkpt>
      <trkpt lat="-40.11674629931436" lon="-73.00319626618749"><ele>358.0</ele></trkpt>
      <trkpt lat="-40.1166126525499" lon="-73.00322945742029"><ele>297.0</ele></trkpt>
      <trkpt lat="-40.11641391018507" lon="-73.00304140717394"><ele>297.0</ele></trkpt>
      <trkpt lat="-40.11608928877193" lon="-73.00297873059554"><ele>297.0</ele></trkpt>
      <trkpt lat="-40.11597395100041" lon="-73.00370538072524"><ele>297.0</ele></trkpt>
      <trkpt lat="-40.11552048500236" lon="-73.00368791583136"><ele>297.0</ele></trkpt>
      <trkpt lat="-40.11535959952384" lon="-73.00375608608903"><ele>297.0</ele></trkpt>
      <trkpt lat="-40.11533816522799" lon="-73.00405874212957"><ele>297.0</ele></trkpt>
      <trkpt lat="-40.11510673502674" lon="-73.00455639466709"><ele>343.0</ele></trkpt>
      <trkpt lat="-40.11502852398726" lon="-73.00499462291188"><ele>343.0</ele></trkpt>
      <trkpt lat="-40.11510084184162" lon="-73.00569932924465"><ele>343.0</ele></trkpt>
      <trkpt lat="-40.11524400081853" lon="-73.00597366031177"><ele>343.0</ele></trkpt>
      <trkpt lat="-40.11525101329313" lon="-73.00618620960127"><ele>343.0</ele></trkpt>
      <trkpt lat="-40.1151607757502" lon="-73.00631656945416"><ele>367.0</ele></trkpt>
      <trkpt lat="-40.11504132391525" lon="-73.00624415855744"><ele>343.0</ele></trkpt>
      <trkpt lat="-40.11444267604453" lon="-73.00622477546918"><ele>306.0</ele></trkpt>
      <trkpt lat="-40.11416861194166" lon="-73.00661348428471"><ele>359.0</ele></trkpt>
      <trkpt lat="-40.11381867668875" lon="-73.00677548590411"><ele>359.0</ele></trkpt>
      <trkpt lat="-40.11350721754805" lon="-73.00704318191336"><ele>359.0</ele></trkpt>
      <trkpt lat="-40.1131177806947" lon="-73.00682856363369"><ele>359.0</ele></trkpt>
      <trkpt lat="-40.11306697875955" lon="-73.00687612590016"><ele>359.0</ele></trkpt>
      <trkpt lat="-40.11307229131471" lon="-73.0081812358455"><ele>359.0</ele></trkpt>
      <trkpt lat="-40.11315905015094" lon="-73.00840895304093"><ele>378.0</ele></trkpt>
      <trkpt lat="-40.11377106184887" lon="-73.00879340129909"><ele>378.0</ele></trkpt>
      <trkpt lat="-40.11401972334047" lon="-73.0093361704106"><ele>378.0</ele></trkpt>
      <trkpt lat="-40.11443111652915" lon="-73.00969455197566"><ele>378.0</ele></trkpt>
      <trkpt lat="-40.11473128236274" lon="-73.01039730191692"><ele>429.0</ele></trkpt>
      <trkpt lat="-40.11569482794869" lon="-73.01069184547394"><ele>401.0</ele></trkpt>
      <trkpt lat="-40.1161565679724" lon="-73.01103899779949"><ele>401.0</ele></trkpt>
      <trkpt lat="-40.11634905500835" lon="-73.01131374230759"><ele>401.0</ele></trkpt>
      <trkpt lat="-40.11627784416402" lon="-73.01225279360288"><ele>401.0</ele></trkpt>
      <trkpt lat="-40.11638235835856" lon="-73.01255997414547"><ele>437.0</ele></trkpt>
      <trkpt lat="-40.11348299606807" lon="-72.9975975316834"><ele>137.0</ele></trkpt>
      <trkpt lat="-40.11388915815867" lon="-72.9977242883902"><ele>137.0</ele></trkpt>
      <trkpt lat="-40.11476785501632" lon="-72.99831079293749"><ele>198.0</ele></trkpt>
      <trkpt lat="-40.11518296066586" lon="-72.99812853966854"><ele>198.0</ele></trkpt>
      <trkpt lat="-40.11754827451651" lon="-72.9985515976323"><ele>235.0</ele></trkpt>
      <trkpt lat="-40.11768332380437" lon="-72.9983397159119"><ele>235.0</ele></trkpt>
      <trkpt lat="-40.11785450770819" lon="-72.99740375970174"><ele>182.0</ele></trkpt>
      <trkpt lat="-40.11827699669644" lon="-72.99717544241885"><ele>182.0</ele></trkpt>
      <trkpt lat="-40.11849674477409" lon="-72.99715077230618"><ele>182.0</ele></trkpt>
      <trkpt lat="-40.11876078229448" lon="-72.99725376252388"><ele>196.0</ele></trkpt>
      <trkpt lat="-40.11973669043644" lon="-72.99851962702729"><ele>241.0</ele></trkpt>
      <trkpt lat="-40.12040080997064" lon="-72.9984031130393"><ele>241.0</ele></trkpt>
      <trkpt lat="-40.1205170347254" lon="-72.99852491001604"><ele>241.0</ele></trkpt>
      <trkpt lat="-40.12059210048537" lon="-72.99895290639896"><ele>241.0</ele></trkpt>
      <trkpt lat="-40.12093355921257" lon="-72.99907593499093"><ele>267.0</ele></trkpt>
      <trkpt lat="-40.1213116423498" lon="-72.99897578681475"><ele>267.0</ele></trkpt>
      <trkpt lat="-40.12169299511771" lon="-72.99858330221535"><ele>267.0</ele></trkpt>
      <trkpt lat="-40.12191030966888" lon="-72.99853766695354"><ele>267.0</ele></trkpt>
      <trkpt lat="-40.12250103887643" lon="-72.99902110375436"><ele>267.0</ele></trkpt>
      <trkpt lat="-40.12289449660536" lon="-72.99918380021109"><ele>267.0</ele></trkpt>
      <trkpt lat="-40.12296472251406" lon="-72.99940405899574"><ele>241.0</ele></trkpt>
      <trkpt lat="-40.12288715042435" lon="-72.99995761338305"><ele>267.0</ele></trkpt>
      <trkpt lat="-40.12267631649022" lon="-72.99992144624237"><ele>267.0</ele></trkpt>
      <trkpt lat="-40.12248666806569" lon="-72.99973763892827"><ele>267.0</ele></trkpt>
      <trkpt lat="-40.12200860099796" lon="-72.99980692380574"><ele>267.0</ele></trkpt>
      <trkpt lat="-40.12185505537681" lon="-73.00008188154466"><ele>305.0</ele></trkpt>
      <trkpt lat="-40.12151888367423" lon="-73.00021049518938"><ele>305.0</ele></trkpt>
      <trkpt lat="-40.12128595352235" lon="-73.0006003810551"><ele>305.0</ele></trkpt>
      <trkpt lat="-40.120759138596" lon="-73.00070797435302"><ele>305.0</ele></trkpt>
      <trkpt lat="-40.12057180283714" lon="-73.00096837634537"><ele>305.0</ele></trkpt>
      <trkpt lat="-40.11981900023015" lon="-73.0015554772204"><ele>305.0</ele></trkpt>
      <trkpt lat="-40.11955025526863" lon="-73.00189469390145"><ele>305.0</ele></trkpt>
      <trkpt lat="-40.11930022326404" lon="-73.00184292889573"><ele>305.0</ele></trkpt>
      <trkpt lat="-40.11852571185774" lon="-73.00107655216081"><ele>296.0</ele></trkpt>
      <trkpt lat="-40.1184068633594" lon="-73.00101211247984"><ele>296.0</ele></trkpt>
      <trkpt lat="-40.11821826374745" lon="-73.00104136078366"><ele>296.0</ele></trkpt>
      <trkpt lat="-40.11803855830606" lon="-73.00117747613824"><ele>296.0</ele></trkpt>
      <trkpt lat="-40.11780770139902" lon="-73.0019010813613"><ele>296.0</ele></trkpt>
      <trkpt lat="-40.11739161942211" lon="-73.00218083756006"><ele>358.0</ele></trkpt>
      <trkpt lat="-40.11715075192463" lon="-73.00280896584896"><ele>358.0</ele></trkpt>
      <trkpt lat="-40.11674629931436" lon="-73.00319626618749"><ele>358.0</ele></trkpt>
      <trkpt lat="-40.1166126525499" lon="-73.00322945742029"><ele>297.0</ele></trkpt>
      <trkpt lat="-40.11641391018507" lon="-73.00304140717394"><ele>297.0</ele></trkpt>
      <trkpt lat="-40.11608928877193" lon="-73.00297873059554"><ele>297.0</ele></trkpt>
      <trkpt lat="-40.11597395100041" lon="-73.00370538072524"><ele>297.0</ele></trkpt>
      <trkpt lat="-40.11552048500236" lon="-73.00368791583136"><ele>297.0</ele></trkpt>
      <trkpt lat="-40.11535959952384" lon="-73.00375608608903"><ele>297.0</ele></trkpt>
      <trkpt lat="-40.11533816522799" lon="-73.00405874212957"><ele>297.0</ele></trkpt>
      <trkpt lat="-40.11510673502674" lon="-73.00455639466709"><ele>343.0</ele></trkpt>
      <trkpt lat="-40.11502852398726" lon="-73.00499462291188"><ele>343.0</ele></trkpt>
      <trkpt lat="-40.11510084184162" lon="-73.00569932924465"><ele>343.0</ele></trkpt>
      <trkpt lat="-40.11524400081853" lon="-73.00597366031177"><ele>343.0</ele></trkpt>
      <trkpt lat="-40.11525101329313" lon="-73.00618620960127"><ele>343.0</ele></trkpt>
      <trkpt lat="-40.1151607757502" lon="-73.00631656945416"><ele>367.0</ele></trkpt>
      <trkpt lat="-40.11504132391525" lon="-73.00624415855744"><ele>343.0</ele></trkpt>
      <trkpt lat="-40.11444267604453" lon="-73.00622477546918"><ele>306.0</ele></trkpt>
      <trkpt lat="-40.11416861194166" lon="-73.00661348428471"><ele>359.0</ele></trkpt>
      <trkpt lat="-40.11381867668875" lon="-73.00677548590411"><ele>359.0</ele></trkpt>
      <trkpt lat="-40.11350721754805" lon="-73.00704318191336"><ele>359.0</ele></trkpt>
      <trkpt lat="-40.1131177806947" lon="-73.00682856363369"><ele>359.0</ele></trkpt>
      <trkpt lat="-40.11306697875955" lon="-73.00687612590016"><ele>359.0</ele></trkpt>
      <trkpt lat="-40.11307229131471" lon="-73.0081812358455"><ele>359.0</ele></trkpt>
      <trkpt lat="-40.11315905015094" lon="-73.00840895304093"><ele>378.0</ele></trkpt>
      <trkpt lat="-40.11377106184887" lon="-73.00879340129909"><ele>378.0</ele></trkpt>
      <trkpt lat="-40.11401972334047" lon="-73.0093361704106"><ele>378.0</ele></trkpt>
      <trkpt lat="-40.11443111652915" lon="-73.00969455197566"><ele>378.0</ele></trkpt>
      <trkpt lat="-40.11473128236274" lon="-73.01039730191692"><ele>429.0</ele></trkpt>
      <trkpt lat="-40.11569482794869" lon="-73.01069184547394"><ele>401.0</ele></trkpt>
      <trkpt lat="-40.1161565679724" lon="-73.01103899779949"><ele>401.0</ele></trkpt>
      <trkpt lat="-40.11634905500835" lon="-73.01131374230759"><ele>401.0</ele></trkpt>
      <trkpt lat="-40.11627784416402" lon="-73.01225279360288"><ele>401.0</ele></trkpt>
      <trkpt lat="-40.11638235835856" lon="-73.01255997414547"><ele>437.0</ele></trkpt>
    </trkseg>
  </trk>
</gpx>