<?xml version='1.0' encoding='UTF-8'?>
<gpx xmlns="http://www.topografix.com/GPX/1/1" xmlns:xsi="http://www.w3.org/2001/XMLSchema-instance" version="1.1" creator="Bosque Abierto MTB - Guardianes del Bosque" xsi:schemaLocation="http://www.topografix.com/GPX/1/1 http://www.topografix.com/GPX/1/1/gpx.xsd">
  <metadata>
    <name>Fundo Manco Negro</name>
    <desc>Ruta MTB Bosque Abierto - ARAUCO Renovables</desc>
    <author>
      <name>Guardianes del Bosque MTB</name>
    </author>
    <time>2024-01-01T10:00:00Z</time>
  </metadata>
  <trk>
    <name>Fundo Manco Negro</name>
    <type>cycling</type>
    <trkseg>
      <trkpt lat="-37.0547990" lon="-73.1287560">
        <ele>146.7</ele>
        <time>2024-01-01T10:00:00Z</time>
      </trkpt>
      <trkpt lat="-37.0542150" lon="-73.1289850">
        <ele>147.1</ele>
        <time>2024-01-01T10:00:15Z</time>
      </trkpt>
      <trkpt lat="-37.0541180" lon="-73.1291520">
        <ele>146.7</ele>
        <time>2024-01-01T10:00:18Z</time>
      </trkpt>
      <trkpt lat="-37.0539870" lon="-73.1291670">
        <ele>145.6</ele>
        <time>2024-01-01T10:00:21Z</time>
      </trkpt>
      <trkpt lat="-37.0533160" lon="-73.1288570">
        <ele>137.9</ele>
        <time>2024-01-01T10:00:36Z</time>
      </trkpt>
      <trkpt lat="-37.0525860" lon="-73.1289480">
        <ele>128.6</ele>
        <time>2024-01-01T10:00:51Z</time>
      </trkpt>
      <trkpt lat="-37.0522460" lon="-73.1292580">
        <ele>126.1</ele>
        <time>2024-01-01T10:01:00Z</time>
      </trkpt>
      <trkpt lat="-37.0511250" lon="-73.1299100">
        <ele>110.6</ele>
        <time>2024-01-01T10:01:24Z</time>
      </trkpt>
      <trkpt lat="-37.0503160" lon="-73.1308440">
        <ele>98.4</ele>
        <time>2024-01-01T10:01:45Z</time>
      </trkpt>
      <trkpt lat="-37.0499930" lon="-73.1316910">
        <ele>89.6</ele>
        <time>2024-01-01T10:02:00Z</time>
      </trkpt>
      <trkpt lat="-37.0497670" lon="-73.1320680">
        <ele>81.8</ele>
        <time>2024-01-01T10:02:09Z</time>
      </trkpt>
      <trkpt lat="-37.0495010" lon="-73.1323120">
        <ele>76.8</ele>
        <time>2024-01-01T10:02:15Z</time>
      </trkpt>
      <trkpt lat="-37.0490180" lon="-73.1325350">
        <ele>72.8</ele>
        <time>2024-01-01T10:02:24Z</time>
      </trkpt>
      <trkpt lat="-37.0482950" lon="-73.1326660">
        <ele>71.1</ele>
        <time>2024-01-01T10:02:36Z</time>
      </trkpt>
      <trkpt lat="-37.0463350" lon="-73.1335990">
        <ele>48.9</ele>
        <time>2024-01-01T10:03:09Z</time>
      </trkpt>
      <trkpt lat="-37.0459450" lon="-73.1345150">
        <ele>36.5</ele>
        <time>2024-01-01T10:03:24Z</time>
      </trkpt>
      <trkpt lat="-37.0458250" lon="-73.1346620">
        <ele>34.0</ele>
        <time>2024-01-01T10:03:27Z</time>
      </trkpt>
      <trkpt lat="-37.0453690" lon="-73.1347180">
        <ele>31.1</ele>
        <time>2024-01-01T10:03:36Z</time>
      </trkpt>
      <trkpt lat="-37.0452670" lon="-73.1350040">
        <ele>27.2</ele>
        <time>2024-01-01T10:03:42Z</time>
      </trkpt>
      <trkpt lat="-37.0445940" lon="-73.1360550">
        <ele>14.4</ele>
        <time>2024-01-01T10:04:03Z</time>
      </trkpt>
      <trkpt lat="-37.0548280" lon="-73.1286950">
        <ele>147.4</ele>
        <time>2024-01-01T10:04:06Z</time>
      </trkpt>
      <trkpt lat="-37.0542230" lon="-73.1289400">
        <ele>147.1</ele>
        <time>2024-01-01T10:04:24Z</time>
      </trkpt>
      <trkpt lat="-37.0539690" lon="-73.1291410">
        <ele>145.3</ele>
        <time>2024-01-01T10:04:30Z</time>
      </trkpt>
      <trkpt lat="-37.0531520" lon="-73.1288600">
        <ele>135.8</ele>
        <time>2024-01-01T10:04:48Z</time>
      </trkpt>
      <trkpt lat="-37.0524500" lon="-73.1289450">
        <ele>127.1</ele>
        <time>2024-01-01T10:05:03Z</time>
      </trkpt>
      <trkpt lat="-37.0521720" lon="-73.1292970">
        <ele>125.3</ele>
        <time>2024-01-01T10:05:12Z</time>
      </trkpt>
      <trkpt lat="-37.0518950" lon="-73.1294170">
        <ele>121.8</ele>
        <time>2024-01-01T10:05:18Z</time>
      </trkpt>
      <trkpt lat="-37.0514700" lon="-73.1297760">
        <ele>115.1</ele>
        <time>2024-01-01T10:05:27Z</time>
      </trkpt>
      <trkpt lat="-37.0512080" lon="-73.1298520">
        <ele>111.7</ele>
        <time>2024-01-01T10:05:33Z</time>
      </trkpt>
      <trkpt lat="-37.0503670" lon="-73.1294910">
        <ele>104.5</ele>
        <time>2024-01-01T10:05:54Z</time>
      </trkpt>
      <trkpt lat="-37.0499480" lon="-73.1295770">
        <ele>100.9</ele>
        <time>2024-01-01T10:06:03Z</time>
      </trkpt>
      <trkpt lat="-37.0495310" lon="-73.1297480">
        <ele>97.7</ele>
        <time>2024-01-01T10:06:12Z</time>
      </trkpt>
      <trkpt lat="-37.0494310" lon="-73.1299270">
        <ele>98.5</ele>
        <time>2024-01-01T10:06:18Z</time>
      </trkpt>
      <trkpt lat="-37.0486570" lon="-73.1302260">
        <ele>85.6</ele>
        <time>2024-01-01T10:06:39Z</time>
      </trkpt>
      <trkpt lat="-37.0481170" lon="-73.1307380">
        <ele>67.7</ele>
        <time>2024-01-01T10:06:54Z</time>
      </trkpt>
      <trkpt lat="-37.0478150" lon="-73.1306500">
        <ele>62.4</ele>
        <time>2024-01-01T10:07:03Z</time>
      </trkpt>
      <trkpt lat="-37.0475700" lon="-73.1307730">
        <ele>55.5</ele>
        <time>2024-01-01T10:07:12Z</time>
      </trkpt>
      <trkpt lat="-37.0471720" lon="-73.1307010">
        <ele>50.9</ele>
        <time>2024-01-01T10:07:24Z</time>
      </trkpt>
      <trkpt lat="-37.0460720" lon="-73.1310590">
        <ele>39.5</ele>
        <time>2024-01-01T10:07:51Z</time>
      </trkpt>
      <trkpt lat="-37.0458090" lon="-73.1307160">
        <ele>37.1</ele>
        <time>2024-01-01T10:08:06Z</time>
      </trkpt>
      <trkpt lat="-37.0453870" lon="-73.1305190">
        <ele>35.5</ele>
        <time>2024-01-01T10:08:24Z</time>
      </trkpt>
    </trkseg>
  </trk>
</gpx>