<?xml version="1.0" encoding="UTF-8"?>
<gpx version="1.1" creator="BosqueAbierto" xmlns="http://www.topografix.com/GPX/1/1">
<trk><name>Bosque de Indomitos - Medio</name><trkseg>
<trkpt lat="-39.775316" lon="-73.164217"><ele>281.0</ele></trkpt>
<trkpt lat="-39.775457" lon="-73.164343"><ele>281.0</ele></trkpt>
<trkpt lat="-39.775458" lon="-73.164536"><ele>281.0</ele></trkpt>
<trkpt lat="-39.775117" lon="-73.164951"><ele>246.2</ele></trkpt>
<trkpt lat="-39.775176" lon="-73.165308"><ele>246.2</ele></trkpt>
<trkpt lat="-39.775053" lon="-73.165942"><ele>246.2</ele></trkpt>
<trkpt lat="-39.775480" lon="-73.166529"><ele>246.2</ele></trkpt>
<trkpt lat="-39.775706" lon="-73.167218"><ele>220.3</ele></trkpt>
</trkseg></trk>
<trk><name>Subida a Perrita Loca - Enlace de subida</name><trkseg>
<trkpt lat="-39.775704" lon="-73.167218"><ele>220.3</ele></trkpt>
<trkpt lat="-39.775834" lon="-73.168252"><ele>220.3</ele></trkpt>
<trkpt lat="-39.775619" lon="-73.169052"><ele>219.0</ele></trkpt>
<trkpt lat="-39.775733" lon="-73.169224"><ele>219.0</ele></trkpt>
<trkpt lat="-39.775910" lon="-73.169297"><ele>219.0</ele></trkpt>
<trkpt lat="-39.776319" lon="-73.168808"><ele>219.0</ele></trkpt>
<trkpt lat="-39.776855" lon="-73.168814"><ele>219.0</ele></trkpt>
<trkpt lat="-39.777218" lon="-73.168916"><ele>197.7</ele></trkpt>
<trkpt lat="-39.777369" lon="-73.169060"><ele>197.7</ele></trkpt>
</trkseg></trk>
<trk><name>Perrita Loca - Medio</name><trkseg>
<trkpt lat="-39.777371" lon="-73.169059"><ele>197.7</ele></trkpt>
<trkpt lat="-39.777456" lon="-73.169276"><ele>197.7</ele></trkpt>
<trkpt lat="-39.777451" lon="-73.169941"><ele>197.7</ele></trkpt>
<trkpt lat="-39.777583" lon="-73.170231"><ele>197.7</ele></trkpt>
<trkpt lat="-39.777587" lon="-73.170457"><ele>197.7</ele></trkpt>
<trkpt lat="-39.777386" lon="-73.171600"><ele>182.4</ele></trkpt>
<trkpt lat="-39.777496" lon="-73.172637"><ele>182.4</ele></trkpt>
<trkpt lat="-39.777445" lon="-73.173140"><ele>168.0</ele></trkpt>
<trkpt lat="-39.777201" lon="-73.174019"><ele>168.0</ele></trkpt>
<trkpt lat="-39.777152" lon="-73.174619"><ele>168.0</ele></trkpt>
<trkpt lat="-39.777155" lon="-73.174938"><ele>168.0</ele></trkpt>
<trkpt lat="-39.777257" lon="-73.175199"><ele>135.0</ele></trkpt>
<trkpt lat="-39.777155" lon="-73.175624"><ele>135.0</ele></trkpt>
<trkpt lat="-39.776954" lon="-73.175732"><ele>139.6</ele></trkpt>
<trkpt lat="-39.776720" lon="-73.176072"><ele>139.6</ele></trkpt>
<trkpt lat="-39.776683" lon="-73.176339"><ele>139.6</ele></trkpt>
<trkpt lat="-39.776390" lon="-73.176989"><ele>139.6</ele></trkpt>
<trkpt lat="-39.776180" lon="-73.177134"><ele>108.5</ele></trkpt>
<trkpt lat="-39.776030" lon="-73.177472"><ele>108.5</ele></trkpt>
<trkpt lat="-39.776073" lon="-73.177950"><ele>108.5</ele></trkpt>
<trkpt lat="-39.775614" lon="-73.178600"><ele>108.5</ele></trkpt>
<trkpt lat="-39.775379" lon="-73.179579"><ele>87.6</ele></trkpt>
<trkpt lat="-39.775336" lon="-73.180089"><ele>87.6</ele></trkpt>
<trkpt lat="-39.775641" lon="-73.181029"><ele>87.6</ele></trkpt>
<trkpt lat="-39.775475" lon="-73.181580"><ele>76.7</ele></trkpt>
<trkpt lat="-39.775507" lon="-73.181701"><ele>76.7</ele></trkpt>
</trkseg></trk>
<trk><name>Puma Line - Difícil</name><trkseg>
<trkpt lat="-39.775650" lon="-73.168892"><ele>219.0</ele></trkpt>
<trkpt lat="-39.775288" lon="-73.168965"><ele>219.0</ele></trkpt>
<trkpt lat="-39.774742" lon="-73.169307"><ele>182.7</ele></trkpt>
<trkpt lat="-39.774345" lon="-73.169611"><ele>182.7</ele></trkpt>
<trkpt lat="-39.774188" lon="-73.169926"><ele>182.7</ele></trkpt>
<trkpt lat="-39.774312" lon="-73.170735"><ele>182.7</ele></trkpt>
<trkpt lat="-39.774047" lon="-73.171063"><ele>162.5</ele></trkpt>
<trkpt lat="-39.773751" lon="-73.171644"><ele>162.5</ele></trkpt>
<trkpt lat="-39.773632" lon="-73.172942"><ele>139.4</ele></trkpt>
<trkpt lat="-39.773291" lon="-73.173380"><ele>139.4</ele></trkpt>
<trkpt lat="-39.772983" lon="-73.175062"><ele>112.6</ele></trkpt>
<trkpt lat="-39.772794" lon="-73.175592"><ele>125.3</ele></trkpt>
<trkpt lat="-39.772712" lon="-73.176554"><ele>125.3</ele></trkpt>
</trkseg></trk>
<trk><name>Rompe Costilla - Medio</name><trkseg>
<trkpt lat="-39.772364" lon="-73.177248"><ele>115.7</ele></trkpt>
<trkpt lat="-39.772491" lon="-73.177714"><ele>115.7</ele></trkpt>
<trkpt lat="-39.772408" lon="-73.177990"><ele>115.7</ele></trkpt>
<trkpt lat="-39.772579" lon="-73.178109"><ele>115.7</ele></trkpt>
<trkpt lat="-39.772795" lon="-73.178039"><ele>115.7</ele></trkpt>
<trkpt lat="-39.773168" lon="-73.178247"><ele>94.2</ele></trkpt>
<trkpt lat="-39.773027" lon="-73.178711"><ele>94.2</ele></trkpt>
<trkpt lat="-39.773082" lon="-73.179182"><ele>77.7</ele></trkpt>
</trkseg></trk>
<trk><name>Kick Buttowski - Medio</name><trkseg>
<trkpt lat="-39.773899" lon="-73.180461"><ele>77.7</ele></trkpt>
<trkpt lat="-39.774640" lon="-73.181135"><ele>77.7</ele></trkpt>
<trkpt lat="-39.774549" lon="-73.181447"><ele>71.3</ele></trkpt>
<trkpt lat="-39.774567" lon="-73.181930"><ele>71.3</ele></trkpt>
<trkpt lat="-39.774826" lon="-73.182981"><ele>71.3</ele></trkpt>
<trkpt lat="-39.774602" lon="-73.183622"><ele>57.7</ele></trkpt>
<trkpt lat="-39.774615" lon="-73.183919"><ele>57.7</ele></trkpt>
<trkpt lat="-39.774727" lon="-73.184035"><ele>57.7</ele></trkpt>
<trkpt lat="-39.775051" lon="-73.183909"><ele>53.0</ele></trkpt>
<trkpt lat="-39.775090" lon="-73.184128"><ele>53.0</ele></trkpt>
</trkseg></trk>
<trk><name>Retorno a Subida Indomitos - Enlace de retorno</name><trkseg>
<trkpt lat="-39.775506" lon="-73.181700"><ele>76.7</ele></trkpt>
<trkpt lat="-39.775902" lon="-73.183448"><ele>53.0</ele></trkpt>
<trkpt lat="-39.776077" lon="-73.183841"><ele>53.0</ele></trkpt>
<trkpt lat="-39.776121" lon="-73.185399"><ele>53.0</ele></trkpt>
<trkpt lat="-39.776231" lon="-73.185947"><ele>32.1</ele></trkpt>
<trkpt lat="-39.776105" lon="-73.186271"><ele>32.1</ele></trkpt>
<trkpt lat="-39.775604" lon="-73.186420"><ele>32.1</ele></trkpt>
<trkpt lat="-39.775541" lon="-73.186793"><ele>32.1</ele></trkpt>
</trkseg></trk>
<trk><name>Subida a Bosque de Indomitos - Enlace de subida</name><trkseg>
<trkpt lat="-39.775056" lon="-73.189478"><ele>20.6</ele></trkpt>
<trkpt lat="-39.775293" lon="-73.188809"><ele>20.6</ele></trkpt>
<trkpt lat="-39.775344" lon="-73.188379"><ele>20.6</ele></trkpt>
<trkpt lat="-39.775569" lon="-73.187857"><ele>20.6</ele></trkpt>
<trkpt lat="-39.775564" lon="-73.186968"><ele>32.1</ele></trkpt>
<trkpt lat="-39.775374" lon="-73.185899"><ele>32.1</ele></trkpt>
<trkpt lat="-39.774892" lon="-73.185244"><ele>57.7</ele></trkpt>
<trkpt lat="-39.775181" lon="-73.183791"><ele>53.0</ele></trkpt>
<trkpt lat="-39.775302" lon="-73.182740"><ele>76.7</ele></trkpt>
<trkpt lat="-39.775198" lon="-73.182281"><ele>76.7</ele></trkpt>
<trkpt lat="-39.774985" lon="-73.181848"><ele>71.3</ele></trkpt>
<trkpt lat="-39.774948" lon="-73.181127"><ele>77.7</ele></trkpt>
<trkpt lat="-39.774820" lon="-73.180884"><ele>77.7</ele></trkpt>
<trkpt lat="-39.774468" lon="-73.180613"><ele>77.7</ele></trkpt>
<trkpt lat="-39.773899" lon="-73.180461"><ele>77.7</ele></trkpt>
<trkpt lat="-39.773188" lon="-73.179417"><ele>77.7</ele></trkpt>
<trkpt lat="-39.773084" lon="-73.179208"><ele>77.7</ele></trkpt>
<trkpt lat="-39.773138" lon="-73.178695"><ele>94.2</ele></trkpt>
<trkpt lat="-39.773409" lon="-73.178323"><ele>94.2</ele></trkpt>
<trkpt lat="-39.773458" lon="-73.178062"><ele>94.2</ele></trkpt>
<trkpt lat="-39.773308" lon="-73.177875"><ele>94.2</ele></trkpt>
<trkpt lat="-39.772712" lon="-73.178005"><ele>115.7</ele></trkpt>
<trkpt lat="-39.772348" lon="-73.177167"><ele>115.7</ele></trkpt>
<trkpt lat="-39.772532" lon="-73.176255"><ele>125.3</ele></trkpt>
<trkpt lat="-39.772969" lon="-73.175044"><ele>112.6</ele></trkpt>
<trkpt lat="-39.773230" lon="-73.173771"><ele>139.4</ele></trkpt>
<trkpt lat="-39.773325" lon="-73.172800"><ele>162.5</ele></trkpt>
<trkpt lat="-39.773549" lon="-73.171910"><ele>162.5</ele></trkpt>
<trkpt lat="-39.773625" lon="-73.171084"><ele>162.5</ele></trkpt>
<trkpt lat="-39.773965" lon="-73.169880"><ele>182.7</ele></trkpt>
<trkpt lat="-39.774900" lon="-73.168548"><ele>191.3</ele></trkpt>
<trkpt lat="-39.775268" lon="-73.168514"><ele>220.3</ele></trkpt>
<trkpt lat="-39.775462" lon="-73.168358"><ele>220.3</ele></trkpt>
<trkpt lat="-39.775552" lon="-73.168140"><ele>220.3</ele></trkpt>
<trkpt lat="-39.775561" lon="-73.167499"><ele>220.3</ele></trkpt>
<trkpt lat="-39.775302" lon="-73.167129"><ele>220.3</ele></trkpt>
<trkpt lat="-39.774826" lon="-73.166916"><ele>191.3</ele></trkpt>
<trkpt lat="-39.774461" lon="-73.166603"><ele>235.3</ele></trkpt>
<trkpt lat="-39.774291" lon="-73.166135"><ele>235.3</ele></trkpt>
<trkpt lat="-39.774239" lon="-73.165576"><ele>235.3</ele></trkpt>
<trkpt lat="-39.773746" lon="-73.164893"><ele>235.3</ele></trkpt>
<trkpt lat="-39.773426" lon="-73.164807"><ele>235.3</ele></trkpt>
<trkpt lat="-39.773143" lon="-73.164976"><ele>235.3</ele></trkpt>
<trkpt lat="-39.772858" lon="-73.165286"><ele>231.6</ele></trkpt>
<trkpt lat="-39.772494" lon="-73.165377"><ele>231.6</ele></trkpt>
<trkpt lat="-39.772071" lon="-73.165222"><ele>231.6</ele></trkpt>
<trkpt lat="-39.771986" lon="-73.165102"><ele>231.6</ele></trkpt>
<trkpt lat="-39.771917" lon="-73.164666"><ele>231.6</ele></trkpt>
<trkpt lat="-39.772232" lon="-73.163825"><ele>238.2</ele></trkpt>
<trkpt lat="-39.772763" lon="-73.163374"><ele>238.2</ele></trkpt>
<trkpt lat="-39.773161" lon="-73.163235"><ele>263.0</ele></trkpt>
<trkpt lat="-39.774096" lon="-73.163169"><ele>263.0</ele></trkpt>
<trkpt lat="-39.774969" lon="-73.162198"><ele>255.0</ele></trkpt>
<trkpt lat="-39.775196" lon="-73.161801"><ele>269.0</ele></trkpt>
<trkpt lat="-39.775136" lon="-73.161506"><ele>269.0</ele></trkpt>
<trkpt lat="-39.775317" lon="-73.161459"><ele>269.0</ele></trkpt>
<trkpt lat="-39.775874" lon="-73.161670"><ele>269.0</ele></trkpt>
<trkpt lat="-39.776102" lon="-73.161919"><ele>269.0</ele></trkpt>
<trkpt lat="-39.775928" lon="-73.162173"><ele>269.0</ele></trkpt>
<trkpt lat="-39.775662" lon="-73.162312"><ele>269.0</ele></trkpt>
<trkpt lat="-39.775485" lon="-73.162578"><ele>281.0</ele></trkpt>
<trkpt lat="-39.775067" lon="-73.163510"><ele>281.0</ele></trkpt>
<trkpt lat="-39.775055" lon="-73.163849"><ele>281.0</ele></trkpt>
<trkpt lat="-39.775310" lon="-73.164220"><ele>281.0</ele></trkpt>
</trkseg></trk>
</gpx>