<?xml version='1.0' encoding='UTF-8'?>
<gpx xmlns="http://www.topografix.com/GPX/1/1" version="1.1" creator="Mapa Bosque Abierto MTB">
  <metadata>
    <name>Cifon Rock</name>
    <desc>DH — Itata Racing Club, Coelemu, Ñuble</desc>
  </metadata>
  <trk>
    <name>Cifon Rock</name>
    <type>Downhill</type>
    <trkseg>
      <trkpt lat="-36.449111" lon="-72.731205"><ele>218.471</ele></trkpt>
      <trkpt lat="-36.449349" lon="-72.731118"><ele>217.909</ele></trkpt>
      <trkpt lat="-36.449488" lon="-72.730961"><ele>216.223</ele></trkpt>
      <trkpt lat="-36.449859" lon="-72.730004"><ele>227.465</ele></trkpt>
      <trkpt lat="-36.450281" lon="-72.729786"><ele>239.266</ele></trkpt>
      <trkpt lat="-36.450626" lon="-72.729268"><ele>232.762</ele></trkpt>
      <trkpt lat="-36.451154" lon="-72.728941"><ele>217.361</ele></trkpt>
      <trkpt lat="-36.451315" lon="-72.728718"><ele>212.909</ele></trkpt>
      <trkpt lat="-36.451579" lon="-72.727495"><ele>194.931</ele></trkpt>
      <trkpt lat="-36.451723" lon="-72.727218"><ele>188.548</ele></trkpt>
      <trkpt lat="-36.451556" lon="-72.726681"><ele>174.886</ele></trkpt>
      <trkpt lat="-36.451662" lon="-72.726258"><ele>167.913</ele></trkpt>
      <trkpt lat="-36.451979" lon="-72.725964"><ele>158.937</ele></trkpt>
      <trkpt lat="-36.452382" lon="-72.725214"><ele>147.855</ele></trkpt>
      <trkpt lat="-36.452772" lon="-72.725321"><ele>137.332</ele></trkpt>
      <trkpt lat="-36.45314" lon="-72.725032"><ele>122.908</ele></trkpt>
      <trkpt lat="-36.45322" lon="-72.725091"><ele>120.909</ele></trkpt>
      <trkpt lat="-36.45336" lon="-72.725017"><ele>119.268</ele></trkpt>
      <trkpt lat="-36.453573" lon="-72.725393"><ele>114.575</ele></trkpt>
      <trkpt lat="-36.453749" lon="-72.725455"><ele>113.597</ele></trkpt>
      <trkpt lat="-36.45393" lon="-72.725647"><ele>113.043</ele></trkpt>
      <trkpt lat="-36.454438" lon="-72.725444"><ele>111.892</ele></trkpt>
      <trkpt lat="-36.455117" lon="-72.725582"><ele>105.815</ele></trkpt>
      <trkpt lat="-36.455245" lon="-72.725711"><ele>104.354</ele></trkpt>
      <trkpt lat="-36.455238" lon="-72.726444"><ele>97.481</ele></trkpt>
      <trkpt lat="-36.455437" lon="-72.726661"><ele>95.509</ele></trkpt>
      <trkpt lat="-36.456418" lon="-72.726804"><ele>80.889</ele></trkpt>
      <trkpt lat="-36.456711" lon="-72.72725"><ele>71.48</ele></trkpt>
      <trkpt lat="-36.4571" lon="-72.727373"><ele>64.983</ele></trkpt>
      <trkpt lat="-36.45712" lon="-72.727283"><ele>63.562</ele></trkpt>
      <trkpt lat="-36.457049" lon="-72.727259"><ele>63.563</ele></trkpt>
    </trkseg>
  </trk>
</gpx>