<?xml version="1.0" encoding="UTF-8"?>
<gpx version="1.1" creator="BosqueAbierto" xmlns="http://www.topografix.com/GPX/1/1">
<trk><name>DIRECTIZIMA DH / ENDURO / NEGRA</name><trkseg>
<trkpt lat="-40.531019" lon="-73.296863"><ele>173.0</ele></trkpt>
<trkpt lat="-40.530948" lon="-73.296710"><ele>173.0</ele></trkpt>
<trkpt lat="-40.530946" lon="-73.296634"><ele>173.0</ele></trkpt>
<trkpt lat="-40.531060" lon="-73.296282"><ele>173.0</ele></trkpt>
<trkpt lat="-40.531021" lon="-73.295859"><ele>173.0</ele></trkpt>
<trkpt lat="-40.531119" lon="-73.295634"><ele>151.0</ele></trkpt>
<trkpt lat="-40.531243" lon="-73.295548"><ele>151.0</ele></trkpt>
<trkpt lat="-40.531297" lon="-73.295473"><ele>135.0</ele></trkpt>
<trkpt lat="-40.531316" lon="-73.295416"><ele>135.0</ele></trkpt>
<trkpt lat="-40.531420" lon="-73.294988"><ele>135.0</ele></trkpt>
<trkpt lat="-40.531352" lon="-73.294811"><ele>135.0</ele></trkpt>
<trkpt lat="-40.531407" lon="-73.294630"><ele>135.0</ele></trkpt>
<trkpt lat="-40.531438" lon="-73.294627"><ele>135.0</ele></trkpt>
<trkpt lat="-40.531431" lon="-73.294573"><ele>135.0</ele></trkpt>
<trkpt lat="-40.531395" lon="-73.294487"><ele>135.0</ele></trkpt>
<trkpt lat="-40.531466" lon="-73.294220"><ele>135.0</ele></trkpt>
<trkpt lat="-40.531444" lon="-73.293926"><ele>135.0</ele></trkpt>
<trkpt lat="-40.531426" lon="-73.293799"><ele>135.0</ele></trkpt>
</trkseg></trk>
<trk><name>LAS TELES ENDURO / DH AZUL</name><trkseg>
<trkpt lat="-40.532048" lon="-73.292931"><ele>132.0</ele></trkpt>
<trkpt lat="-40.531795" lon="-73.292673"><ele>132.0</ele></trkpt>
<trkpt lat="-40.531756" lon="-73.292402"><ele>132.0</ele></trkpt>
<trkpt lat="-40.531700" lon="-73.292250"><ele>132.0</ele></trkpt>
<trkpt lat="-40.531673" lon="-73.292167"><ele>132.0</ele></trkpt>
<trkpt lat="-40.531617" lon="-73.292002"><ele>132.0</ele></trkpt>
<trkpt lat="-40.531597" lon="-73.291911"><ele>132.0</ele></trkpt>
<trkpt lat="-40.531584" lon="-73.291832"><ele>132.0</ele></trkpt>
<trkpt lat="-40.531559" lon="-73.291765"><ele>132.0</ele></trkpt>
<trkpt lat="-40.531467" lon="-73.291656"><ele>111.0</ele></trkpt>
<trkpt lat="-40.531418" lon="-73.291515"><ele>111.0</ele></trkpt>
<trkpt lat="-40.531434" lon="-73.291438"><ele>111.0</ele></trkpt>
<trkpt lat="-40.531446" lon="-73.291358"><ele>111.0</ele></trkpt>
<trkpt lat="-40.531433" lon="-73.291276"><ele>111.0</ele></trkpt>
<trkpt lat="-40.531400" lon="-73.291209"><ele>111.0</ele></trkpt>
<trkpt lat="-40.531371" lon="-73.291148"><ele>111.0</ele></trkpt>
<trkpt lat="-40.531342" lon="-73.291081"><ele>111.0</ele></trkpt>
<trkpt lat="-40.531297" lon="-73.291035"><ele>111.0</ele></trkpt>
<trkpt lat="-40.531256" lon="-73.290987"><ele>111.0</ele></trkpt>
<trkpt lat="-40.531232" lon="-73.290923"><ele>113.0</ele></trkpt>
<trkpt lat="-40.531249" lon="-73.290863"><ele>113.0</ele></trkpt>
<trkpt lat="-40.531301" lon="-73.290801"><ele>111.0</ele></trkpt>
<trkpt lat="-40.531345" lon="-73.290732"><ele>111.0</ele></trkpt>
<trkpt lat="-40.531370" lon="-73.290655"><ele>111.0</ele></trkpt>
<trkpt lat="-40.531391" lon="-73.290591"><ele>111.0</ele></trkpt>
<trkpt lat="-40.531419" lon="-73.290540"><ele>111.0</ele></trkpt>
<trkpt lat="-40.531487" lon="-73.290422"><ele>111.0</ele></trkpt>
<trkpt lat="-40.531542" lon="-73.290221"><ele>111.0</ele></trkpt>
<trkpt lat="-40.531572" lon="-73.290045"><ele>111.0</ele></trkpt>
<trkpt lat="-40.531574" lon="-73.289774"><ele>111.0</ele></trkpt>
<trkpt lat="-40.531584" lon="-73.289663"><ele>111.0</ele></trkpt>
<trkpt lat="-40.531597" lon="-73.289556"><ele>90.0</ele></trkpt>
<trkpt lat="-40.531606" lon="-73.289452"><ele>90.0</ele></trkpt>
<trkpt lat="-40.531608" lon="-73.289332"><ele>90.0</ele></trkpt>
<trkpt lat="-40.531619" lon="-73.289223"><ele>90.0</ele></trkpt>
<trkpt lat="-40.531630" lon="-73.289006"><ele>90.0</ele></trkpt>
<trkpt lat="-40.531632" lon="-73.288810"><ele>90.0</ele></trkpt>
<trkpt lat="-40.531634" lon="-73.288723"><ele>90.0</ele></trkpt>
<trkpt lat="-40.531645" lon="-73.288623"><ele>90.0</ele></trkpt>
<trkpt lat="-40.531676" lon="-73.288567"><ele>90.0</ele></trkpt>
<trkpt lat="-40.531725" lon="-73.288551"><ele>90.0</ele></trkpt>
<trkpt lat="-40.531776" lon="-73.288533"><ele>90.0</ele></trkpt>
<trkpt lat="-40.531815" lon="-73.288515"><ele>90.0</ele></trkpt>
<trkpt lat="-40.531869" lon="-73.288494"><ele>90.0</ele></trkpt>
<trkpt lat="-40.532017" lon="-73.288458"><ele>90.0</ele></trkpt>
<trkpt lat="-40.532098" lon="-73.288427"><ele>90.0</ele></trkpt>
<trkpt lat="-40.532162" lon="-73.288400"><ele>90.0</ele></trkpt>
<trkpt lat="-40.532247" lon="-73.288350"><ele>90.0</ele></trkpt>
<trkpt lat="-40.532366" lon="-73.288268"><ele>90.0</ele></trkpt>
<trkpt lat="-40.532407" lon="-73.288259"><ele>90.0</ele></trkpt>
<trkpt lat="-40.532440" lon="-73.288276"><ele>90.0</ele></trkpt>
<trkpt lat="-40.532449" lon="-73.288338"><ele>90.0</ele></trkpt>
<trkpt lat="-40.532442" lon="-73.288413"><ele>90.0</ele></trkpt>
<trkpt lat="-40.532432" lon="-73.288487"><ele>90.0</ele></trkpt>
<trkpt lat="-40.532407" lon="-73.288551"><ele>90.0</ele></trkpt>
<trkpt lat="-40.532371" lon="-73.288596"><ele>90.0</ele></trkpt>
<trkpt lat="-40.532337" lon="-73.288626"><ele>90.0</ele></trkpt>
<trkpt lat="-40.532323" lon="-73.288660"><ele>90.0</ele></trkpt>
<trkpt lat="-40.532330" lon="-73.288700"><ele>90.0</ele></trkpt>
<trkpt lat="-40.532352" lon="-73.288736"><ele>90.0</ele></trkpt>
<trkpt lat="-40.532408" lon="-73.288773"><ele>90.0</ele></trkpt>
<trkpt lat="-40.532465" lon="-73.288797"><ele>90.0</ele></trkpt>
<trkpt lat="-40.532524" lon="-73.288818"><ele>90.0</ele></trkpt>
<trkpt lat="-40.532579" lon="-73.288828"><ele>90.0</ele></trkpt>
<trkpt lat="-40.532675" lon="-73.288752"><ele>90.0</ele></trkpt>
<trkpt lat="-40.532735" lon="-73.288689"><ele>90.0</ele></trkpt>
<trkpt lat="-40.532817" lon="-73.288738"><ele>90.0</ele></trkpt>
</trkseg></trk>
<trk><name>MIRADOR ENDURO / DH AZUL</name><trkseg>
<trkpt lat="-40.532195" lon="-73.297333"><ele>190.0</ele></trkpt>
<trkpt lat="-40.532205" lon="-73.297238"><ele>190.0</ele></trkpt>
<trkpt lat="-40.532243" lon="-73.297098"><ele>190.0</ele></trkpt>
<trkpt lat="-40.532257" lon="-73.296957"><ele>190.0</ele></trkpt>
<trkpt lat="-40.532278" lon="-73.296828"><ele>190.0</ele></trkpt>
<trkpt lat="-40.532322" lon="-73.296780"><ele>190.0</ele></trkpt>
<trkpt lat="-40.532398" lon="-73.296706"><ele>190.0</ele></trkpt>
<trkpt lat="-40.532464" lon="-73.296651"><ele>190.0</ele></trkpt>
<trkpt lat="-40.532658" lon="-73.296596"><ele>190.0</ele></trkpt>
<trkpt lat="-40.532843" lon="-73.296524"><ele>190.0</ele></trkpt>
<trkpt lat="-40.532905" lon="-73.296469"><ele>190.0</ele></trkpt>
<trkpt lat="-40.532946" lon="-73.296451"><ele>190.0</ele></trkpt>
<trkpt lat="-40.532984" lon="-73.296403"><ele>190.0</ele></trkpt>
<trkpt lat="-40.533034" lon="-73.296367"><ele>190.0</ele></trkpt>
<trkpt lat="-40.533077" lon="-73.296274"><ele>190.0</ele></trkpt>
<trkpt lat="-40.533053" lon="-73.296101"><ele>190.0</ele></trkpt>
<trkpt lat="-40.533003" lon="-73.296007"><ele>190.0</ele></trkpt>
<trkpt lat="-40.532992" lon="-73.295911"><ele>190.0</ele></trkpt>
<trkpt lat="-40.533033" lon="-73.295806"><ele>135.0</ele></trkpt>
<trkpt lat="-40.533074" lon="-73.295702"><ele>135.0</ele></trkpt>
<trkpt lat="-40.533101" lon="-73.295595"><ele>135.0</ele></trkpt>
<trkpt lat="-40.533068" lon="-73.295498"><ele>135.0</ele></trkpt>
<trkpt lat="-40.533004" lon="-73.295445"><ele>135.0</ele></trkpt>
<trkpt lat="-40.532900" lon="-73.295348"><ele>135.0</ele></trkpt>
<trkpt lat="-40.532782" lon="-73.295321"><ele>135.0</ele></trkpt>
<trkpt lat="-40.532692" lon="-73.295307"><ele>135.0</ele></trkpt>
<trkpt lat="-40.532610" lon="-73.295268"><ele>135.0</ele></trkpt>
<trkpt lat="-40.532450" lon="-73.295333"><ele>135.0</ele></trkpt>
<trkpt lat="-40.532357" lon="-73.295424"><ele>135.0</ele></trkpt>
<trkpt lat="-40.532267" lon="-73.295445"><ele>135.0</ele></trkpt>
<trkpt lat="-40.532182" lon="-73.295257"><ele>135.0</ele></trkpt>
<trkpt lat="-40.532131" lon="-73.295193"><ele>135.0</ele></trkpt>
<trkpt lat="-40.532069" lon="-73.295074"><ele>135.0</ele></trkpt>
<trkpt lat="-40.532005" lon="-73.294989"><ele>135.0</ele></trkpt>
<trkpt lat="-40.532001" lon="-73.294892"><ele>135.0</ele></trkpt>
<trkpt lat="-40.531984" lon="-73.294811"><ele>135.0</ele></trkpt>
<trkpt lat="-40.531938" lon="-73.294704"><ele>135.0</ele></trkpt>
<trkpt lat="-40.531881" lon="-73.294609"><ele>135.0</ele></trkpt>
<trkpt lat="-40.531808" lon="-73.294594"><ele>135.0</ele></trkpt>
<trkpt lat="-40.531711" lon="-73.294595"><ele>135.0</ele></trkpt>
<trkpt lat="-40.531650" lon="-73.294593"><ele>135.0</ele></trkpt>
<trkpt lat="-40.531578" lon="-73.294536"><ele>135.0</ele></trkpt>
<trkpt lat="-40.531558" lon="-73.294442"><ele>135.0</ele></trkpt>
<trkpt lat="-40.531556" lon="-73.294327"><ele>135.0</ele></trkpt>
<trkpt lat="-40.531476" lon="-73.294053"><ele>135.0</ele></trkpt>
<trkpt lat="-40.531464" lon="-73.293901"><ele>135.0</ele></trkpt>
<trkpt lat="-40.531447" lon="-73.293798"><ele>135.0</ele></trkpt>
</trkseg></trk>
<trk><name>SUBIDA PEDALEABLE</name><trkseg>
<trkpt lat="-40.531509" lon="-73.293510"><ele>132.0</ele></trkpt>
<trkpt lat="-40.531549" lon="-73.293197"><ele>132.0</ele></trkpt>
<trkpt lat="-40.531609" lon="-73.292487"><ele>132.0</ele></trkpt>
<trkpt lat="-40.531612" lon="-73.292176"><ele>132.0</ele></trkpt>
<trkpt lat="-40.531495" lon="-73.291888"><ele>132.0</ele></trkpt>
<trkpt lat="-40.531332" lon="-73.291567"><ele>111.0</ele></trkpt>
<trkpt lat="-40.531232" lon="-73.291216"><ele>113.0</ele></trkpt>
<trkpt lat="-40.531128" lon="-73.290847"><ele>113.0</ele></trkpt>
<trkpt lat="-40.531212" lon="-73.290425"><ele>113.0</ele></trkpt>
<trkpt lat="-40.531408" lon="-73.289294"><ele>90.0</ele></trkpt>
<trkpt lat="-40.531388" lon="-73.288871"><ele>90.0</ele></trkpt>
<trkpt lat="-40.531254" lon="-73.288127"><ele>90.0</ele></trkpt>
<trkpt lat="-40.531149" lon="-73.287295"><ele>79.0</ele></trkpt>
<trkpt lat="-40.531245" lon="-73.287136"><ele>79.0</ele></trkpt>
<trkpt lat="-40.531516" lon="-73.286902"><ele>85.0</ele></trkpt>
<trkpt lat="-40.531624" lon="-73.286802"><ele>85.0</ele></trkpt>
<trkpt lat="-40.531721" lon="-73.286646"><ele>85.0</ele></trkpt>
<trkpt lat="-40.531987" lon="-73.286546"><ele>85.0</ele></trkpt>
<trkpt lat="-40.532229" lon="-73.286505"><ele>85.0</ele></trkpt>
<trkpt lat="-40.532553" lon="-73.286542"><ele>85.0</ele></trkpt>
<trkpt lat="-40.532727" lon="-73.286601"><ele>85.0</ele></trkpt>
<trkpt lat="-40.532901" lon="-73.286684"><ele>85.0</ele></trkpt>
<trkpt lat="-40.532945" lon="-73.286814"><ele>85.0</ele></trkpt>
<trkpt lat="-40.533010" lon="-73.287360"><ele>85.0</ele></trkpt>
<trkpt lat="-40.532920" lon="-73.287456"><ele>85.0</ele></trkpt>
<trkpt lat="-40.532837" lon="-73.287624"><ele>90.0</ele></trkpt>
<trkpt lat="-40.532757" lon="-73.287789"><ele>90.0</ele></trkpt>
<trkpt lat="-40.532734" lon="-73.287975"><ele>90.0</ele></trkpt>
<trkpt lat="-40.532843" lon="-73.288024"><ele>90.0</ele></trkpt>
<trkpt lat="-40.532928" lon="-73.288036"><ele>90.0</ele></trkpt>
<trkpt lat="-40.532933" lon="-73.288147"><ele>90.0</ele></trkpt>
<trkpt lat="-40.532900" lon="-73.288361"><ele>90.0</ele></trkpt>
<trkpt lat="-40.532869" lon="-73.288582"><ele>90.0</ele></trkpt>
</trkseg></trk>
<trk><name>Subida Pedaleable 2</name><trkseg>
<trkpt lat="-40.531403" lon="-73.293648"><ele>132.0</ele></trkpt>
<trkpt lat="-40.531185" lon="-73.293811"><ele>151.0</ele></trkpt>
<trkpt lat="-40.531132" lon="-73.293974"><ele>151.0</ele></trkpt>
<trkpt lat="-40.531018" lon="-73.294091"><ele>151.0</ele></trkpt>
<trkpt lat="-40.530599" lon="-73.294191"><ele>151.0</ele></trkpt>
<trkpt lat="-40.530390" lon="-73.294439"><ele>151.0</ele></trkpt>
<trkpt lat="-40.530224" lon="-73.294504"><ele>151.0</ele></trkpt>
<trkpt lat="-40.530082" lon="-73.294606"><ele>151.0</ele></trkpt>
<trkpt lat="-40.529844" lon="-73.294840"><ele>151.0</ele></trkpt>
<trkpt lat="-40.529247" lon="-73.295120"><ele>151.0</ele></trkpt>
<trkpt lat="-40.529164" lon="-73.295211"><ele>147.0</ele></trkpt>
<trkpt lat="-40.529133" lon="-73.295322"><ele>147.0</ele></trkpt>
<trkpt lat="-40.528987" lon="-73.295537"><ele>147.0</ele></trkpt>
<trkpt lat="-40.528952" lon="-73.296290"><ele>146.0</ele></trkpt>
<trkpt lat="-40.528998" lon="-73.296372"><ele>146.0</ele></trkpt>
<trkpt lat="-40.529075" lon="-73.296418"><ele>146.0</ele></trkpt>
<trkpt lat="-40.529167" lon="-73.296581"><ele>173.0</ele></trkpt>
<trkpt lat="-40.529218" lon="-73.296587"><ele>173.0</ele></trkpt>
<trkpt lat="-40.529347" lon="-73.296421"><ele>173.0</ele></trkpt>
<trkpt lat="-40.529448" lon="-73.296379"><ele>173.0</ele></trkpt>
<trkpt lat="-40.529570" lon="-73.296225"><ele>173.0</ele></trkpt>
<trkpt lat="-40.529629" lon="-73.296208"><ele>173.0</ele></trkpt>
<trkpt lat="-40.529668" lon="-73.296155"><ele>173.0</ele></trkpt>
<trkpt lat="-40.529704" lon="-73.296135"><ele>173.0</ele></trkpt>
<trkpt lat="-40.529853" lon="-73.296161"><ele>173.0</ele></trkpt>
<trkpt lat="-40.529907" lon="-73.296077"><ele>173.0</ele></trkpt>
<trkpt lat="-40.529969" lon="-73.296054"><ele>173.0</ele></trkpt>
<trkpt lat="-40.530083" lon="-73.296154"><ele>173.0</ele></trkpt>
<trkpt lat="-40.530167" lon="-73.296173"><ele>173.0</ele></trkpt>
<trkpt lat="-40.530367" lon="-73.296531"><ele>173.0</ele></trkpt>
<trkpt lat="-40.530457" lon="-73.296594"><ele>173.0</ele></trkpt>
<trkpt lat="-40.530574" lon="-73.296586"><ele>173.0</ele></trkpt>
<trkpt lat="-40.530657" lon="-73.296620"><ele>173.0</ele></trkpt>
<trkpt lat="-40.530846" lon="-73.296825"><ele>173.0</ele></trkpt>
<trkpt lat="-40.530961" lon="-73.296888"><ele>173.0</ele></trkpt>
<trkpt lat="-40.531137" lon="-73.296955"><ele>173.0</ele></trkpt>
<trkpt lat="-40.531526" lon="-73.296957"><ele>190.0</ele></trkpt>
<trkpt lat="-40.531919" lon="-73.297038"><ele>190.0</ele></trkpt>
<trkpt lat="-40.532165" lon="-73.297314"><ele>190.0</ele></trkpt>
</trkseg></trk>
</gpx>