<?xml version="1.0" encoding="UTF-8"?>
<gpx version="1.1" creator="Mapa Bosque Abierto MTB"
  xmlns="http://www.topografix.com/GPX/1/1"
  xmlns:xsi="http://www.w3.org/2001/XMLSchema-instance"
  xsi:schemaLocation="http://www.topografix.com/GPX/1/1 http://www.topografix.com/GPX/1/1/gpx.xsd">
  <metadata>
    <name>Lanco Bike Park</name>
    <desc>3 pistas DH — Econauta Expediciones, Lanco, Los Ríos</desc>
    <time>2026-06-24T02:05:32Z</time>
  </metadata>
  <trk>
    <name>Clásica</name>
    <type>Downhill</type>
    <trkseg>
      <trkpt lat="-39.43420297" lon="-72.80451603"><ele>265.5</ele></trkpt>
      <trkpt lat="-39.43424363" lon="-72.80445436"><ele>265.4</ele></trkpt>
      <trkpt lat="-39.43428511" lon="-72.8043946"><ele>264.2</ele></trkpt>
      <trkpt lat="-39.43432987" lon="-72.80430536"><ele>263.9</ele></trkpt>
      <trkpt lat="-39.43435358" lon="-72.80420257"><ele>265.9</ele></trkpt>
      <trkpt lat="-39.43439309" lon="-72.80412911"><ele>265.2</ele></trkpt>
      <trkpt lat="-39.43443629" lon="-72.80406137"><ele>264.9</ele></trkpt>
      <trkpt lat="-39.43447529" lon="-72.80398978"><ele>263.2</ele></trkpt>
      <trkpt lat="-39.4344925" lon="-72.80391359"><ele>259.3</ele></trkpt>
      <trkpt lat="-39.4345086" lon="-72.80381508"><ele>257.8</ele></trkpt>
      <trkpt lat="-39.43450493" lon="-72.80367016"><ele>256.1</ele></trkpt>
      <trkpt lat="-39.43453284" lon="-72.80353401"><ele>255.6</ele></trkpt>
      <trkpt lat="-39.43455576" lon="-72.80342688"><ele>255.2</ele></trkpt>
      <trkpt lat="-39.43456136" lon="-72.80330309"><ele>255.7</ele></trkpt>
      <trkpt lat="-39.43456299" lon="-72.80317904"><ele>255.3</ele></trkpt>
      <trkpt lat="-39.43455065" lon="-72.8030749"><ele>254.4</ele></trkpt>
      <trkpt lat="-39.43454941" lon="-72.80296967"><ele>252.3</ele></trkpt>
      <trkpt lat="-39.43453825" lon="-72.80286408"><ele>252.0</ele></trkpt>
      <trkpt lat="-39.43451258" lon="-72.80276235"><ele>252.7</ele></trkpt>
      <trkpt lat="-39.43448983" lon="-72.80265171"><ele>252.5</ele></trkpt>
      <trkpt lat="-39.43446526" lon="-72.80253523"><ele>252.7</ele></trkpt>
      <trkpt lat="-39.43446302" lon="-72.80242837"><ele>251.4</ele></trkpt>
      <trkpt lat="-39.43446626" lon="-72.80231494"><ele>251.9</ele></trkpt>
      <trkpt lat="-39.43447438" lon="-72.80221781"><ele>251.6</ele></trkpt>
      <trkpt lat="-39.43448789" lon="-72.80212435"><ele>251.1</ele></trkpt>
      <trkpt lat="-39.43450093" lon="-72.80204123"><ele>251.2</ele></trkpt>
      <trkpt lat="-39.43452363" lon="-72.8019523"><ele>251.7</ele></trkpt>
      <trkpt lat="-39.43453502" lon="-72.80187219"><ele>251.0</ele></trkpt>
      <trkpt lat="-39.43452334" lon="-72.80179145"><ele>248.6</ele></trkpt>
      <trkpt lat="-39.43450034" lon="-72.80171213"><ele>246.6</ele></trkpt>
      <trkpt lat="-39.4344588" lon="-72.80161612"><ele>247.8</ele></trkpt>
      <trkpt lat="-39.4344198" lon="-72.80152762"><ele>246.0</ele></trkpt>
      <trkpt lat="-39.43436648" lon="-72.80144047"><ele>245.2</ele></trkpt>
      <trkpt lat="-39.43430966" lon="-72.8013809"><ele>245.7</ele></trkpt>
      <trkpt lat="-39.43426044" lon="-72.80131866"><ele>245.9</ele></trkpt>
      <trkpt lat="-39.43421537" lon="-72.80122541"><ele>244.6</ele></trkpt>
      <trkpt lat="-39.43417695" lon="-72.80116397"><ele>244.0</ele></trkpt>
      <trkpt lat="-39.43412681" lon="-72.80113652"><ele>243.8</ele></trkpt>
      <trkpt lat="-39.43408546" lon="-72.8010795"><ele>242.9</ele></trkpt>
      <trkpt lat="-39.43408628" lon="-72.80101242"><ele>241.9</ele></trkpt>
      <trkpt lat="-39.43410732" lon="-72.80092343"><ele>242.7</ele></trkpt>
      <trkpt lat="-39.43412234" lon="-72.80083584"><ele>243.6</ele></trkpt>
      <trkpt lat="-39.43417007" lon="-72.80077062"><ele>240.2</ele></trkpt>
      <trkpt lat="-39.43422353" lon="-72.80069397"><ele>240.5</ele></trkpt>
      <trkpt lat="-39.43426348" lon="-72.80062452"><ele>239.7</ele></trkpt>
      <trkpt lat="-39.43430467" lon="-72.80056941"><ele>237.6</ele></trkpt>
      <trkpt lat="-39.43437213" lon="-72.80049313"><ele>235.6</ele></trkpt>
      <trkpt lat="-39.43443993" lon="-72.8004223"><ele>233.9</ele></trkpt>
      <trkpt lat="-39.43450165" lon="-72.80038183"><ele>232.0</ele></trkpt>
      <trkpt lat="-39.43453978" lon="-72.80030483"><ele>231.3</ele></trkpt>
      <trkpt lat="-39.43457591" lon="-72.80025497"><ele>227.7</ele></trkpt>
      <trkpt lat="-39.43459765" lon="-72.80019633"><ele>225.5</ele></trkpt>
      <trkpt lat="-39.43458447" lon="-72.80011933"><ele>224.4</ele></trkpt>
      <trkpt lat="-39.43457199" lon="-72.80003084"><ele>223.3</ele></trkpt>
      <trkpt lat="-39.43458117" lon="-72.79995102"><ele>222.8</ele></trkpt>
      <trkpt lat="-39.43457393" lon="-72.79986706"><ele>222.0</ele></trkpt>
      <trkpt lat="-39.43462349" lon="-72.79980912"><ele>221.3</ele></trkpt>
      <trkpt lat="-39.43466306" lon="-72.79974084"><ele>219.4</ele></trkpt>
      <trkpt lat="-39.43470916" lon="-72.79970553"><ele>218.3</ele></trkpt>
      <trkpt lat="-39.43475345" lon="-72.79963441"><ele>214.4</ele></trkpt>
      <trkpt lat="-39.43479467" lon="-72.79956333"><ele>213.6</ele></trkpt>
      <trkpt lat="-39.43482154" lon="-72.79947566"><ele>210.5</ele></trkpt>
      <trkpt lat="-39.4348518" lon="-72.79938922"><ele>209.5</ele></trkpt>
      <trkpt lat="-39.43486268" lon="-72.79931611"><ele>204.2</ele></trkpt>
      <trkpt lat="-39.4348901" lon="-72.79925948"><ele>204.0</ele></trkpt>
      <trkpt lat="-39.43493822" lon="-72.79920207"><ele>201.5</ele></trkpt>
      <trkpt lat="-39.43497717" lon="-72.79910225"><ele>197.6</ele></trkpt>
      <trkpt lat="-39.43500319" lon="-72.79903337"><ele>196.0</ele></trkpt>
      <trkpt lat="-39.43504553" lon="-72.79893431"><ele>195.3</ele></trkpt>
      <trkpt lat="-39.43507213" lon="-72.79885072"><ele>194.5</ele></trkpt>
      <trkpt lat="-39.43510732" lon="-72.79879195"><ele>191.5</ele></trkpt>
      <trkpt lat="-39.4351758" lon="-72.79873528"><ele>190.1</ele></trkpt>
      <trkpt lat="-39.43524896" lon="-72.79876146"><ele>187.0</ele></trkpt>
      <trkpt lat="-39.43532688" lon="-72.79875521"><ele>187.0</ele></trkpt>
      <trkpt lat="-39.43541025" lon="-72.79879325"><ele>185.7</ele></trkpt>
      <trkpt lat="-39.43552588" lon="-72.7988393"><ele>181.3</ele></trkpt>
      <trkpt lat="-39.43558831" lon="-72.79879052"><ele>179.1</ele></trkpt>
      <trkpt lat="-39.43562297" lon="-72.79873215"><ele>179.7</ele></trkpt>
      <trkpt lat="-39.4356408" lon="-72.79867368"><ele>176.3</ele></trkpt>
      <trkpt lat="-39.43566364" lon="-72.79861543"><ele>174.4</ele></trkpt>
      <trkpt lat="-39.43568404" lon="-72.7985593"><ele>171.1</ele></trkpt>
      <trkpt lat="-39.43573798" lon="-72.79851673"><ele>169.9</ele></trkpt>
      <trkpt lat="-39.43580282" lon="-72.79847999"><ele>168.0</ele></trkpt>
      <trkpt lat="-39.43585938" lon="-72.79842145"><ele>168.5</ele></trkpt>
      <trkpt lat="-39.43595197" lon="-72.79834174"><ele>165.6</ele></trkpt>
      <trkpt lat="-39.4360055" lon="-72.79829757"><ele>166.9</ele></trkpt>
      <trkpt lat="-39.43606898" lon="-72.79830256"><ele>162.8</ele></trkpt>
      <trkpt lat="-39.43612843" lon="-72.79827751"><ele>160.6</ele></trkpt>
      <trkpt lat="-39.43618918" lon="-72.79832553"><ele>159.1</ele></trkpt>
      <trkpt lat="-39.43624633" lon="-72.79833615"><ele>158.2</ele></trkpt>
      <trkpt lat="-39.43629994" lon="-72.79835655"><ele>154.0</ele></trkpt>
      <trkpt lat="-39.43634826" lon="-72.79833238"><ele>152.5</ele></trkpt>
      <trkpt lat="-39.4363964" lon="-72.79835122"><ele>149.3</ele></trkpt>
      <trkpt lat="-39.43652509" lon="-72.79838123"><ele>147.6</ele></trkpt>
      <trkpt lat="-39.43659111" lon="-72.79838014"><ele>147.5</ele></trkpt>
      <trkpt lat="-39.43664117" lon="-72.79837154"><ele>147.0</ele></trkpt>
      <trkpt lat="-39.43665658" lon="-72.7982739"><ele>148.0</ele></trkpt>
      <trkpt lat="-39.43673624" lon="-72.79819018"><ele>148.2</ele></trkpt>
      <trkpt lat="-39.43679115" lon="-72.79818697"><ele>149.9</ele></trkpt>
      <trkpt lat="-39.43685073" lon="-72.79818302"><ele>149.7</ele></trkpt>
      <trkpt lat="-39.43695531" lon="-72.79813354"><ele>147.9</ele></trkpt>
      <trkpt lat="-39.4370035" lon="-72.79815962"><ele>146.9</ele></trkpt>
      <trkpt lat="-39.43707916" lon="-72.79819469"><ele>145.3</ele></trkpt>
      <trkpt lat="-39.43713388" lon="-72.79821234"><ele>144.3</ele></trkpt>
      <trkpt lat="-39.43720632" lon="-72.79825435"><ele>144.0</ele></trkpt>
      <trkpt lat="-39.43725676" lon="-72.79831623"><ele>143.7</ele></trkpt>
      <trkpt lat="-39.43736233" lon="-72.7983477"><ele>140.7</ele></trkpt>
      <trkpt lat="-39.43749293" lon="-72.7983833"><ele>136.8</ele></trkpt>
      <trkpt lat="-39.43753799" lon="-72.79840595"><ele>135.2</ele></trkpt>
      <trkpt lat="-39.43762952" lon="-72.79840045"><ele>132.6</ele></trkpt>
      <trkpt lat="-39.43769177" lon="-72.79842917"><ele>131.3</ele></trkpt>
      <trkpt lat="-39.43780123" lon="-72.79843616"><ele>128.6</ele></trkpt>
      <trkpt lat="-39.43785244" lon="-72.79842868"><ele>127.7</ele></trkpt>
      <trkpt lat="-39.43788894" lon="-72.79835989"><ele>126.6</ele></trkpt>
      <trkpt lat="-39.43792262" lon="-72.79827009"><ele>122.2</ele></trkpt>
      <trkpt lat="-39.43794718" lon="-72.79822052"><ele>121.2</ele></trkpt>
      <trkpt lat="-39.43799758" lon="-72.79816023"><ele>119.7</ele></trkpt>
      <trkpt lat="-39.4380212" lon="-72.7980808"><ele>118.6</ele></trkpt>
      <trkpt lat="-39.43804464" lon="-72.79801687"><ele>116.6</ele></trkpt>
      <trkpt lat="-39.43812146" lon="-72.79798926"><ele>116.2</ele></trkpt>
      <trkpt lat="-39.43826894" lon="-72.79802707"><ele>110.6</ele></trkpt>
      <trkpt lat="-39.43832323" lon="-72.79800679"><ele>111.0</ele></trkpt>
      <trkpt lat="-39.43847112" lon="-72.7980086"><ele>108.3</ele></trkpt>
      <trkpt lat="-39.43852774" lon="-72.79800613"><ele>107.8</ele></trkpt>
      <trkpt lat="-39.43865299" lon="-72.79808239"><ele>103.2</ele></trkpt>
      <trkpt lat="-39.43873321" lon="-72.79811376"><ele>102.5</ele></trkpt>
      <trkpt lat="-39.43890255" lon="-72.79817275"><ele>101.4</ele></trkpt>
      <trkpt lat="-39.43897421" lon="-72.79820011"><ele>100.9</ele></trkpt>
      <trkpt lat="-39.43902394" lon="-72.7981074"><ele>100.3</ele></trkpt>
      <trkpt lat="-39.4390644" lon="-72.798077"><ele>98.1</ele></trkpt>
      <trkpt lat="-39.43911386" lon="-72.79804021"><ele>97.9</ele></trkpt>
      <trkpt lat="-39.43916698" lon="-72.79806932"><ele>97.6</ele></trkpt>
      <trkpt lat="-39.43923225" lon="-72.79806066"><ele>97.1</ele></trkpt>
      <trkpt lat="-39.43938987" lon="-72.79813292"><ele>92.9</ele></trkpt>
      <trkpt lat="-39.43948333" lon="-72.79818281"><ele>90.4</ele></trkpt>
      <trkpt lat="-39.43955653" lon="-72.79825566"><ele>88.9</ele></trkpt>
      <trkpt lat="-39.43960642" lon="-72.7983557"><ele>87.4</ele></trkpt>
      <trkpt lat="-39.43963754" lon="-72.79846244"><ele>85.6</ele></trkpt>
      <trkpt lat="-39.4396531" lon="-72.79857424"><ele>84.8</ele></trkpt>
      <trkpt lat="-39.43966503" lon="-72.79868787"><ele>83.5</ele></trkpt>
      <trkpt lat="-39.43967914" lon="-72.79878311"><ele>85.6</ele></trkpt>
      <trkpt lat="-39.43969509" lon="-72.79887075"><ele>83.6</ele></trkpt>
      <trkpt lat="-39.43971406" lon="-72.7989709"><ele>83.9</ele></trkpt>
      <trkpt lat="-39.43972788" lon="-72.79904643"><ele>81.6</ele></trkpt>
      <trkpt lat="-39.43977045" lon="-72.79908797"><ele>81.0</ele></trkpt>
      <trkpt lat="-39.43981544" lon="-72.79909348"><ele>77.9</ele></trkpt>
      <trkpt lat="-39.43989335" lon="-72.79908912"><ele>75.7</ele></trkpt>
      <trkpt lat="-39.43998394" lon="-72.79910249"><ele>75.1</ele></trkpt>
      <trkpt lat="-39.44006845" lon="-72.79909594"><ele>74.3</ele></trkpt>
      <trkpt lat="-39.44014546" lon="-72.79909218"><ele>75.0</ele></trkpt>
      <trkpt lat="-39.44021466" lon="-72.79908281"><ele>72.9</ele></trkpt>
      <trkpt lat="-39.44029152" lon="-72.79906939"><ele>72.6</ele></trkpt>
      <trkpt lat="-39.44036692" lon="-72.79906507"><ele>72.2</ele></trkpt>
      <trkpt lat="-39.4404354" lon="-72.79907487"><ele>71.7</ele></trkpt>
      <trkpt lat="-39.4404792" lon="-72.79913418"><ele>71.0</ele></trkpt>
      <trkpt lat="-39.440517" lon="-72.79919055"><ele>70.6</ele></trkpt>
      <trkpt lat="-39.44055153" lon="-72.79923683"><ele>71.0</ele></trkpt>
      <trkpt lat="-39.44058525" lon="-72.79929"><ele>71.5</ele></trkpt>
      <trkpt lat="-39.44061571" lon="-72.79934325"><ele>70.6</ele></trkpt>
    </trkseg>
  </trk>
  <trk>
    <name>20 Mil</name>
    <type>Downhill</type>
    <trkseg>
      <trkpt lat="-39.43420412" lon="-72.8046203"><ele>264.3</ele></trkpt>
      <trkpt lat="-39.43429398" lon="-72.80454053"><ele>268.6</ele></trkpt>
      <trkpt lat="-39.43434767" lon="-72.80452422"><ele>268.0</ele></trkpt>
      <trkpt lat="-39.43442799" lon="-72.80450363"><ele>263.5</ele></trkpt>
      <trkpt lat="-39.43451984" lon="-72.80442575"><ele>262.1</ele></trkpt>
      <trkpt lat="-39.43456869" lon="-72.80434735"><ele>262.4</ele></trkpt>
      <trkpt lat="-39.43459067" lon="-72.80428204"><ele>261.4</ele></trkpt>
      <trkpt lat="-39.43462996" lon="-72.80422935"><ele>257.2</ele></trkpt>
      <trkpt lat="-39.43463291" lon="-72.80414769"><ele>259.9</ele></trkpt>
      <trkpt lat="-39.43462952" lon="-72.80407853"><ele>260.6</ele></trkpt>
      <trkpt lat="-39.43461121" lon="-72.80400612"><ele>262.3</ele></trkpt>
      <trkpt lat="-39.43460785" lon="-72.80391652"><ele>262.0</ele></trkpt>
      <trkpt lat="-39.43459582" lon="-72.80382443"><ele>257.2</ele></trkpt>
      <trkpt lat="-39.43458417" lon="-72.80375001"><ele>255.5</ele></trkpt>
      <trkpt lat="-39.43461356" lon="-72.80364242"><ele>255.9</ele></trkpt>
      <trkpt lat="-39.43462098" lon="-72.80356463"><ele>254.0</ele></trkpt>
      <trkpt lat="-39.43467897" lon="-72.80348358"><ele>254.1</ele></trkpt>
      <trkpt lat="-39.4347218" lon="-72.8034279"><ele>254.6</ele></trkpt>
      <trkpt lat="-39.43478404" lon="-72.80338807"><ele>256.0</ele></trkpt>
      <trkpt lat="-39.4348818" lon="-72.8033567"><ele>255.3</ele></trkpt>
      <trkpt lat="-39.43493831" lon="-72.80331722"><ele>253.2</ele></trkpt>
      <trkpt lat="-39.43498545" lon="-72.80325715"><ele>251.9</ele></trkpt>
      <trkpt lat="-39.43503242" lon="-72.80318385"><ele>251.4</ele></trkpt>
      <trkpt lat="-39.43506563" lon="-72.80311639"><ele>249.4</ele></trkpt>
      <trkpt lat="-39.43508442" lon="-72.80303856"><ele>250.0</ele></trkpt>
      <trkpt lat="-39.4351146" lon="-72.80293962"><ele>248.1</ele></trkpt>
      <trkpt lat="-39.43514469" lon="-72.8028513"><ele>248.6</ele></trkpt>
      <trkpt lat="-39.43515842" lon="-72.8027582"><ele>248.4</ele></trkpt>
      <trkpt lat="-39.43517986" lon="-72.80266706"><ele>248.6</ele></trkpt>
      <trkpt lat="-39.43518424" lon="-72.80259704"><ele>247.4</ele></trkpt>
      <trkpt lat="-39.43520516" lon="-72.80252867"><ele>246.6</ele></trkpt>
      <trkpt lat="-39.43525068" lon="-72.80246646"><ele>245.0</ele></trkpt>
      <trkpt lat="-39.43531497" lon="-72.80243309"><ele>244.3</ele></trkpt>
      <trkpt lat="-39.43538703" lon="-72.80242325"><ele>241.0</ele></trkpt>
      <trkpt lat="-39.43546379" lon="-72.80241684"><ele>237.9</ele></trkpt>
      <trkpt lat="-39.43553583" lon="-72.80240759"><ele>234.0</ele></trkpt>
      <trkpt lat="-39.43560876" lon="-72.80240919"><ele>232.6</ele></trkpt>
      <trkpt lat="-39.43567873" lon="-72.80240726"><ele>231.8</ele></trkpt>
      <trkpt lat="-39.43574441" lon="-72.80244201"><ele>227.2</ele></trkpt>
      <trkpt lat="-39.43580167" lon="-72.80244332"><ele>225.0</ele></trkpt>
      <trkpt lat="-39.43585825" lon="-72.80239234"><ele>223.7</ele></trkpt>
      <trkpt lat="-39.43588336" lon="-72.80232886"><ele>223.0</ele></trkpt>
      <trkpt lat="-39.4359106" lon="-72.80225349"><ele>224.2</ele></trkpt>
      <trkpt lat="-39.43594179" lon="-72.80216923"><ele>223.8</ele></trkpt>
      <trkpt lat="-39.43598449" lon="-72.80208983"><ele>223.2</ele></trkpt>
      <trkpt lat="-39.43601481" lon="-72.80203355"><ele>222.9</ele></trkpt>
      <trkpt lat="-39.43605925" lon="-72.80201543"><ele>221.6</ele></trkpt>
      <trkpt lat="-39.43612402" lon="-72.80202542"><ele>221.0</ele></trkpt>
      <trkpt lat="-39.43619087" lon="-72.80203973"><ele>218.7</ele></trkpt>
      <trkpt lat="-39.43625075" lon="-72.80203103"><ele>219.2</ele></trkpt>
      <trkpt lat="-39.43631813" lon="-72.80200605"><ele>218.1</ele></trkpt>
      <trkpt lat="-39.43638594" lon="-72.80196625"><ele>214.4</ele></trkpt>
      <trkpt lat="-39.43644575" lon="-72.80191847"><ele>213.8</ele></trkpt>
      <trkpt lat="-39.43649786" lon="-72.80188406"><ele>213.9</ele></trkpt>
      <trkpt lat="-39.43655454" lon="-72.80180632"><ele>212.0</ele></trkpt>
      <trkpt lat="-39.4366181" lon="-72.80173565"><ele>211.3</ele></trkpt>
      <trkpt lat="-39.43667146" lon="-72.80167834"><ele>211.8</ele></trkpt>
      <trkpt lat="-39.43676459" lon="-72.80168491"><ele>206.5</ele></trkpt>
      <trkpt lat="-39.43683687" lon="-72.80164962"><ele>206.5</ele></trkpt>
      <trkpt lat="-39.43689053" lon="-72.80157178"><ele>205.6</ele></trkpt>
      <trkpt lat="-39.43695861" lon="-72.80151274"><ele>204.3</ele></trkpt>
      <trkpt lat="-39.43700262" lon="-72.801406"><ele>196.7</ele></trkpt>
      <trkpt lat="-39.43705734" lon="-72.80132935"><ele>198.8</ele></trkpt>
      <trkpt lat="-39.43703685" lon="-72.80118552"><ele>194.2</ele></trkpt>
      <trkpt lat="-39.43704883" lon="-72.80109106"><ele>192.6</ele></trkpt>
      <trkpt lat="-39.43706121" lon="-72.80101064"><ele>191.9</ele></trkpt>
      <trkpt lat="-39.43706453" lon="-72.80090667"><ele>188.9</ele></trkpt>
      <trkpt lat="-39.43707504" lon="-72.80082635"><ele>189.8</ele></trkpt>
      <trkpt lat="-39.43707187" lon="-72.80075025"><ele>187.5</ele></trkpt>
      <trkpt lat="-39.43707028" lon="-72.80067371"><ele>185.3</ele></trkpt>
      <trkpt lat="-39.4370539" lon="-72.800593"><ele>186.0</ele></trkpt>
      <trkpt lat="-39.43701683" lon="-72.80050895"><ele>185.9</ele></trkpt>
      <trkpt lat="-39.43699004" lon="-72.80042712"><ele>184.6</ele></trkpt>
      <trkpt lat="-39.43698472" lon="-72.80035727"><ele>183.5</ele></trkpt>
      <trkpt lat="-39.43696393" lon="-72.80027599"><ele>182.5</ele></trkpt>
      <trkpt lat="-39.43694933" lon="-72.80021402"><ele>180.3</ele></trkpt>
      <trkpt lat="-39.43698779" lon="-72.80010109"><ele>173.9</ele></trkpt>
      <trkpt lat="-39.43702814" lon="-72.8000399"><ele>168.8</ele></trkpt>
      <trkpt lat="-39.43707874" lon="-72.79996409"><ele>165.8</ele></trkpt>
      <trkpt lat="-39.43708812" lon="-72.79986574"><ele>163.9</ele></trkpt>
      <trkpt lat="-39.43712098" lon="-72.79977689"><ele>160.0</ele></trkpt>
      <trkpt lat="-39.43715201" lon="-72.79968762"><ele>158.4</ele></trkpt>
      <trkpt lat="-39.4371872" lon="-72.79957048"><ele>158.3</ele></trkpt>
      <trkpt lat="-39.43722586" lon="-72.79947759"><ele>156.4</ele></trkpt>
      <trkpt lat="-39.43724202" lon="-72.79937792"><ele>157.5</ele></trkpt>
      <trkpt lat="-39.43730935" lon="-72.79934643"><ele>156.1</ele></trkpt>
      <trkpt lat="-39.43738473" lon="-72.79938788"><ele>155.9</ele></trkpt>
      <trkpt lat="-39.43746101" lon="-72.79942595"><ele>156.1</ele></trkpt>
      <trkpt lat="-39.43756113" lon="-72.79950518"><ele>148.0</ele></trkpt>
      <trkpt lat="-39.43762913" lon="-72.79952037"><ele>148.2</ele></trkpt>
      <trkpt lat="-39.43768354" lon="-72.7994944"><ele>147.7</ele></trkpt>
      <trkpt lat="-39.43773467" lon="-72.79947117"><ele>149.4</ele></trkpt>
      <trkpt lat="-39.43777119" lon="-72.79939588"><ele>145.3</ele></trkpt>
      <trkpt lat="-39.43780846" lon="-72.79934326"><ele>144.9</ele></trkpt>
      <trkpt lat="-39.43787152" lon="-72.79937852"><ele>143.6</ele></trkpt>
      <trkpt lat="-39.43793837" lon="-72.79941133"><ele>141.8</ele></trkpt>
      <trkpt lat="-39.43799617" lon="-72.79945368"><ele>138.6</ele></trkpt>
      <trkpt lat="-39.4380453" lon="-72.79950557"><ele>137.9</ele></trkpt>
      <trkpt lat="-39.43810044" lon="-72.79953324"><ele>137.6</ele></trkpt>
      <trkpt lat="-39.43815681" lon="-72.79953246"><ele>137.6</ele></trkpt>
      <trkpt lat="-39.43822491" lon="-72.79951163"><ele>137.2</ele></trkpt>
      <trkpt lat="-39.43830737" lon="-72.79953208"><ele>134.0</ele></trkpt>
      <trkpt lat="-39.43836571" lon="-72.79951581"><ele>131.6</ele></trkpt>
      <trkpt lat="-39.43843976" lon="-72.79947111"><ele>130.6</ele></trkpt>
      <trkpt lat="-39.43850175" lon="-72.79944272"><ele>129.1</ele></trkpt>
      <trkpt lat="-39.43856461" lon="-72.79939601"><ele>129.0</ele></trkpt>
      <trkpt lat="-39.43862293" lon="-72.79934364"><ele>129.3</ele></trkpt>
      <trkpt lat="-39.43864817" lon="-72.79928462"><ele>128.1</ele></trkpt>
      <trkpt lat="-39.43868453" lon="-72.7992371"><ele>127.7</ele></trkpt>
      <trkpt lat="-39.43876132" lon="-72.79932912"><ele>118.5</ele></trkpt>
      <trkpt lat="-39.43880505" lon="-72.79939095"><ele>115.6</ele></trkpt>
      <trkpt lat="-39.4388433" lon="-72.79944726"><ele>115.7</ele></trkpt>
      <trkpt lat="-39.43886724" lon="-72.79950318"><ele>116.3</ele></trkpt>
      <trkpt lat="-39.43894098" lon="-72.799497"><ele>115.6</ele></trkpt>
      <trkpt lat="-39.43901501" lon="-72.79945854"><ele>113.3</ele></trkpt>
      <trkpt lat="-39.43905297" lon="-72.79942174"><ele>111.3</ele></trkpt>
      <trkpt lat="-39.43913431" lon="-72.79938862"><ele>108.4</ele></trkpt>
      <trkpt lat="-39.43919211" lon="-72.79933792"><ele>106.2</ele></trkpt>
      <trkpt lat="-39.43924986" lon="-72.79934162"><ele>100.6</ele></trkpt>
      <trkpt lat="-39.43931977" lon="-72.79935504"><ele>96.8</ele></trkpt>
      <trkpt lat="-39.43936955" lon="-72.79934792"><ele>93.7</ele></trkpt>
      <trkpt lat="-39.43942313" lon="-72.79933959"><ele>92.4</ele></trkpt>
      <trkpt lat="-39.43947866" lon="-72.79934286"><ele>87.1</ele></trkpt>
      <trkpt lat="-39.43953778" lon="-72.79937052"><ele>86.1</ele></trkpt>
      <trkpt lat="-39.4396015" lon="-72.799382"><ele>87.6</ele></trkpt>
      <trkpt lat="-39.43965427" lon="-72.79940363"><ele>86.0</ele></trkpt>
      <trkpt lat="-39.43975153" lon="-72.79953166"><ele>84.7</ele></trkpt>
      <trkpt lat="-39.43980389" lon="-72.79959375"><ele>84.9</ele></trkpt>
      <trkpt lat="-39.43986821" lon="-72.79965123"><ele>84.7</ele></trkpt>
      <trkpt lat="-39.43994135" lon="-72.79969223"><ele>82.6</ele></trkpt>
      <trkpt lat="-39.44002081" lon="-72.79971814"><ele>82.0</ele></trkpt>
      <trkpt lat="-39.44009871" lon="-72.79971965"><ele>80.8</ele></trkpt>
      <trkpt lat="-39.44022362" lon="-72.79972133"><ele>79.1</ele></trkpt>
      <trkpt lat="-39.44027383" lon="-72.79969571"><ele>79.1</ele></trkpt>
      <trkpt lat="-39.4403158" lon="-72.79963858"><ele>76.5</ele></trkpt>
    </trkseg>
  </trk>
  <trk>
    <name>420</name>
    <type>Downhill</type>
    <trkseg>
      <trkpt lat="-39.43407612" lon="-72.80489587"><ele>208.0</ele></trkpt>
      <trkpt lat="-39.43410798" lon="-72.80476688"><ele>260.8</ele></trkpt>
      <trkpt lat="-39.43406485" lon="-72.80488546"><ele>263.1</ele></trkpt>
      <trkpt lat="-39.43403248" lon="-72.80494293"><ele>265.5</ele></trkpt>
      <trkpt lat="-39.43403879" lon="-72.80500476"><ele>266.9</ele></trkpt>
      <trkpt lat="-39.43403766" lon="-72.80506879"><ele>266.1</ele></trkpt>
      <trkpt lat="-39.43410133" lon="-72.80518163"><ele>263.7</ele></trkpt>
      <trkpt lat="-39.43412977" lon="-72.80522783"><ele>260.9</ele></trkpt>
      <trkpt lat="-39.43415609" lon="-72.80535036"><ele>259.9</ele></trkpt>
      <trkpt lat="-39.43417573" lon="-72.80542098"><ele>259.5</ele></trkpt>
      <trkpt lat="-39.43420936" lon="-72.80548988"><ele>258.5</ele></trkpt>
      <trkpt lat="-39.43426744" lon="-72.80554384"><ele>256.6</ele></trkpt>
      <trkpt lat="-39.43434821" lon="-72.80555475"><ele>256.0</ele></trkpt>
      <trkpt lat="-39.43440302" lon="-72.80557726"><ele>256.6</ele></trkpt>
      <trkpt lat="-39.43444687" lon="-72.80560973"><ele>254.4</ele></trkpt>
      <trkpt lat="-39.43447887" lon="-72.80566665"><ele>256.4</ele></trkpt>
      <trkpt lat="-39.43451706" lon="-72.80570885"><ele>253.1</ele></trkpt>
      <trkpt lat="-39.4345633" lon="-72.80572925"><ele>252.0</ele></trkpt>
      <trkpt lat="-39.43462827" lon="-72.80574872"><ele>248.1</ele></trkpt>
      <trkpt lat="-39.43468473" lon="-72.80580808"><ele>247.5</ele></trkpt>
      <trkpt lat="-39.43472842" lon="-72.80583285"><ele>244.7</ele></trkpt>
      <trkpt lat="-39.43479707" lon="-72.80584986"><ele>243.4</ele></trkpt>
      <trkpt lat="-39.43487018" lon="-72.80585312"><ele>243.3</ele></trkpt>
      <trkpt lat="-39.43494135" lon="-72.8058584"><ele>242.8</ele></trkpt>
      <trkpt lat="-39.43500973" lon="-72.80586642"><ele>243.4</ele></trkpt>
      <trkpt lat="-39.43507297" lon="-72.80587503"><ele>240.7</ele></trkpt>
      <trkpt lat="-39.4351299" lon="-72.80592356"><ele>239.0</ele></trkpt>
      <trkpt lat="-39.43521241" lon="-72.80596811"><ele>238.7</ele></trkpt>
      <trkpt lat="-39.43527496" lon="-72.80603165"><ele>237.8</ele></trkpt>
      <trkpt lat="-39.43532738" lon="-72.80610869"><ele>237.3</ele></trkpt>
      <trkpt lat="-39.43539793" lon="-72.80610161"><ele>236.5</ele></trkpt>
      <trkpt lat="-39.43544826" lon="-72.80611062"><ele>237.6</ele></trkpt>
      <trkpt lat="-39.43553678" lon="-72.80607599"><ele>235.1</ele></trkpt>
      <trkpt lat="-39.43557169" lon="-72.80602572"><ele>235.1</ele></trkpt>
      <trkpt lat="-39.43560047" lon="-72.80597012"><ele>235.0</ele></trkpt>
      <trkpt lat="-39.43563676" lon="-72.8058727"><ele>233.5</ele></trkpt>
      <trkpt lat="-39.43563739" lon="-72.80575863"><ele>232.0</ele></trkpt>
      <trkpt lat="-39.4356687" lon="-72.80564507"><ele>231.2</ele></trkpt>
      <trkpt lat="-39.435736" lon="-72.80556018"><ele>231.5</ele></trkpt>
      <trkpt lat="-39.43580087" lon="-72.80550583"><ele>230.0</ele></trkpt>
      <trkpt lat="-39.43585695" lon="-72.80543869"><ele>230.2</ele></trkpt>
      <trkpt lat="-39.43591778" lon="-72.80537974"><ele>228.8</ele></trkpt>
      <trkpt lat="-39.43598388" lon="-72.80530934"><ele>227.8</ele></trkpt>
      <trkpt lat="-39.43604625" lon="-72.80526829"><ele>226.7</ele></trkpt>
      <trkpt lat="-39.43610892" lon="-72.80523738"><ele>224.2</ele></trkpt>
      <trkpt lat="-39.43615334" lon="-72.80521811"><ele>224.0</ele></trkpt>
      <trkpt lat="-39.43619619" lon="-72.80519407"><ele>223.3</ele></trkpt>
      <trkpt lat="-39.43623602" lon="-72.80516294"><ele>222.6</ele></trkpt>
      <trkpt lat="-39.43627955" lon="-72.80506542"><ele>221.7</ele></trkpt>
      <trkpt lat="-39.4362734" lon="-72.80500677"><ele>221.5</ele></trkpt>
      <trkpt lat="-39.43627627" lon="-72.80491542"><ele>222.2</ele></trkpt>
      <trkpt lat="-39.43628744" lon="-72.80481358"><ele>221.3</ele></trkpt>
      <trkpt lat="-39.43630203" lon="-72.80472739"><ele>219.5</ele></trkpt>
      <trkpt lat="-39.43629505" lon="-72.80463686"><ele>219.0</ele></trkpt>
      <trkpt lat="-39.43628854" lon="-72.80455595"><ele>218.5</ele></trkpt>
      <trkpt lat="-39.43628688" lon="-72.80446351"><ele>215.1</ele></trkpt>
      <trkpt lat="-39.43626912" lon="-72.80440349"><ele>214.5</ele></trkpt>
      <trkpt lat="-39.43623797" lon="-72.80432681"><ele>212.8</ele></trkpt>
      <trkpt lat="-39.43623083" lon="-72.80422167"><ele>209.5</ele></trkpt>
      <trkpt lat="-39.43620165" lon="-72.80416293"><ele>210.8</ele></trkpt>
      <trkpt lat="-39.43617977" lon="-72.80411206"><ele>207.6</ele></trkpt>
      <trkpt lat="-39.4361855" lon="-72.80404789"><ele>209.6</ele></trkpt>
      <trkpt lat="-39.43618824" lon="-72.80394873"><ele>210.2</ele></trkpt>
      <trkpt lat="-39.4362319" lon="-72.80387674"><ele>208.1</ele></trkpt>
      <trkpt lat="-39.43626851" lon="-72.80381924"><ele>206.7</ele></trkpt>
      <trkpt lat="-39.43633662" lon="-72.80370045"><ele>203.8</ele></trkpt>
      <trkpt lat="-39.43637791" lon="-72.80361426"><ele>202.8</ele></trkpt>
      <trkpt lat="-39.43640958" lon="-72.80352991"><ele>203.5</ele></trkpt>
      <trkpt lat="-39.43640414" lon="-72.8034234"><ele>203.8</ele></trkpt>
      <trkpt lat="-39.43641737" lon="-72.80332942"><ele>203.9</ele></trkpt>
      <trkpt lat="-39.43639354" lon="-72.80324963"><ele>203.9</ele></trkpt>
      <trkpt lat="-39.43638853" lon="-72.80317457"><ele>203.1</ele></trkpt>
      <trkpt lat="-39.43636402" lon="-72.80305761"><ele>202.2</ele></trkpt>
      <trkpt lat="-39.43638499" lon="-72.80294934"><ele>200.5</ele></trkpt>
      <trkpt lat="-39.43642361" lon="-72.80291138"><ele>198.8</ele></trkpt>
      <trkpt lat="-39.43647696" lon="-72.80285108"><ele>196.1</ele></trkpt>
      <trkpt lat="-39.43652786" lon="-72.80280971"><ele>194.8</ele></trkpt>
      <trkpt lat="-39.43655926" lon="-72.80274004"><ele>194.4</ele></trkpt>
      <trkpt lat="-39.43660275" lon="-72.80268361"><ele>194.6</ele></trkpt>
      <trkpt lat="-39.43664075" lon="-72.80260486"><ele>193.5</ele></trkpt>
      <trkpt lat="-39.4366719" lon="-72.80255612"><ele>192.3</ele></trkpt>
      <trkpt lat="-39.43673874" lon="-72.80247119"><ele>191.0</ele></trkpt>
      <trkpt lat="-39.43678329" lon="-72.80243999"><ele>189.7</ele></trkpt>
      <trkpt lat="-39.43682025" lon="-72.80238894"><ele>190.4</ele></trkpt>
      <trkpt lat="-39.43682105" lon="-72.80232765"><ele>190.1</ele></trkpt>
      <trkpt lat="-39.43681211" lon="-72.802244"><ele>190.7</ele></trkpt>
      <trkpt lat="-39.43679472" lon="-72.80213917"><ele>191.3</ele></trkpt>
      <trkpt lat="-39.43684814" lon="-72.80208137"><ele>190.7</ele></trkpt>
      <trkpt lat="-39.43689076" lon="-72.80204759"><ele>189.7</ele></trkpt>
      <trkpt lat="-39.43692352" lon="-72.8020876"><ele>189.9</ele></trkpt>
      <trkpt lat="-39.43698178" lon="-72.80215902"><ele>188.8</ele></trkpt>
      <trkpt lat="-39.43699905" lon="-72.80222242"><ele>184.4</ele></trkpt>
      <trkpt lat="-39.43705542" lon="-72.80227473"><ele>184.5</ele></trkpt>
      <trkpt lat="-39.43714737" lon="-72.80234503"><ele>181.5</ele></trkpt>
      <trkpt lat="-39.43720391" lon="-72.80241632"><ele>180.2</ele></trkpt>
      <trkpt lat="-39.43725149" lon="-72.80245743"><ele>179.4</ele></trkpt>
      <trkpt lat="-39.43733258" lon="-72.80240076"><ele>174.2</ele></trkpt>
      <trkpt lat="-39.43739402" lon="-72.80232909"><ele>173.8</ele></trkpt>
      <trkpt lat="-39.43744684" lon="-72.80223003"><ele>172.6</ele></trkpt>
      <trkpt lat="-39.43750626" lon="-72.8021371"><ele>172.4</ele></trkpt>
      <trkpt lat="-39.43754858" lon="-72.8020479"><ele>168.9</ele></trkpt>
      <trkpt lat="-39.43755283" lon="-72.80194132"><ele>169.9</ele></trkpt>
      <trkpt lat="-39.43758825" lon="-72.80186017"><ele>169.2</ele></trkpt>
      <trkpt lat="-39.43757199" lon="-72.80177121"><ele>166.6</ele></trkpt>
      <trkpt lat="-39.4375854" lon="-72.80168375"><ele>165.0</ele></trkpt>
      <trkpt lat="-39.43763078" lon="-72.80161688"><ele>163.1</ele></trkpt>
      <trkpt lat="-39.43766652" lon="-72.80150578"><ele>161.4</ele></trkpt>
      <trkpt lat="-39.43770175" lon="-72.80141659"><ele>160.0</ele></trkpt>
      <trkpt lat="-39.4377763" lon="-72.8013364"><ele>160.4</ele></trkpt>
      <trkpt lat="-39.43778004" lon="-72.80125152"><ele>162.4</ele></trkpt>
      <trkpt lat="-39.43782006" lon="-72.80117915"><ele>162.1</ele></trkpt>
      <trkpt lat="-39.43786276" lon="-72.80112812"><ele>161.8</ele></trkpt>
      <trkpt lat="-39.43795503" lon="-72.80114335"><ele>160.9</ele></trkpt>
      <trkpt lat="-39.43801481" lon="-72.80116972"><ele>155.8</ele></trkpt>
      <trkpt lat="-39.43805133" lon="-72.80108458"><ele>153.6</ele></trkpt>
      <trkpt lat="-39.43805849" lon="-72.80099949"><ele>153.0</ele></trkpt>
      <trkpt lat="-39.43802985" lon="-72.80092756"><ele>153.4</ele></trkpt>
      <trkpt lat="-39.4379683" lon="-72.80085455"><ele>149.8</ele></trkpt>
      <trkpt lat="-39.43791854" lon="-72.80082219"><ele>150.0</ele></trkpt>
      <trkpt lat="-39.43786034" lon="-72.80080551"><ele>149.6</ele></trkpt>
      <trkpt lat="-39.43779331" lon="-72.80073674"><ele>148.1</ele></trkpt>
      <trkpt lat="-39.43775013" lon="-72.80071261"><ele>148.6</ele></trkpt>
      <trkpt lat="-39.43772888" lon="-72.80064445"><ele>147.8</ele></trkpt>
      <trkpt lat="-39.43772166" lon="-72.80057466"><ele>146.9</ele></trkpt>
      <trkpt lat="-39.43779112" lon="-72.80050609"><ele>146.1</ele></trkpt>
      <trkpt lat="-39.43785803" lon="-72.80046386"><ele>146.0</ele></trkpt>
      <trkpt lat="-39.43792511" lon="-72.80040207"><ele>145.2</ele></trkpt>
      <trkpt lat="-39.43797895" lon="-72.80038478"><ele>142.7</ele></trkpt>
      <trkpt lat="-39.43804169" lon="-72.80044077"><ele>138.7</ele></trkpt>
      <trkpt lat="-39.43810718" lon="-72.80042056"><ele>138.2</ele></trkpt>
      <trkpt lat="-39.43815384" lon="-72.80036007"><ele>137.6</ele></trkpt>
      <trkpt lat="-39.43816763" lon="-72.80029051"><ele>134.7</ele></trkpt>
      <trkpt lat="-39.43820284" lon="-72.80022288"><ele>132.1</ele></trkpt>
      <trkpt lat="-39.43825806" lon="-72.80016283"><ele>132.6</ele></trkpt>
      <trkpt lat="-39.43830597" lon="-72.80012794"><ele>130.2</ele></trkpt>
      <trkpt lat="-39.43837373" lon="-72.80010178"><ele>129.2</ele></trkpt>
      <trkpt lat="-39.43845205" lon="-72.80014226"><ele>125.5</ele></trkpt>
      <trkpt lat="-39.43849722" lon="-72.80011759"><ele>126.5</ele></trkpt>
      <trkpt lat="-39.43850879" lon="-72.80003077"><ele>127.1</ele></trkpt>
      <trkpt lat="-39.4385644" lon="-72.80000828"><ele>125.1</ele></trkpt>
      <trkpt lat="-39.43862668" lon="-72.79998045"><ele>124.1</ele></trkpt>
      <trkpt lat="-39.43868936" lon="-72.79994781"><ele>123.1</ele></trkpt>
      <trkpt lat="-39.43877949" lon="-72.7999496"><ele>118.7</ele></trkpt>
      <trkpt lat="-39.43885296" lon="-72.79992927"><ele>115.6</ele></trkpt>
      <trkpt lat="-39.43890858" lon="-72.79991098"><ele>115.1</ele></trkpt>
      <trkpt lat="-39.43896323" lon="-72.79993597"><ele>113.3</ele></trkpt>
      <trkpt lat="-39.43902473" lon="-72.79999743"><ele>109.4</ele></trkpt>
      <trkpt lat="-39.43907664" lon="-72.80006651"><ele>106.5</ele></trkpt>
      <trkpt lat="-39.43914506" lon="-72.80010406"><ele>105.5</ele></trkpt>
      <trkpt lat="-39.43919903" lon="-72.80012488"><ele>101.9</ele></trkpt>
      <trkpt lat="-39.43927189" lon="-72.8001053"><ele>101.6</ele></trkpt>
      <trkpt lat="-39.43928904" lon="-72.80000339"><ele>100.0</ele></trkpt>
      <trkpt lat="-39.43934185" lon="-72.79994333"><ele>98.0</ele></trkpt>
      <trkpt lat="-39.4394037" lon="-72.7999054"><ele>96.5</ele></trkpt>
      <trkpt lat="-39.43946709" lon="-72.79987188"><ele>95.3</ele></trkpt>
      <trkpt lat="-39.43952814" lon="-72.79984571"><ele>94.4</ele></trkpt>
      <trkpt lat="-39.43958747" lon="-72.79982731"><ele>92.1</ele></trkpt>
      <trkpt lat="-39.43963686" lon="-72.79983657"><ele>91.0</ele></trkpt>
      <trkpt lat="-39.43969423" lon="-72.79984489"><ele>88.1</ele></trkpt>
      <trkpt lat="-39.43975139" lon="-72.79983371"><ele>85.7</ele></trkpt>
      <trkpt lat="-39.43981553" lon="-72.79980528"><ele>83.6</ele></trkpt>
      <trkpt lat="-39.43988271" lon="-72.79977795"><ele>80.8</ele></trkpt>
      <trkpt lat="-39.43995984" lon="-72.79974176"><ele>78.8</ele></trkpt>
      <trkpt lat="-39.44004562" lon="-72.79971446"><ele>79.1</ele></trkpt>
      <trkpt lat="-39.44013488" lon="-72.79968549"><ele>77.6</ele></trkpt>
      <trkpt lat="-39.44021668" lon="-72.7996621"><ele>77.3</ele></trkpt>
      <trkpt lat="-39.44027605" lon="-72.79964692"><ele>76.8</ele></trkpt>
      <trkpt lat="-39.44032173" lon="-72.79963251"><ele>76.6</ele></trkpt>
      <trkpt lat="-39.44038227" lon="-72.79957578"><ele>76.7</ele></trkpt>
    </trkseg>
  </trk>
</gpx>