<?xml version='1.0' encoding='UTF-8'?>
<gpx xmlns="http://www.topografix.com/GPX/1/1" version="1.1" creator="Bosque Abierto MTB">
  <metadata><name>Los Lagos Bike Park</name></metadata>
  <trk>
    <name>Villa Esperanza</name>
    <trkseg>
      <trkpt lat="-39.86869941442076" lon="-72.81857483970408"><ele>0.0</ele></trkpt>
      <trkpt lat="-39.86891039227493" lon="-72.81836116308095"><ele>0.0</ele></trkpt>
      <trkpt lat="-39.86919675025643" lon="-72.81855210340662"><ele>0.0</ele></trkpt>
      <trkpt lat="-39.86953017113505" lon="-72.81825668277412"><ele>0.0</ele></trkpt>
      <trkpt lat="-39.86970799637545" lon="-72.81822163869454"><ele>0.0</ele></trkpt>
      <trkpt lat="-39.87018436067891" lon="-72.81816701157874"><ele>0.0</ele></trkpt>
      <trkpt lat="-39.87052204231007" lon="-72.81833262344644"><ele>0.0</ele></trkpt>
      <trkpt lat="-39.8714077307579" lon="-72.82041380887941"><ele>0.0</ele></trkpt>
      <trkpt lat="-39.8716009360574" lon="-72.82115276286554"><ele>0.0</ele></trkpt>
      <trkpt lat="-39.87149682787522" lon="-72.82127008595721"><ele>0.0</ele></trkpt>
      <trkpt lat="-39.87152308612811" lon="-72.8218303911304"><ele>0.0</ele></trkpt>
      <trkpt lat="-39.87197187187367" lon="-72.82278602409471"><ele>0.0</ele></trkpt>
      <trkpt lat="-39.87211660030642" lon="-72.82287824046702"><ele>0.0</ele></trkpt>
      <trkpt lat="-39.87217057641967" lon="-72.82322865493752"><ele>0.0</ele></trkpt>
      <trkpt lat="-39.87185786568011" lon="-72.8240368857504"><ele>0.0</ele></trkpt>
      <trkpt lat="-39.8716289040342" lon="-72.82492735041028"><ele>0.0</ele></trkpt>
      <trkpt lat="-39.87140657720656" lon="-72.82537036196342"><ele>0.0</ele></trkpt>
    </trkseg>
  </trk>
  <trk>
    <name>Pista Clásica Antigua</name>
    <trkseg>
      <trkpt lat="-39.86198858651159" lon="-72.8233599564773"><ele>0.0</ele></trkpt>
      <trkpt lat="-39.86169277480624" lon="-72.82395340313568"><ele>0.0</ele></trkpt>
      <trkpt lat="-39.86168868072681" lon="-72.82437465964708"><ele>-0.0</ele></trkpt>
      <trkpt lat="-39.86294538746026" lon="-72.82619880109887"><ele>0.0</ele></trkpt>
      <trkpt lat="-39.86314597887846" lon="-72.8266115964225"><ele>-0.0</ele></trkpt>
      <trkpt lat="-39.86340678493854" lon="-72.82692171561452"><ele>-0.0</ele></trkpt>
      <trkpt lat="-39.86361258880976" lon="-72.82696555216675"><ele>-0.0</ele></trkpt>
      <trkpt lat="-39.86375185652377" lon="-72.82709246445604"><ele>0.0</ele></trkpt>
      <trkpt lat="-39.86383806936342" lon="-72.82728369639939"><ele>-0.0</ele></trkpt>
      <trkpt lat="-39.86348778915582" lon="-72.82911244937124"><ele>0.0</ele></trkpt>
      <trkpt lat="-39.8631485182037" lon="-72.82972973291254"><ele>-0.0</ele></trkpt>
      <trkpt lat="-39.8631451877845" lon="-72.83027955255461"><ele>-0.0</ele></trkpt>
      <trkpt lat="-39.86274231808784" lon="-72.83077374965353"><ele>0.0</ele></trkpt>
      <trkpt lat="-39.86249146362098" lon="-72.83124128893144"><ele>-0.0</ele></trkpt>
      <trkpt lat="-39.86223583221042" lon="-72.832063262142"><ele>-0.0</ele></trkpt>
      <trkpt lat="-39.86221682111719" lon="-72.8325517331246"><ele>0.0</ele></trkpt>
      <trkpt lat="-39.86237825637296" lon="-72.83292204928885"><ele>0.0</ele></trkpt>
      <trkpt lat="-39.86279282281102" lon="-72.83314338705563"><ele>0.0</ele></trkpt>
      <trkpt lat="-39.8632081810577" lon="-72.83368772041825"><ele>-0.0</ele></trkpt>
      <trkpt lat="-39.86336935328895" lon="-72.83479299600926"><ele>-0.0</ele></trkpt>
      <trkpt lat="-39.86394163482073" lon="-72.83538830089378"><ele>-0.0</ele></trkpt>
      <trkpt lat="-39.86415585727212" lon="-72.83589048136047"><ele>0.0</ele></trkpt>
      <trkpt lat="-39.86420659256879" lon="-72.83577285407463"><ele>-0.0</ele></trkpt>
      <trkpt lat="-39.864383305023" lon="-72.83659140859298"><ele>-0.0</ele></trkpt>
      <trkpt lat="-39.8642802961992" lon="-72.83690750272665"><ele>-0.0</ele></trkpt>
      <trkpt lat="-39.86388919745932" lon="-72.83729738614548"><ele>-0.0</ele></trkpt>
      <trkpt lat="-39.86359901815396" lon="-72.8381022517732"><ele>-0.0</ele></trkpt>
      <trkpt lat="-39.86349394279388" lon="-72.83858694152153"><ele>0.0</ele></trkpt>
      <trkpt lat="-39.86358033679936" lon="-72.83885433633273"><ele>0.0</ele></trkpt>
      <trkpt lat="-39.86354726984847" lon="-72.8393754201099"><ele>-0.0</ele></trkpt>
      <trkpt lat="-39.86320114114564" lon="-72.83973535635629"><ele>0.0</ele></trkpt>
      <trkpt lat="-39.86277466297742" lon="-72.83989410729589"><ele>0.0</ele></trkpt>
      <trkpt lat="-39.86243030517537" lon="-72.84033930101819"><ele>-0.0</ele></trkpt>
      <trkpt lat="-39.86250883254237" lon="-72.84051681852715"><ele>-0.0</ele></trkpt>
      <trkpt lat="-39.86252108973348" lon="-72.8413052660885"><ele>-0.0</ele></trkpt>
      <trkpt lat="-39.86260718376265" lon="-72.84151088344235"><ele>-0.0</ele></trkpt>
      <trkpt lat="-39.86255988392266" lon="-72.84207120666879"><ele>-0.0</ele></trkpt>
      <trkpt lat="-39.86269061641568" lon="-72.84227158283073"><ele>0.0</ele></trkpt>
      <trkpt lat="-39.8627254341274" lon="-72.84289033067611"><ele>0.0</ele></trkpt>
      <trkpt lat="-39.86244067840365" lon="-72.84350519971728"><ele>-0.0</ele></trkpt>
      <trkpt lat="-39.8622864898628" lon="-72.8436258139395"><ele>0.0</ele></trkpt>
      <trkpt lat="-39.86189290325825" lon="-72.8442829523007"><ele>-0.0</ele></trkpt>
      <trkpt lat="-39.86185999161062" lon="-72.84459551992133"><ele>-0.0</ele></trkpt>
      <trkpt lat="-39.86195015395325" lon="-72.84465162552442"><ele>0.0</ele></trkpt>
      <trkpt lat="-39.86252200384462" lon="-72.84432324594626"><ele>-0.0</ele></trkpt>
      <trkpt lat="-39.8626206119196" lon="-72.84435778496743"><ele>0.0</ele></trkpt>
      <trkpt lat="-39.86317627742888" lon="-72.8441951746751"><ele>-0.0</ele></trkpt>
      <trkpt lat="-39.86355033808705" lon="-72.84381975338597"><ele>-0.0</ele></trkpt>
      <trkpt lat="-39.86374848271562" lon="-72.84330048132168"><ele>-0.0</ele></trkpt>
      <trkpt lat="-39.86402811574267" lon="-72.84329622780254"><ele>-0.0</ele></trkpt>
      <trkpt lat="-39.86413111414416" lon="-72.84319084119988"><ele>-0.0</ele></trkpt>
      <trkpt lat="-39.86451773965685" lon="-72.84309356685021"><ele>-0.0</ele></trkpt>
      <trkpt lat="-39.86493031490089" lon="-72.84319677433179"><ele>0.0</ele></trkpt>
      <trkpt lat="-39.86531807060468" lon="-72.84319137932718"><ele>0.0</ele></trkpt>
      <trkpt lat="-39.86568241502083" lon="-72.84340970535548"><ele>-0.0</ele></trkpt>
      <trkpt lat="-39.86602373468454" lon="-72.84319563867237"><ele>-0.0</ele></trkpt>
      <trkpt lat="-39.86630586282557" lon="-72.84264546450258"><ele>-0.0</ele></trkpt>
      <trkpt lat="-39.8663411084984" lon="-72.84235010840435"><ele>-0.0</ele></trkpt>
      <trkpt lat="-39.86674449571682" lon="-72.84221797889708"><ele>-0.0</ele></trkpt>
      <trkpt lat="-39.86752533460282" lon="-72.84212205473843"><ele>-0.0</ele></trkpt>
      <trkpt lat="-39.8678511058616" lon="-72.84176354580369"><ele>-0.0</ele></trkpt>
      <trkpt lat="-39.8681198895999" lon="-72.84181402356165"><ele>-0.0</ele></trkpt>
      <trkpt lat="-39.86840865273648" lon="-72.8417554790915"><ele>-0.0</ele></trkpt>
    </trkseg>
  </trk>
</gpx>