<?xml version='1.0' encoding='UTF-8'?>
<gpx xmlns="http://www.topografix.com/GPX/1/1" xmlns:xsi="http://www.w3.org/2001/XMLSchema-instance" version="1.1" creator="Bosque Abierto MTB" xsi:schemaLocation="http://www.topografix.com/GPX/1/1 http://www.topografix.com/GPX/1/1/gpx.xsd">
  <metadata>
    <name>Los Lagos Bike Park</name>
    <desc>Villa Esperanza y Pista Clásica Antigua — Adrenalina Downhill</desc>
  </metadata>
  <trk>
    <name>Villa Esperanza</name>
    <trkseg>
      <trkpt lat="-39.871716" lon="-72.820534"><ele>495.0</ele></trkpt>
      <trkpt lat="-39.871602" lon="-72.821922"><ele>474.8</ele></trkpt>
      <trkpt lat="-39.871846" lon="-72.822404"><ele>466.6</ele></trkpt>
      <trkpt lat="-39.871888" lon="-72.822655"><ele>463.0</ele></trkpt>
      <trkpt lat="-39.872157" lon="-72.822924"><ele>456.6</ele></trkpt>
      <trkpt lat="-39.872175" lon="-72.823088"><ele>454.3</ele></trkpt>
      <trkpt lat="-39.871350" lon="-72.825442"><ele>417.4</ele></trkpt>
      <trkpt lat="-39.871368" lon="-72.826879"><ele>397.0</ele></trkpt>
      <trkpt lat="-39.871452" lon="-72.827456"><ele>388.5</ele></trkpt>
      <trkpt lat="-39.871678" lon="-72.827818"><ele>381.8</ele></trkpt>
      <trkpt lat="-39.871598" lon="-72.828051"><ele>378.2</ele></trkpt>
      <trkpt lat="-39.871681" lon="-72.828724"><ele>368.3</ele></trkpt>
      <trkpt lat="-39.871489" lon="-72.828994"><ele>363.1</ele></trkpt>
      <trkpt lat="-39.871383" lon="-72.829464"><ele>355.9</ele></trkpt>
      <trkpt lat="-39.871305" lon="-72.830047"><ele>347.6</ele></trkpt>
      <trkpt lat="-39.871426" lon="-72.830357"><ele>342.5</ele></trkpt>
      <trkpt lat="-39.871310" lon="-72.830732"><ele>336.8</ele></trkpt>
      <trkpt lat="-39.871168" lon="-72.830919"><ele>333.1</ele></trkpt>
      <trkpt lat="-39.871141" lon="-72.831738"><ele>321.3</ele></trkpt>
      <trkpt lat="-39.870923" lon="-72.832020"><ele>315.4</ele></trkpt>
      <trkpt lat="-39.870905" lon="-72.832641"><ele>306.6</ele></trkpt>
      <trkpt lat="-39.870743" lon="-72.833075"><ele>299.7</ele></trkpt>
      <trkpt lat="-39.870740" lon="-72.833640"><ele>291.7</ele></trkpt>
      <trkpt lat="-39.870664" lon="-72.833793"><ele>289.1</ele></trkpt>
      <trkpt lat="-39.870722" lon="-72.834595"><ele>277.5</ele></trkpt>
      <trkpt lat="-39.870572" lon="-72.834976"><ele>271.3</ele></trkpt>
      <trkpt lat="-39.870584" lon="-72.835668"><ele>261.4</ele></trkpt>
      <trkpt lat="-39.870430" lon="-72.835987"><ele>256.0</ele></trkpt>
      <trkpt lat="-39.870404" lon="-72.836253"><ele>252.2</ele></trkpt>
      <trkpt lat="-39.870615" lon="-72.836717"><ele>244.3</ele></trkpt>
      <trkpt lat="-39.870865" lon="-72.836867"><ele>239.1</ele></trkpt>
      <trkpt lat="-39.870823" lon="-72.837141"><ele>235.1</ele></trkpt>
      <trkpt lat="-39.871083" lon="-72.837380"><ele>228.9</ele></trkpt>
      <trkpt lat="-39.871034" lon="-72.837695"><ele>224.3</ele></trkpt>
      <trkpt lat="-39.871151" lon="-72.837893"><ele>220.7</ele></trkpt>
      <trkpt lat="-39.871067" lon="-72.838242"><ele>215.4</ele></trkpt>
      <trkpt lat="-39.870833" lon="-72.838484"><ele>209.9</ele></trkpt>
      <trkpt lat="-39.870878" lon="-72.838797"><ele>205.4</ele></trkpt>
      <trkpt lat="-39.870548" lon="-72.839301"><ele>195.7</ele></trkpt>
      <trkpt lat="-39.870643" lon="-72.839614"><ele>190.9</ele></trkpt>
      <trkpt lat="-39.870399" lon="-72.839854"><ele>185.0</ele></trkpt>
      <trkpt lat="-39.870200" lon="-72.840608"><ele>173.4</ele></trkpt>
      <trkpt lat="-39.869564" lon="-72.840546"><ele>161.0</ele></trkpt>
      <trkpt lat="-39.869403" lon="-72.840636"><ele>157.8</ele></trkpt>
      <trkpt lat="-39.869284" lon="-72.841139"><ele>150.2</ele></trkpt>
      <trkpt lat="-39.869158" lon="-72.841242"><ele>147.4</ele></trkpt>
      <trkpt lat="-39.869265" lon="-72.841732"><ele>140.0</ele></trkpt>
    </trkseg>
  </trk>
  <trk>
    <name>Pista Clásica Antigua</name>
    <trkseg>
      <trkpt lat="-39.861989" lon="-72.823360"><ele>434.0</ele></trkpt>
      <trkpt lat="-39.861693" lon="-72.823953"><ele>425.8</ele></trkpt>
      <trkpt lat="-39.861689" lon="-72.824375"><ele>420.8</ele></trkpt>
      <trkpt lat="-39.862807" lon="-72.825987"><ele>395.8</ele></trkpt>
      <trkpt lat="-39.863146" lon="-72.826612"><ele>386.9</ele></trkpt>
      <trkpt lat="-39.863407" lon="-72.826922"><ele>381.6</ele></trkpt>
      <trkpt lat="-39.863613" lon="-72.826966"><ele>378.4</ele></trkpt>
      <trkpt lat="-39.863752" lon="-72.827092"><ele>375.9</ele></trkpt>
      <trkpt lat="-39.863838" lon="-72.827284"><ele>373.2</ele></trkpt>
      <trkpt lat="-39.863488" lon="-72.829112"><ele>351.2</ele></trkpt>
      <trkpt lat="-39.863149" lon="-72.829730"><ele>342.3</ele></trkpt>
      <trkpt lat="-39.863145" lon="-72.830280"><ele>335.9</ele></trkpt>
      <trkpt lat="-39.862742" lon="-72.830774"><ele>327.5</ele></trkpt>
      <trkpt lat="-39.862491" lon="-72.831241"><ele>320.9</ele></trkpt>
      <trkpt lat="-39.862236" lon="-72.832063"><ele>310.5</ele></trkpt>
      <trkpt lat="-39.862217" lon="-72.832552"><ele>304.8</ele></trkpt>
      <trkpt lat="-39.862378" lon="-72.832922"><ele>299.1</ele></trkpt>
      <trkpt lat="-39.862793" lon="-72.833143"><ele>292.3</ele></trkpt>
      <trkpt lat="-39.863208" lon="-72.833688"><ele>283.2</ele></trkpt>
      <trkpt lat="-39.863369" lon="-72.834793"><ele>270.3</ele></trkpt>
      <trkpt lat="-39.863942" lon="-72.835388"><ele>259.1</ele></trkpt>
      <trkpt lat="-39.864156" lon="-72.835890"><ele>252.4</ele></trkpt>
      <trkpt lat="-39.864207" lon="-72.835773"><ele>250.8</ele></trkpt>
      <trkpt lat="-39.864383" lon="-72.836591"><ele>240.7</ele></trkpt>
      <trkpt lat="-39.864280" lon="-72.836908"><ele>236.7</ele></trkpt>
      <trkpt lat="-39.863889" lon="-72.837297"><ele>229.3</ele></trkpt>
      <trkpt lat="-39.863599" lon="-72.838102"><ele>219.0</ele></trkpt>
      <trkpt lat="-39.863494" lon="-72.838587"><ele>213.2</ele></trkpt>
      <trkpt lat="-39.863580" lon="-72.838854"><ele>209.6</ele></trkpt>
      <trkpt lat="-39.863547" lon="-72.839375"><ele>203.5</ele></trkpt>
      <trkpt lat="-39.863201" lon="-72.839735"><ele>196.7</ele></trkpt>
      <trkpt lat="-39.862775" lon="-72.839894"><ele>190.0</ele></trkpt>
      <trkpt lat="-39.862430" lon="-72.840339"><ele>182.5</ele></trkpt>
      <trkpt lat="-39.862509" lon="-72.840517"><ele>180.1</ele></trkpt>
      <trkpt lat="-39.862521" lon="-72.841305"><ele>171.0</ele></trkpt>
      <trkpt lat="-39.862607" lon="-72.841511"><ele>168.3</ele></trkpt>
      <trkpt lat="-39.862560" lon="-72.842071"><ele>161.5</ele></trkpt>
      <trkpt lat="-39.862691" lon="-72.842272"><ele>158.5</ele></trkpt>
      <trkpt lat="-39.862725" lon="-72.842890"><ele>149.5</ele></trkpt>
      <trkpt lat="-39.862441" lon="-72.843505"><ele>141.1</ele></trkpt>
      <trkpt lat="-39.862286" lon="-72.843626"><ele>138.4</ele></trkpt>
      <trkpt lat="-39.861893" lon="-72.844283"><ele>128.6</ele></trkpt>
      <trkpt lat="-39.861860" lon="-72.844596"><ele>124.9</ele></trkpt>
      <trkpt lat="-39.861950" lon="-72.844652"><ele>123.3</ele></trkpt>
      <trkpt lat="-39.862522" lon="-72.844323"><ele>113.5</ele></trkpt>
      <trkpt lat="-39.862621" lon="-72.844358"><ele>111.9</ele></trkpt>
      <trkpt lat="-39.863176" lon="-72.844195"><ele>103.2</ele></trkpt>
      <trkpt lat="-39.863550" lon="-72.843820"><ele>95.9</ele></trkpt>
      <trkpt lat="-39.863748" lon="-72.843300"><ele>89.0</ele></trkpt>
      <trkpt lat="-39.864028" lon="-72.843296"><ele>84.8</ele></trkpt>
      <trkpt lat="-39.864131" lon="-72.843191"><ele>82.8</ele></trkpt>
      <trkpt lat="-39.864518" lon="-72.843094"><ele>76.5</ele></trkpt>
      <trkpt lat="-39.864930" lon="-72.843197"><ele>70.1</ele></trkpt>
      <trkpt lat="-39.865318" lon="-72.843191"><ele>64.3</ele></trkpt>
      <trkpt lat="-39.865682" lon="-72.843410"><ele>57.9</ele></trkpt>
      <trkpt lat="-39.866024" lon="-72.843196"><ele>52.2</ele></trkpt>
      <trkpt lat="-39.866306" lon="-72.842645"><ele>44.5</ele></trkpt>
      <trkpt lat="-39.866341" lon="-72.842350"><ele>41.1</ele></trkpt>
      <trkpt lat="-39.866744" lon="-72.842218"><ele>34.8</ele></trkpt>
      <trkpt lat="-39.867525" lon="-72.842122"><ele>23.0</ele></trkpt>
      <trkpt lat="-39.867851" lon="-72.841764"><ele>16.6</ele></trkpt>
      <trkpt lat="-39.868120" lon="-72.841814"><ele>12.4</ele></trkpt>
      <trkpt lat="-39.868409" lon="-72.841755"><ele>8.0</ele></trkpt>
    </trkseg>
  </trk>
</gpx>