<?xml version='1.0' encoding='UTF-8'?>
<gpx xmlns="http://www.topografix.com/GPX/1/1" xmlns:xsi="http://www.w3.org/2001/XMLSchema-instance" version="1.1" creator="Bosque Abierto MTB" xsi:schemaLocation="http://www.topografix.com/GPX/1/1 http://www.topografix.com/GPX/1/1/gpx.xsd">
  <metadata>
    <name>Bike Park Lota</name>
    <desc>Bike Park Lota — Lota, Biobío, Chile</desc>
  </metadata>
  <trk>
    <name>Perro Muerto</name>
    <type>XC</type>
    <trkseg>
      <trkpt lat="-37.0821419" lon="-73.1239173" />
      <trkpt lat="-37.0820696" lon="-73.1243736" />
      <trkpt lat="-37.0822283" lon="-73.1246892" />
      <trkpt lat="-37.0825430" lon="-73.1249141" />
      <trkpt lat="-37.0830041" lon="-73.1254796" />
      <trkpt lat="-37.0834999" lon="-73.1257539" />
      <trkpt lat="-37.0836260" lon="-73.1259523" />
      <trkpt lat="-37.0839291" lon="-73.1261054" />
      <trkpt lat="-37.0840254" lon="-73.1262512" />
      <trkpt lat="-37.0841823" lon="-73.1276075" />
      <trkpt lat="-37.0840934" lon="-73.1279593" />
      <trkpt lat="-37.0842554" lon="-73.1287137" />
      <trkpt lat="-37.0842527" lon="-73.1291983" />
      <trkpt lat="-37.0843804" lon="-73.1296362" />
      <trkpt lat="-37.0844173" lon="-73.1304819" />
      <trkpt lat="-37.0843899" lon="-73.1308083" />
      <trkpt lat="-37.0839596" lon="-73.1317366" />
      <trkpt lat="-37.0839992" lon="-73.1320000" />
    </trkseg>
  </trk>
  <trk>
    <name>Windows 21</name>
    <type>XC</type>
    <trkseg>
      <trkpt lat="-37.0820236" lon="-73.1238849" />
      <trkpt lat="-37.0818636" lon="-73.1241313" />
      <trkpt lat="-37.0818778" lon="-73.1243716" />
      <trkpt lat="-37.0824480" lon="-73.1251240" />
      <trkpt lat="-37.0828278" lon="-73.1254796" />
      <trkpt lat="-37.0827986" lon="-73.1261754" />
      <trkpt lat="-37.0829733" lon="-73.1263227" />
      <trkpt lat="-37.0830290" lon="-73.1268343" />
      <trkpt lat="-37.0828474" lon="-73.1276223" />
      <trkpt lat="-37.0828893" lon="-73.1286257" />
      <trkpt lat="-37.0831959" lon="-73.1292951" />
      <trkpt lat="-37.0833170" lon="-73.1294232" />
      <trkpt lat="-37.0835631" lon="-73.1294878" />
      <trkpt lat="-37.0837532" lon="-73.1297676" />
      <trkpt lat="-37.0838924" lon="-73.1303566" />
      <trkpt lat="-37.0840681" lon="-73.1306718" />
      <trkpt lat="-37.0841037" lon="-73.1311654" />
      <trkpt lat="-37.0839378" lon="-73.1317394" />
      <trkpt lat="-37.0840101" lon="-73.1320685" />
    </trkseg>
  </trk>
  <trk>
    <name>Línea 3:16</name>
    <type>XC</type>
    <trkseg>
      <trkpt lat="-37.0857870" lon="-73.1293489" />
      <trkpt lat="-37.0859223" lon="-73.1298093" />
      <trkpt lat="-37.0858876" lon="-73.1300456" />
      <trkpt lat="-37.0860056" lon="-73.1301903" />
      <trkpt lat="-37.0861000" lon="-73.1305583" />
      <trkpt lat="-37.0861023" lon="-73.1308462" />
      <trkpt lat="-37.0862447" lon="-73.1310457" />
      <trkpt lat="-37.0861101" lon="-73.1315503" />
      <trkpt lat="-37.0861863" lon="-73.1317113" />
      <trkpt lat="-37.0864371" lon="-73.1318427" />
      <trkpt lat="-37.0864526" lon="-73.1320137" />
      <trkpt lat="-37.0862582" lon="-73.1328269" />
      <trkpt lat="-37.0859107" lon="-73.1327767" />
      <trkpt lat="-37.0858176" lon="-73.1328586" />
      <trkpt lat="-37.0860976" lon="-73.1333230" />
      <trkpt lat="-37.0858534" lon="-73.1333061" />
      <trkpt lat="-37.0858120" lon="-73.1333736" />
      <trkpt lat="-37.0858486" lon="-73.1336300" />
      <trkpt lat="-37.0859967" lon="-73.1338053" />
      <trkpt lat="-37.0857176" lon="-73.1338463" />
      <trkpt lat="-37.0858733" lon="-73.1343737" />
      <trkpt lat="-37.0857407" lon="-73.1349077" />
      <trkpt lat="-37.0853224" lon="-73.1349158" />
      <trkpt lat="-37.0851919" lon="-73.1349934" />
    </trkseg>
  </trk>
  <trk>
    <name>Martillo y Flow</name>
    <type>Flow</type>
    <trkseg>
      <trkpt lat="-37.0857716" lon="-73.1292876" />
      <trkpt lat="-37.0858829" lon="-73.1295848" />
      <trkpt lat="-37.0861768" lon="-73.1298790" />
      <trkpt lat="-37.0864938" lon="-73.1304647" />
      <trkpt lat="-37.0865508" lon="-73.1306651" />
      <trkpt lat="-37.0864276" lon="-73.1303237" />
      <trkpt lat="-37.0866466" lon="-73.1309490" />
      <trkpt lat="-37.0866119" lon="-73.1315490" />
      <trkpt lat="-37.0862686" lon="-73.1326351" />
      <trkpt lat="-37.0860077" lon="-73.1326537" />
      <trkpt lat="-37.0855844" lon="-73.1323063" />
      <trkpt lat="-37.0854006" lon="-73.1324650" />
      <trkpt lat="-37.0855465" lon="-73.1335864" />
      <trkpt lat="-37.0856524" lon="-73.1338385" />
      <trkpt lat="-37.0854709" lon="-73.1348983" />
      <trkpt lat="-37.0851863" lon="-73.1349865" />
    </trkseg>
  </trk>
  <trk>
    <name>Laguna</name>
    <type>XC</type>
    <trkseg>
      <trkpt lat="-37.0904100" lon="-73.1324495" />
      <trkpt lat="-37.0901018" lon="-73.1322300" />
      <trkpt lat="-37.0895344" lon="-73.1315358" />
      <trkpt lat="-37.0892159" lon="-73.1314518" />
      <trkpt lat="-37.0888528" lon="-73.1319030" />
      <trkpt lat="-37.0884698" lon="-73.1320374" />
      <trkpt lat="-37.0880182" lon="-73.1323482" />
      <trkpt lat="-37.0879806" lon="-73.1328751" />
      <trkpt lat="-37.0878762" lon="-73.1331351" />
      <trkpt lat="-37.0873493" lon="-73.1333189" />
      <trkpt lat="-37.0870925" lon="-73.1329699" />
      <trkpt lat="-37.0870076" lon="-73.1330060" />
      <trkpt lat="-37.0869189" lon="-73.1338953" />
      <trkpt lat="-37.0871184" lon="-73.1342869" />
      <trkpt lat="-37.0869355" lon="-73.1350704" />
      <trkpt lat="-37.0870334" lon="-73.1354714" />
      <trkpt lat="-37.0871987" lon="-73.1356545" />
      <trkpt lat="-37.0870858" lon="-73.1360339" />
      <trkpt lat="-37.0868767" lon="-73.1362247" />
      <trkpt lat="-37.0870239" lon="-73.1364442" />
    </trkseg>
  </trk>
  <trk>
    <name>DH Clásico</name>
    <type>DH</type>
    <trkseg>
      <trkpt lat="-37.0904906" lon="-73.1326025" />
      <trkpt lat="-37.0906020" lon="-73.1331119" />
      <trkpt lat="-37.0910995" lon="-73.1339126" />
      <trkpt lat="-37.0915772" lon="-73.1350843" />
      <trkpt lat="-37.0918039" lon="-73.1359804" />
      <trkpt lat="-37.0919179" lon="-73.1369390" />
      <trkpt lat="-37.0920250" lon="-73.1372410" />
      <trkpt lat="-37.0925794" lon="-73.1381146" />
      <trkpt lat="-37.0926646" lon="-73.1385979" />
      <trkpt lat="-37.0930460" lon="-73.1386804" />
      <trkpt lat="-37.0935217" lon="-73.1385589" />
      <trkpt lat="-37.0937213" lon="-73.1385831" />
      <trkpt lat="-37.0941301" lon="-73.1389114" />
      <trkpt lat="-37.0943451" lon="-73.1389238" />
    </trkseg>
  </trk>
  <trk>
    <name>840</name>
    <type>DH</type>
    <trkseg>
      <trkpt lat="-37.0904499" lon="-73.1324111" />
      <trkpt lat="-37.0911278" lon="-73.1328489" />
      <trkpt lat="-37.0912153" lon="-73.1336935" />
      <trkpt lat="-37.0913218" lon="-73.1339103" />
      <trkpt lat="-37.0916096" lon="-73.1341622" />
      <trkpt lat="-37.0920528" lon="-73.1341883" />
      <trkpt lat="-37.0921758" lon="-73.1342784" />
      <trkpt lat="-37.0923184" lon="-73.1354686" />
      <trkpt lat="-37.0924826" lon="-73.1359099" />
      <trkpt lat="-37.0931077" lon="-73.1368104" />
      <trkpt lat="-37.0944531" lon="-73.1381897" />
      <trkpt lat="-37.0946567" lon="-73.1386271" />
    </trkseg>
  </trk>
  <trk>
    <name>Raíces Trail</name>
    <type>XC</type>
    <trkseg>
      <trkpt lat="-37.0905465" lon="-73.1325984" />
      <trkpt lat="-37.0906630" lon="-73.1331462" />
      <trkpt lat="-37.0910770" lon="-73.1338909" />
      <trkpt lat="-37.0913269" lon="-73.1341098" />
      <trkpt lat="-37.0920186" lon="-73.1343951" />
      <trkpt lat="-37.0921846" lon="-73.1347499" />
      <trkpt lat="-37.0922583" lon="-73.1353823" />
      <trkpt lat="-37.0924915" lon="-73.1358901" />
      <trkpt lat="-37.0926210" lon="-73.1365523" />
      <trkpt lat="-37.0927884" lon="-73.1369688" />
      <trkpt lat="-37.0933185" lon="-73.1375728" />
      <trkpt lat="-37.0937674" lon="-73.1376753" />
      <trkpt lat="-37.0939401" lon="-73.1378150" />
      <trkpt lat="-37.0946714" lon="-73.1388266" />
    </trkseg>
  </trk>
  <trk>
    <name>Isla de Pinos</name>
    <type>XC</type>
    <trkseg>
      <trkpt lat="-37.0904550" lon="-73.1325994" />
      <trkpt lat="-37.0905432" lon="-73.1329670" />
      <trkpt lat="-37.0904625" lon="-73.1330178" />
      <trkpt lat="-37.0902299" lon="-73.1328949" />
      <trkpt lat="-37.0900253" lon="-73.1333100" />
      <trkpt lat="-37.0894417" lon="-73.1331339" />
      <trkpt lat="-37.0892809" lon="-73.1331855" />
      <trkpt lat="-37.0891384" lon="-73.1333846" />
      <trkpt lat="-37.0891463" lon="-73.1335365" />
      <trkpt lat="-37.0893876" lon="-73.1336968" />
      <trkpt lat="-37.0894349" lon="-73.1338129" />
      <trkpt lat="-37.0890891" lon="-73.1340183" />
      <trkpt lat="-37.0891641" lon="-73.1345636" />
      <trkpt lat="-37.0884628" lon="-73.1359178" />
      <trkpt lat="-37.0887615" lon="-73.1366370" />
      <trkpt lat="-37.0886835" lon="-73.1366835" />
      <trkpt lat="-37.0884987" lon="-73.1364843" />
      <trkpt lat="-37.0883450" lon="-73.1365136" />
      <trkpt lat="-37.0882790" lon="-73.1364238" />
      <trkpt lat="-37.0881927" lon="-73.1367372" />
      <trkpt lat="-37.0880198" lon="-73.1363764" />
      <trkpt lat="-37.0877701" lon="-73.1361866" />
      <trkpt lat="-37.0875447" lon="-73.1361491" />
      <trkpt lat="-37.0874544" lon="-73.1362772" />
      <trkpt lat="-37.0876166" lon="-73.1363864" />
    </trkseg>
  </trk>
  <trk>
    <name>Smoke</name>
    <type>DH</type>
    <trkseg>
      <trkpt lat="-37.0904655" lon="-73.1325685" />
      <trkpt lat="-37.0902559" lon="-73.1326021" />
      <trkpt lat="-37.0899374" lon="-73.1324237" />
      <trkpt lat="-37.0890221" lon="-73.1322311" />
      <trkpt lat="-37.0885693" lon="-73.1323015" />
      <trkpt lat="-37.0881097" lon="-73.1336387" />
      <trkpt lat="-37.0877414" lon="-73.1341073" />
      <trkpt lat="-37.0875506" lon="-73.1341636" />
      <trkpt lat="-37.0874561" lon="-73.1339270" />
      <trkpt lat="-37.0873099" lon="-73.1339424" />
      <trkpt lat="-37.0871097" lon="-73.1342576" />
      <trkpt lat="-37.0867799" lon="-73.1344379" />
      <trkpt lat="-37.0867178" lon="-73.1346036" />
      <trkpt lat="-37.0862705" lon="-73.1350089" />
      <trkpt lat="-37.0859476" lon="-73.1348703" />
      <trkpt lat="-37.0851664" lon="-73.1349819" />
    </trkseg>
  </trk>
  <trk>
    <name>Raíces Old</name>
    <type>XC</type>
    <trkseg>
      <trkpt lat="-37.0904710" lon="-73.1326207" />
      <trkpt lat="-37.0905294" lon="-73.1329550" />
      <trkpt lat="-37.0907120" lon="-73.1333431" />
      <trkpt lat="-37.0911522" lon="-73.1339798" />
      <trkpt lat="-37.0914409" lon="-73.1341710" />
      <trkpt lat="-37.0920599" lon="-73.1344032" />
      <trkpt lat="-37.0922478" lon="-73.1349236" />
      <trkpt lat="-37.0923307" lon="-73.1355842" />
      <trkpt lat="-37.0925689" lon="-73.1363834" />
      <trkpt lat="-37.0930180" lon="-73.1373501" />
      <trkpt lat="-37.0932473" lon="-73.1375663" />
      <trkpt lat="-37.0939761" lon="-73.1378600" />
      <trkpt lat="-37.0945396" lon="-73.1387246" />
      <trkpt lat="-37.0948245" lon="-73.1388668" />
      <trkpt lat="-37.0949833" lon="-73.1386082" />
      <trkpt lat="-37.0949152" lon="-73.1376593" />
      <trkpt lat="-37.0950582" lon="-73.1371595" />
      <trkpt lat="-37.0959631" lon="-73.1361900" />
      <trkpt lat="-37.0965231" lon="-73.1357178" />
      <trkpt lat="-37.0968235" lon="-73.1352926" />
      <trkpt lat="-37.0968741" lon="-73.1349459" />
      <trkpt lat="-37.0966788" lon="-73.1346073" />
      <trkpt lat="-37.0964265" lon="-73.1344178" />
      <trkpt lat="-37.0964352" lon="-73.1342830" />
      <trkpt lat="-37.0966326" lon="-73.1341950" />
      <trkpt lat="-37.0968222" lon="-73.1339195" />
      <trkpt lat="-37.0976774" lon="-73.1336394" />
      <trkpt lat="-37.0979461" lon="-73.1333846" />
      <trkpt lat="-37.0981717" lon="-73.1328223" />
      <trkpt lat="-37.0981238" lon="-73.1321319" />
      <trkpt lat="-37.0982204" lon="-73.1317837" />
      <trkpt lat="-37.0987537" lon="-73.1311512" />
    </trkseg>
  </trk>
  <trk>
    <name>Skill 2</name>
    <type>DH</type>
    <trkseg>
      <trkpt lat="-37.0839239" lon="-73.1337153"><ele>164.0</ele></trkpt>
      <trkpt lat="-37.0839745" lon="-73.1338766"><ele>161.9</ele></trkpt>
      <trkpt lat="-37.0838684" lon="-73.1339772"><ele>160.0</ele></trkpt>
      <trkpt lat="-37.0837217" lon="-73.1339073"><ele>159.7</ele></trkpt>
      <trkpt lat="-37.0835410" lon="-73.1340011"><ele>157.0</ele></trkpt>
      <trkpt lat="-37.0834275" lon="-73.1340944"><ele>154.7</ele></trkpt>
      <trkpt lat="-37.0832494" lon="-73.1342133"><ele>151.1</ele></trkpt>
      <trkpt lat="-37.0831446" lon="-73.1343275"><ele>148.2</ele></trkpt>
      <trkpt lat="-37.0831049" lon="-73.1344554"><ele>145.5</ele></trkpt>
      <trkpt lat="-37.0831154" lon="-73.1345059"><ele>144.7</ele></trkpt>
      <trkpt lat="-37.0831723" lon="-73.1345619"><ele>144.4</ele></trkpt>
      <trkpt lat="-37.0832190" lon="-73.1346054"><ele>144.3</ele></trkpt>
      <trkpt lat="-37.0833098" lon="-73.1346692"><ele>144.7</ele></trkpt>
      <trkpt lat="-37.0832875" lon="-73.1347383"><ele>143.6</ele></trkpt>
      <trkpt lat="-37.0832921" lon="-73.1348531"><ele>142.3</ele></trkpt>
      <trkpt lat="-37.0833062" lon="-73.1349316"><ele>141.6</ele></trkpt>
      <trkpt lat="-37.0832229" lon="-73.1349907"><ele>139.6</ele></trkpt>
      <trkpt lat="-37.0831753" lon="-73.1350793"><ele>137.9</ele></trkpt>
      <trkpt lat="-37.0831589" lon="-73.1351267"><ele>137.1</ele></trkpt>
      <trkpt lat="-37.0829749" lon="-73.1351592"><ele>133.8</ele></trkpt>
      <trkpt lat="-37.0828490" lon="-73.1351374"><ele>132.1</ele></trkpt>
      <trkpt lat="-37.0827627" lon="-73.1351860"><ele>130.1</ele></trkpt>
      <trkpt lat="-37.0827140" lon="-73.1352148"><ele>129.0</ele></trkpt>
      <trkpt lat="-37.0826808" lon="-73.1352220"><ele>128.4</ele></trkpt>
    </trkseg>
  </trk>
  <trk>
    <name>Skill 3</name>
    <type>DH</type>
    <trkseg>
      <trkpt lat="-37.0839148" lon="-73.1337446"><ele>163.5</ele></trkpt>
      <trkpt lat="-37.0839412" lon="-73.1338734"><ele>161.8</ele></trkpt>
      <trkpt lat="-37.0838881" lon="-73.1339301"><ele>160.6</ele></trkpt>
      <trkpt lat="-37.0837519" lon="-73.1338707"><ele>160.5</ele></trkpt>
      <trkpt lat="-37.0836536" lon="-73.1338812"><ele>159.6</ele></trkpt>
      <trkpt lat="-37.0834709" lon="-73.1340530"><ele>155.7</ele></trkpt>
      <trkpt lat="-37.0832724" lon="-73.1342156"><ele>151.4</ele></trkpt>
      <trkpt lat="-37.0831677" lon="-73.1342820"><ele>149.3</ele></trkpt>
      <trkpt lat="-37.0831139" lon="-73.1344525"><ele>145.6</ele></trkpt>
      <trkpt lat="-37.0832113" lon="-73.1345422"><ele>145.2</ele></trkpt>
      <trkpt lat="-37.0833260" lon="-73.1346370"><ele>145.3</ele></trkpt>
      <trkpt lat="-37.0833933" lon="-73.1347677"><ele>144.7</ele></trkpt>
      <trkpt lat="-37.0834399" lon="-73.1349007"><ele>143.8</ele></trkpt>
      <trkpt lat="-37.0833671" lon="-73.1350282"><ele>141.5</ele></trkpt>
      <trkpt lat="-37.0833291" lon="-73.1351640"><ele>139.2</ele></trkpt>
      <trkpt lat="-37.0832065" lon="-73.1352854"><ele>135.9</ele></trkpt>
      <trkpt lat="-37.0830863" lon="-73.1352861"><ele>133.9</ele></trkpt>
      <trkpt lat="-37.0829030" lon="-73.1352968"><ele>130.8</ele></trkpt>
    </trkseg>
  </trk>
  <trk>
    <name>Skill 1</name>
    <type>DH</type>
    <trkseg>
      <trkpt lat="-37.0839227" lon="-73.1337356"><ele>163.7</ele></trkpt>
      <trkpt lat="-37.0839560" lon="-73.1338710"><ele>161.9</ele></trkpt>
      <trkpt lat="-37.0839054" lon="-73.1339365"><ele>160.6</ele></trkpt>
      <trkpt lat="-37.0838083" lon="-73.1339227"><ele>160.0</ele></trkpt>
      <trkpt lat="-37.0837060" lon="-73.1338926"><ele>159.8</ele></trkpt>
      <trkpt lat="-37.0835233" lon="-73.1340015"><ele>157.0</ele></trkpt>
      <trkpt lat="-37.0832334" lon="-73.1342218"><ele>150.9</ele></trkpt>
      <trkpt lat="-37.0831206" lon="-73.1343301"><ele>147.9</ele></trkpt>
      <trkpt lat="-37.0830611" lon="-73.1345173"><ele>143.8</ele></trkpt>
      <trkpt lat="-37.0828259" lon="-73.1347705"><ele>136.9</ele></trkpt>
      <trkpt lat="-37.0827028" lon="-73.1349045"><ele>133.2</ele></trkpt>
      <trkpt lat="-37.0825629" lon="-73.1349714"><ele>130.4</ele></trkpt>
      <trkpt lat="-37.0824148" lon="-73.1350768"><ele>126.5</ele></trkpt>
      <trkpt lat="-37.0822315" lon="-73.1351600"><ele>122.2</ele></trkpt>
      <trkpt lat="-37.0820767" lon="-73.1352986"><ele>117.4</ele></trkpt>
    </trkseg>
  </trk>
  <trk>
    <name>Portal</name>
    <type>DH</type>
    <trkseg>
      <trkpt lat="-37.0857595" lon="-73.1293250"><ele>244.0</ele></trkpt>
      <trkpt lat="-37.0857106" lon="-73.1294419"><ele>241.6</ele></trkpt>
      <trkpt lat="-37.0858302" lon="-73.1296821"><ele>237.6</ele></trkpt>
      <trkpt lat="-37.0858011" lon="-73.1299838"><ele>232.0</ele></trkpt>
      <trkpt lat="-37.0856037" lon="-73.1301887"><ele>225.1</ele></trkpt>
      <trkpt lat="-37.0856920" lon="-73.1306049"><ele>219.2</ele></trkpt>
      <trkpt lat="-37.0855333" lon="-73.1306344"><ele>215.3</ele></trkpt>
      <trkpt lat="-37.0855478" lon="-73.1311160"><ele>206.8</ele></trkpt>
      <trkpt lat="-37.0843636" lon="-73.1321335"><ele>182.1</ele></trkpt>
      <trkpt lat="-37.0841300" lon="-73.1324262"><ele>180.1</ele></trkpt>
      <trkpt lat="-37.0839829" lon="-73.1327716"><ele>176.6</ele></trkpt>
      <trkpt lat="-37.0840182" lon="-73.1334314"><ele>168.8</ele></trkpt>
      <trkpt lat="-37.0842867" lon="-73.1340403"><ele>162.2</ele></trkpt>
      <trkpt lat="-37.0848208" lon="-73.1345947"><ele>156.3</ele></trkpt>
      <trkpt lat="-37.0850768" lon="-73.1353033"><ele>151.0</ele></trkpt>
      <trkpt lat="-37.0850339" lon="-73.1355465"><ele>151.0</ele></trkpt>
      <trkpt lat="-37.0847056" lon="-73.1358192"><ele>149.9</ele></trkpt>
      <trkpt lat="-37.0844118" lon="-73.1359330"><ele>147.6</ele></trkpt>
      <trkpt lat="-37.0838384" lon="-73.1357014"><ele>140.7</ele></trkpt>
      <trkpt lat="-37.0837215" lon="-73.1357192"><ele>139.9</ele></trkpt>
      <trkpt lat="-37.0830366" lon="-73.1353283"><ele>132.6</ele></trkpt>
      <trkpt lat="-37.0824504" lon="-73.1351211"><ele>126.6</ele></trkpt>
      <trkpt lat="-37.0822671" lon="-73.1352800"><ele>121.0</ele></trkpt>
      <trkpt lat="-37.0819721" lon="-73.1353371"><ele>115.3</ele></trkpt>
      <trkpt lat="-37.0816177" lon="-73.1355277"><ele>108.3</ele></trkpt>
      <trkpt lat="-37.0814582" lon="-73.1356795"><ele>105.5</ele></trkpt>
    </trkseg>
  </trk>
  <trk>
    <name>Parapowerline</name>
    <type>DH</type>
    <trkseg>
      <trkpt lat="-37.0822057" lon="-73.1239542"><ele>286.2</ele></trkpt>
      <trkpt lat="-37.0823442" lon="-73.1242759"><ele>284.9</ele></trkpt>
      <trkpt lat="-37.0828153" lon="-73.1248983"><ele>277.8</ele></trkpt>
      <trkpt lat="-37.0843770" lon="-73.1265585"><ele>262.9</ele></trkpt>
      <trkpt lat="-37.0847492" lon="-73.1272303"><ele>261.8</ele></trkpt>
      <trkpt lat="-37.0846399" lon="-73.1273242"><ele>259.5</ele></trkpt>
      <trkpt lat="-37.0847399" lon="-73.1277355"><ele>256.3</ele></trkpt>
      <trkpt lat="-37.0846448" lon="-73.1278458"><ele>253.2</ele></trkpt>
      <trkpt lat="-37.0849084" lon="-73.1281824"><ele>250.5</ele></trkpt>
      <trkpt lat="-37.0846763" lon="-73.1285834"><ele>240.7</ele></trkpt>
      <trkpt lat="-37.0848862" lon="-73.1287994"><ele>237.5</ele></trkpt>
      <trkpt lat="-37.0847468" lon="-73.1290007"><ele>232.3</ele></trkpt>
      <trkpt lat="-37.0847386" lon="-73.1292981"><ele>226.6</ele></trkpt>
      <trkpt lat="-37.0848715" lon="-73.1296972"><ele>220.7</ele></trkpt>
      <trkpt lat="-37.0848268" lon="-73.1298816"><ele>217.1</ele></trkpt>
      <trkpt lat="-37.0850936" lon="-73.1306333"><ele>206.0</ele></trkpt>
      <trkpt lat="-37.0850984" lon="-73.1312358"><ele>196.6</ele></trkpt>
      <trkpt lat="-37.0848545" lon="-73.1313347"><ele>193.3</ele></trkpt>
      <trkpt lat="-37.0847224" lon="-73.1317469"><ele>187.6</ele></trkpt>
    </trkseg>
  </trk>
</gpx>