<?xml version='1.0' encoding='UTF-8'?>
<gpx xmlns="http://www.topografix.com/GPX/1/1" xmlns:xsi="http://www.w3.org/2001/XMLSchema-instance" version="1.1" creator="Bosque Abierto MTB - Guardianes del Bosque" xsi:schemaLocation="http://www.topografix.com/GPX/1/1 http://www.topografix.com/GPX/1/1/gpx.xsd">
  <metadata>
    <name>Maulen Riders Xc Gorbea Azul</name>
    <desc>Ruta MTB Bosque Abierto - ARAUCO Renovables</desc>
    <author>
      <name>Guardianes del Bosque MTB</name>
    </author>
    <time>2024-01-01T10:00:00Z</time>
  </metadata>
  <trk>
    <name>Maulen Riders Xc Gorbea Azul</name>
    <type>cycling</type>
    <trkseg>
      <trkpt lat="-39.1025380" lon="-72.6757860">
        <ele>95.2</ele>
        <time>2024-01-01T10:00:00Z</time>
      </trkpt>
      <trkpt lat="-39.1025060" lon="-72.6765620">
        <ele>95.1</ele>
        <time>2024-01-01T10:01:21Z</time>
      </trkpt>
      <trkpt lat="-39.1024340" lon="-72.6766400">
        <ele>95.1</ele>
        <time>2024-01-01T10:01:30Z</time>
      </trkpt>
      <trkpt lat="-39.0982080" lon="-72.6768630">
        <ele>95.9</ele>
        <time>2024-01-01T10:07:06Z</time>
      </trkpt>
      <trkpt lat="-39.0983320" lon="-72.6832920">
        <ele>94.9</ele>
        <time>2024-01-01T10:12:54Z</time>
      </trkpt>
      <trkpt lat="-39.0975420" lon="-72.6861480">
        <ele>94.5</ele>
        <time>2024-01-01T10:15:36Z</time>
      </trkpt>
      <trkpt lat="-39.0975000" lon="-72.6906000">
        <ele>93.9</ele>
        <time>2024-01-01T10:19:45Z</time>
      </trkpt>
      <trkpt lat="-39.0973320" lon="-72.6910580">
        <ele>94.2</ele>
        <time>2024-01-01T10:20:15Z</time>
      </trkpt>
      <trkpt lat="-39.0970630" lon="-72.6914670">
        <ele>94.5</ele>
        <time>2024-01-01T10:20:45Z</time>
      </trkpt>
      <trkpt lat="-39.0963270" lon="-72.6920970">
        <ele>94.5</ele>
        <time>2024-01-01T10:21:45Z</time>
      </trkpt>
      <trkpt lat="-39.0956380" lon="-72.6925620">
        <ele>92.1</ele>
        <time>2024-01-01T10:22:33Z</time>
      </trkpt>
      <trkpt lat="-39.0954780" lon="-72.6929250">
        <ele>90.2</ele>
        <time>2024-01-01T10:22:51Z</time>
      </trkpt>
      <trkpt lat="-39.0953730" lon="-72.6942930">
        <ele>89.2</ele>
        <time>2024-01-01T10:23:48Z</time>
      </trkpt>
      <trkpt lat="-39.0952450" lon="-72.6946280">
        <ele>89.7</ele>
        <time>2024-01-01T10:24:06Z</time>
      </trkpt>
      <trkpt lat="-39.0949650" lon="-72.6948500">
        <ele>91.1</ele>
        <time>2024-01-01T10:24:30Z</time>
      </trkpt>
      <trkpt lat="-39.0944230" lon="-72.6950950">
        <ele>94.7</ele>
        <time>2024-01-01T10:25:21Z</time>
      </trkpt>
      <trkpt lat="-39.0925880" lon="-72.6965180">
        <ele>92.4</ele>
        <time>2024-01-01T10:28:03Z</time>
      </trkpt>
      <trkpt lat="-39.0923020" lon="-72.6966600">
        <ele>92.6</ele>
        <time>2024-01-01T10:28:15Z</time>
      </trkpt>
      <trkpt lat="-39.0918970" lon="-72.6965870">
        <ele>94.5</ele>
        <time>2024-01-01T10:28:36Z</time>
      </trkpt>
      <trkpt lat="-39.0890270" lon="-72.6953620">
        <ele>94.7</ele>
        <time>2024-01-01T10:31:36Z</time>
      </trkpt>
      <trkpt lat="-39.0886150" lon="-72.6952680">
        <ele>95.6</ele>
        <time>2024-01-01T10:32:06Z</time>
      </trkpt>
      <trkpt lat="-39.0879620" lon="-72.6955670">
        <ele>95.9</ele>
        <time>2024-01-01T10:32:54Z</time>
      </trkpt>
      <trkpt lat="-39.0852920" lon="-72.6971820">
        <ele>91.5</ele>
        <time>2024-01-01T10:35:57Z</time>
      </trkpt>
      <trkpt lat="-39.0841170" lon="-72.6974600">
        <ele>95.8</ele>
        <time>2024-01-01T10:37:00Z</time>
      </trkpt>
      <trkpt lat="-39.0833500" lon="-72.6980500">
        <ele>98.5</ele>
        <time>2024-01-01T10:38:06Z</time>
      </trkpt>
      <trkpt lat="-39.0823620" lon="-72.6990850">
        <ele>98.4</ele>
        <time>2024-01-01T10:39:30Z</time>
      </trkpt>
      <trkpt lat="-39.0805470" lon="-72.7020900">
        <ele>97.7</ele>
        <time>2024-01-01T10:42:48Z</time>
      </trkpt>
      <trkpt lat="-39.0802820" lon="-72.7024880">
        <ele>100.3</ele>
        <time>2024-01-01T10:43:30Z</time>
      </trkpt>
      <trkpt lat="-39.0799580" lon="-72.7027850">
        <ele>102.3</ele>
        <time>2024-01-01T10:44:06Z</time>
      </trkpt>
      <trkpt lat="-39.0785330" lon="-72.7037670">
        <ele>101.2</ele>
        <time>2024-01-01T10:45:54Z</time>
      </trkpt>
      <trkpt lat="-39.0781130" lon="-72.7039420">
        <ele>101.3</ele>
        <time>2024-01-01T10:46:24Z</time>
      </trkpt>
      <trkpt lat="-39.0777680" lon="-72.7042380">
        <ele>101.3</ele>
        <time>2024-01-01T10:46:54Z</time>
      </trkpt>
      <trkpt lat="-39.0764680" lon="-72.7050080">
        <ele>97.9</ele>
        <time>2024-01-01T10:48:24Z</time>
      </trkpt>
      <trkpt lat="-39.0751600" lon="-72.7055780">
        <ele>94.4</ele>
        <time>2024-01-01T10:49:33Z</time>
      </trkpt>
      <trkpt lat="-39.0741000" lon="-72.7056750">
        <ele>99.2</ele>
        <time>2024-01-01T10:51:21Z</time>
      </trkpt>
      <trkpt lat="-39.0739070" lon="-72.7062030">
        <ele>104.4</ele>
        <time>2024-01-01T10:52:33Z</time>
      </trkpt>
      <trkpt lat="-39.0739380" lon="-72.7065800">
        <ele>109.3</ele>
        <time>2024-01-01T10:53:24Z</time>
      </trkpt>
      <trkpt lat="-39.0749730" lon="-72.7066380">
        <ele>123.7</ele>
        <time>2024-01-01T10:56:30Z</time>
      </trkpt>
      <trkpt lat="-39.0752840" lon="-72.7068250">
        <ele>128.3</ele>
        <time>2024-01-01T10:57:33Z</time>
      </trkpt>
      <trkpt lat="-39.0753900" lon="-72.7069790">
        <ele>129.8</ele>
        <time>2024-01-01T10:58:03Z</time>
      </trkpt>
      <trkpt lat="-39.0753200" lon="-72.7078770">
        <ele>140.7</ele>
        <time>2024-01-01T11:00:24Z</time>
      </trkpt>
      <trkpt lat="-39.0753670" lon="-72.7081280">
        <ele>142.9</ele>
        <time>2024-01-01T11:00:42Z</time>
      </trkpt>
      <trkpt lat="-39.0757330" lon="-72.7088120">
        <ele>151.0</ele>
        <time>2024-01-01T11:02:27Z</time>
      </trkpt>
      <trkpt lat="-39.0757370" lon="-72.7089800">
        <ele>152.5</ele>
        <time>2024-01-01T11:03:03Z</time>
      </trkpt>
      <trkpt lat="-39.0745600" lon="-72.7100100">
        <ele>173.7</ele>
        <time>2024-01-01T11:07:45Z</time>
      </trkpt>
      <trkpt lat="-39.0743130" lon="-72.7106200">
        <ele>181.1</ele>
        <time>2024-01-01T11:09:03Z</time>
      </trkpt>
      <trkpt lat="-39.0732290" lon="-72.7117130">
        <ele>197.3</ele>
        <time>2024-01-01T11:13:12Z</time>
      </trkpt>
      <trkpt lat="-39.0729780" lon="-72.7127420">
        <ele>207.7</ele>
        <time>2024-01-01T11:15:42Z</time>
      </trkpt>
      <trkpt lat="-39.0731100" lon="-72.7129740">
        <ele>211.3</ele>
        <time>2024-01-01T11:16:15Z</time>
      </trkpt>
      <trkpt lat="-39.0735510" lon="-72.7123970">
        <ele>215.7</ele>
        <time>2024-01-01T11:17:54Z</time>
      </trkpt>
      <trkpt lat="-39.0743270" lon="-72.7123650">
        <ele>222.7</ele>
        <time>2024-01-01T11:20:45Z</time>
      </trkpt>
      <trkpt lat="-39.0746820" lon="-72.7124300">
        <ele>226.0</ele>
        <time>2024-01-01T11:22:00Z</time>
      </trkpt>
      <trkpt lat="-39.0750610" lon="-72.7127120">
        <ele>230.3</ele>
        <time>2024-01-01T11:23:18Z</time>
      </trkpt>
      <trkpt lat="-39.0752630" lon="-72.7129770">
        <ele>233.1</ele>
        <time>2024-01-01T11:24:15Z</time>
      </trkpt>
      <trkpt lat="-39.0753720" lon="-72.7133420">
        <ele>236.5</ele>
        <time>2024-01-01T11:25:21Z</time>
      </trkpt>
      <trkpt lat="-39.0753450" lon="-72.7136970">
        <ele>239.8</ele>
        <time>2024-01-01T11:26:21Z</time>
      </trkpt>
      <trkpt lat="-39.0752870" lon="-72.7138700">
        <ele>241.3</ele>
        <time>2024-01-01T11:27:00Z</time>
      </trkpt>
      <trkpt lat="-39.0745530" lon="-72.7146050">
        <ele>252.2</ele>
        <time>2024-01-01T11:29:27Z</time>
      </trkpt>
      <trkpt lat="-39.0745100" lon="-72.7153050">
        <ele>257.1</ele>
        <time>2024-01-01T11:30:57Z</time>
      </trkpt>
      <trkpt lat="-39.0743730" lon="-72.7158380">
        <ele>259.3</ele>
        <time>2024-01-01T11:32:06Z</time>
      </trkpt>
      <trkpt lat="-39.0738880" lon="-72.7162850">
        <ele>264.3</ele>
        <time>2024-01-01T11:33:48Z</time>
      </trkpt>
      <trkpt lat="-39.0736870" lon="-72.7166590">
        <ele>267.4</ele>
        <time>2024-01-01T11:34:48Z</time>
      </trkpt>
      <trkpt lat="-39.0736270" lon="-72.7170230">
        <ele>269.0</ele>
        <time>2024-01-01T11:35:48Z</time>
      </trkpt>
      <trkpt lat="-39.0737050" lon="-72.7180230">
        <ele>274.1</ele>
        <time>2024-01-01T11:37:33Z</time>
      </trkpt>
      <trkpt lat="-39.0733530" lon="-72.7205780">
        <ele>294.0</ele>
        <time>2024-01-01T11:43:45Z</time>
      </trkpt>
      <trkpt lat="-39.0733970" lon="-72.7216530">
        <ele>302.0</ele>
        <time>2024-01-01T11:46:18Z</time>
      </trkpt>
      <trkpt lat="-39.0732150" lon="-72.7225650">
        <ele>310.9</ele>
        <time>2024-01-01T11:48:15Z</time>
      </trkpt>
      <trkpt lat="-39.0728430" lon="-72.7231980">
        <ele>319.9</ele>
        <time>2024-01-01T11:50:24Z</time>
      </trkpt>
      <trkpt lat="-39.0727770" lon="-72.7235220">
        <ele>321.9</ele>
        <time>2024-01-01T11:51:06Z</time>
      </trkpt>
      <trkpt lat="-39.0726330" lon="-72.7237320">
        <ele>324.8</ele>
        <time>2024-01-01T11:52:12Z</time>
      </trkpt>
      <trkpt lat="-39.0725450" lon="-72.7256080">
        <ele>341.5</ele>
        <time>2024-01-01T11:55:39Z</time>
      </trkpt>
      <trkpt lat="-39.0727720" lon="-72.7268530">
        <ele>355.4</ele>
        <time>2024-01-01T11:58:24Z</time>
      </trkpt>
      <trkpt lat="-39.0725810" lon="-72.7269710">
        <ele>357.8</ele>
        <time>2024-01-01T11:59:06Z</time>
      </trkpt>
      <trkpt lat="-39.0722530" lon="-72.7275220">
        <ele>363.4</ele>
        <time>2024-01-01T12:00:33Z</time>
      </trkpt>
      <trkpt lat="-39.0720420" lon="-72.7275850">
        <ele>366.3</ele>
        <time>2024-01-01T12:01:21Z</time>
      </trkpt>
      <trkpt lat="-39.0718780" lon="-72.7278350">
        <ele>369.4</ele>
        <time>2024-01-01T12:02:30Z</time>
      </trkpt>
      <trkpt lat="-39.0716710" lon="-72.7278920">
        <ele>371.9</ele>
        <time>2024-01-01T12:03:06Z</time>
      </trkpt>
      <trkpt lat="-39.0708180" lon="-72.7286220">
        <ele>383.3</ele>
        <time>2024-01-01T12:06:12Z</time>
      </trkpt>
      <trkpt lat="-39.0708220" lon="-72.7292450">
        <ele>389.8</ele>
        <time>2024-01-01T12:06:45Z</time>
      </trkpt>
      <trkpt lat="-39.0709520" lon="-72.7296900">
        <ele>394.2</ele>
        <time>2024-01-01T12:07:33Z</time>
      </trkpt>
      <trkpt lat="-39.0709430" lon="-72.7307670">
        <ele>402.9</ele>
        <time>2024-01-01T12:08:45Z</time>
      </trkpt>
      <trkpt lat="-39.0709980" lon="-72.7308070">
        <ele>403.7</ele>
        <time>2024-01-01T12:09:03Z</time>
      </trkpt>
      <trkpt lat="-39.0713420" lon="-72.7300020">
        <ele>405.9</ele>
        <time>2024-01-01T12:10:48Z</time>
      </trkpt>
      <trkpt lat="-39.0716300" lon="-72.7301180">
        <ele>407.6</ele>
        <time>2024-01-01T12:10:54Z</time>
      </trkpt>
      <trkpt lat="-39.0714300" lon="-72.7321850">
        <ele>425.3</ele>
        <time>2024-01-01T12:15:39Z</time>
      </trkpt>
      <trkpt lat="-39.0717580" lon="-72.7324170">
        <ele>429.5</ele>
        <time>2024-01-01T12:17:00Z</time>
      </trkpt>
      <trkpt lat="-39.0721300" lon="-72.7324730">
        <ele>434.7</ele>
        <time>2024-01-01T12:17:51Z</time>
      </trkpt>
      <trkpt lat="-39.0731130" lon="-72.7331780">
        <ele>443.3</ele>
        <time>2024-01-01T12:19:42Z</time>
      </trkpt>
      <trkpt lat="-39.0743300" lon="-72.7351400">
        <ele>463.6</ele>
        <time>2024-01-01T12:26:42Z</time>
      </trkpt>
      <trkpt lat="-39.0748830" lon="-72.7356990">
        <ele>473.0</ele>
        <time>2024-01-01T12:29:24Z</time>
      </trkpt>
      <trkpt lat="-39.0748850" lon="-72.7359570">
        <ele>476.8</ele>
        <time>2024-01-01T12:30:24Z</time>
      </trkpt>
      <trkpt lat="-39.0744170" lon="-72.7367630">
        <ele>486.2</ele>
        <time>2024-01-01T12:33:03Z</time>
      </trkpt>
      <trkpt lat="-39.0737670" lon="-72.7370750">
        <ele>491.0</ele>
        <time>2024-01-01T12:34:45Z</time>
      </trkpt>
      <trkpt lat="-39.0737530" lon="-72.7373470">
        <ele>491.6</ele>
        <time>2024-01-01T12:35:30Z</time>
      </trkpt>
      <trkpt lat="-39.0738580" lon="-72.7374620">
        <ele>492.9</ele>
        <time>2024-01-01T12:35:51Z</time>
      </trkpt>
      <trkpt lat="-39.0745070" lon="-72.7375400">
        <ele>493.8</ele>
        <time>2024-01-01T12:37:24Z</time>
      </trkpt>
      <trkpt lat="-39.0749920" lon="-72.7373790">
        <ele>493.3</ele>
        <time>2024-01-01T12:38:21Z</time>
      </trkpt>
      <trkpt lat="-39.0759960" lon="-72.7367640">
        <ele>489.5</ele>
        <time>2024-01-01T12:40:45Z</time>
      </trkpt>
      <trkpt lat="-39.0766750" lon="-72.7361100">
        <ele>487.5</ele>
        <time>2024-01-01T12:42:39Z</time>
      </trkpt>
      <trkpt lat="-39.0772440" lon="-72.7358150">
        <ele>486.1</ele>
        <time>2024-01-01T12:44:09Z</time>
      </trkpt>
      <trkpt lat="-39.0777070" lon="-72.7359700">
        <ele>484.9</ele>
        <time>2024-01-01T12:45:18Z</time>
      </trkpt>
      <trkpt lat="-39.0781300" lon="-72.7362630">
        <ele>483.8</ele>
        <time>2024-01-01T12:45:48Z</time>
      </trkpt>
      <trkpt lat="-39.0788320" lon="-72.7365570">
        <ele>482.0</ele>
        <time>2024-01-01T12:46:18Z</time>
      </trkpt>
      <trkpt lat="-39.0795580" lon="-72.7363850">
        <ele>480.3</ele>
        <time>2024-01-01T12:46:42Z</time>
      </trkpt>
      <trkpt lat="-39.0801450" lon="-72.7365130">
        <ele>478.9</ele>
        <time>2024-01-01T12:47:03Z</time>
      </trkpt>
      <trkpt lat="-39.0807300" lon="-72.7363150">
        <ele>484.4</ele>
        <time>2024-01-01T12:48:33Z</time>
      </trkpt>
      <trkpt lat="-39.0811300" lon="-72.7351330">
        <ele>511.9</ele>
        <time>2024-01-01T12:51:51Z</time>
      </trkpt>
      <trkpt lat="-39.0811680" lon="-72.7345270">
        <ele>517.7</ele>
        <time>2024-01-01T12:53:21Z</time>
      </trkpt>
      <trkpt lat="-39.0813800" lon="-72.7339500">
        <ele>512.1</ele>
        <time>2024-01-01T12:54:45Z</time>
      </trkpt>
      <trkpt lat="-39.0816220" lon="-72.7337240">
        <ele>515.1</ele>
        <time>2024-01-01T12:55:21Z</time>
      </trkpt>
      <trkpt lat="-39.0821730" lon="-72.7335420">
        <ele>518.8</ele>
        <time>2024-01-01T12:56:45Z</time>
      </trkpt>
      <trkpt lat="-39.0828590" lon="-72.7331230">
        <ele>513.3</ele>
        <time>2024-01-01T12:57:57Z</time>
      </trkpt>
      <trkpt lat="-39.0836300" lon="-72.7328690">
        <ele>499.4</ele>
        <time>2024-01-01T12:59:12Z</time>
      </trkpt>
      <trkpt lat="-39.0844880" lon="-72.7323930">
        <ele>493.5</ele>
        <time>2024-01-01T13:00:42Z</time>
      </trkpt>
      <trkpt lat="-39.0845480" lon="-72.7323450">
        <ele>493.0</ele>
        <time>2024-01-01T13:00:54Z</time>
      </trkpt>
      <trkpt lat="-39.0846200" lon="-72.7316520">
        <ele>488.3</ele>
        <time>2024-01-01T13:01:18Z</time>
      </trkpt>
      <trkpt lat="-39.0849580" lon="-72.7311380">
        <ele>479.2</ele>
        <time>2024-01-01T13:02:00Z</time>
      </trkpt>
      <trkpt lat="-39.0855700" lon="-72.7307730">
        <ele>475.9</ele>
        <time>2024-01-01T13:03:27Z</time>
      </trkpt>
      <trkpt lat="-39.0861550" lon="-72.7307080">
        <ele>471.1</ele>
        <time>2024-01-01T13:04:12Z</time>
      </trkpt>
      <trkpt lat="-39.0864180" lon="-72.7302930">
        <ele>467.3</ele>
        <time>2024-01-01T13:04:51Z</time>
      </trkpt>
      <trkpt lat="-39.0870220" lon="-72.7296120">
        <ele>464.0</ele>
        <time>2024-01-01T13:05:54Z</time>
      </trkpt>
      <trkpt lat="-39.0873070" lon="-72.7294280">
        <ele>464.2</ele>
        <time>2024-01-01T13:06:18Z</time>
      </trkpt>
      <trkpt lat="-39.0877170" lon="-72.7293670">
        <ele>464.8</ele>
        <time>2024-01-01T13:06:48Z</time>
      </trkpt>
      <trkpt lat="-39.0878930" lon="-72.7292480">
        <ele>463.9</ele>
        <time>2024-01-01T13:06:57Z</time>
      </trkpt>
      <trkpt lat="-39.0879370" lon="-72.7291400">
        <ele>461.6</ele>
        <time>2024-01-01T13:07:03Z</time>
      </trkpt>
      <trkpt lat="-39.0878170" lon="-72.7289630">
        <ele>459.4</ele>
        <time>2024-01-01T13:07:12Z</time>
      </trkpt>
      <trkpt lat="-39.0870480" lon="-72.7285820">
        <ele>451.7</ele>
        <time>2024-01-01T13:07:42Z</time>
      </trkpt>
      <trkpt lat="-39.0860780" lon="-72.7284930">
        <ele>442.5</ele>
        <time>2024-01-01T13:08:18Z</time>
      </trkpt>
      <trkpt lat="-39.0858150" lon="-72.7283480">
        <ele>439.9</ele>
        <time>2024-01-01T13:08:39Z</time>
      </trkpt>
      <trkpt lat="-39.0854520" lon="-72.7286940">
        <ele>443.0</ele>
        <time>2024-01-01T13:09:45Z</time>
      </trkpt>
      <trkpt lat="-39.0852880" lon="-72.7291300">
        <ele>447.2</ele>
        <time>2024-01-01T13:10:18Z</time>
      </trkpt>
      <trkpt lat="-39.0850930" lon="-72.7293930">
        <ele>448.1</ele>
        <time>2024-01-01T13:11:06Z</time>
      </trkpt>
      <trkpt lat="-39.0843400" lon="-72.7294680">
        <ele>437.5</ele>
        <time>2024-01-01T13:12:12Z</time>
      </trkpt>
      <trkpt lat="-39.0836000" lon="-72.7293880">
        <ele>438.9</ele>
        <time>2024-01-01T13:13:24Z</time>
      </trkpt>
      <trkpt lat="-39.0824850" lon="-72.7289470">
        <ele>430.4</ele>
        <time>2024-01-01T13:14:06Z</time>
      </trkpt>
      <trkpt lat="-39.0822770" lon="-72.7287880">
        <ele>426.8</ele>
        <time>2024-01-01T13:14:18Z</time>
      </trkpt>
      <trkpt lat="-39.0822900" lon="-72.7286700">
        <ele>423.7</ele>
        <time>2024-01-01T13:14:24Z</time>
      </trkpt>
      <trkpt lat="-39.0821620" lon="-72.7285470">
        <ele>421.1</ele>
        <time>2024-01-01T13:14:45Z</time>
      </trkpt>
      <trkpt lat="-39.0817120" lon="-72.7283070">
        <ele>418.0</ele>
        <time>2024-01-01T13:15:15Z</time>
      </trkpt>
      <trkpt lat="-39.0815030" lon="-72.7282900">
        <ele>417.9</ele>
        <time>2024-01-01T13:15:27Z</time>
      </trkpt>
      <trkpt lat="-39.0809530" lon="-72.7284470">
        <ele>414.0</ele>
        <time>2024-01-01T13:15:48Z</time>
      </trkpt>
      <trkpt lat="-39.0806970" lon="-72.7283530">
        <ele>407.4</ele>
        <time>2024-01-01T13:15:57Z</time>
      </trkpt>
      <trkpt lat="-39.0806330" lon="-72.7281530">
        <ele>401.8</ele>
        <time>2024-01-01T13:16:06Z</time>
      </trkpt>
      <trkpt lat="-39.0809380" lon="-72.7275850">
        <ele>393.8</ele>
        <time>2024-01-01T13:16:24Z</time>
      </trkpt>
      <trkpt lat="-39.0819510" lon="-72.7270290">
        <ele>398.0</ele>
        <time>2024-01-01T13:19:06Z</time>
      </trkpt>
      <trkpt lat="-39.0822440" lon="-72.7271420">
        <ele>401.1</ele>
        <time>2024-01-01T13:19:57Z</time>
      </trkpt>
      <trkpt lat="-39.0829770" lon="-72.7276570">
        <ele>401.8</ele>
        <time>2024-01-01T13:21:42Z</time>
      </trkpt>
      <trkpt lat="-39.0841270" lon="-72.7279430">
        <ele>415.4</ele>
        <time>2024-01-01T13:25:00Z</time>
      </trkpt>
      <trkpt lat="-39.0843590" lon="-72.7276010">
        <ele>422.8</ele>
        <time>2024-01-01T13:26:06Z</time>
      </trkpt>
      <trkpt lat="-39.0848300" lon="-72.7271930">
        <ele>427.3</ele>
        <time>2024-01-01T13:27:42Z</time>
      </trkpt>
      <trkpt lat="-39.0849390" lon="-72.7265840">
        <ele>420.4</ele>
        <time>2024-01-01T13:28:30Z</time>
      </trkpt>
      <trkpt lat="-39.0851680" lon="-72.7263070">
        <ele>418.4</ele>
        <time>2024-01-01T13:28:45Z</time>
      </trkpt>
      <trkpt lat="-39.0863650" lon="-72.7257170">
        <ele>409.8</ele>
        <time>2024-01-01T13:30:15Z</time>
      </trkpt>
      <trkpt lat="-39.0866740" lon="-72.7258350">
        <ele>411.8</ele>
        <time>2024-01-01T13:30:48Z</time>
      </trkpt>
      <trkpt lat="-39.0868330" lon="-72.7260300">
        <ele>416.5</ele>
        <time>2024-01-01T13:31:18Z</time>
      </trkpt>
      <trkpt lat="-39.0869280" lon="-72.7267170">
        <ele>424.6</ele>
        <time>2024-01-01T13:32:57Z</time>
      </trkpt>
      <trkpt lat="-39.0871030" lon="-72.7269280">
        <ele>427.4</ele>
        <time>2024-01-01T13:33:51Z</time>
      </trkpt>
      <trkpt lat="-39.0877320" lon="-72.7272730">
        <ele>441.0</ele>
        <time>2024-01-01T13:36:03Z</time>
      </trkpt>
      <trkpt lat="-39.0879770" lon="-72.7270450">
        <ele>440.9</ele>
        <time>2024-01-01T13:36:36Z</time>
      </trkpt>
      <trkpt lat="-39.0880950" lon="-72.7267500">
        <ele>442.7</ele>
        <time>2024-01-01T13:37:42Z</time>
      </trkpt>
      <trkpt lat="-39.0879640" lon="-72.7260120">
        <ele>439.2</ele>
        <time>2024-01-01T13:39:45Z</time>
      </trkpt>
      <trkpt lat="-39.0878720" lon="-72.7243550">
        <ele>425.9</ele>
        <time>2024-01-01T13:40:51Z</time>
      </trkpt>
      <trkpt lat="-39.0882850" lon="-72.7211730">
        <ele>403.2</ele>
        <time>2024-01-01T13:44:15Z</time>
      </trkpt>
      <trkpt lat="-39.0882550" lon="-72.7206170">
        <ele>398.0</ele>
        <time>2024-01-01T13:44:30Z</time>
      </trkpt>
      <trkpt lat="-39.0880420" lon="-72.7199250">
        <ele>391.5</ele>
        <time>2024-01-01T13:45:00Z</time>
      </trkpt>
      <trkpt lat="-39.0883430" lon="-72.7189330">
        <ele>376.5</ele>
        <time>2024-01-01T13:45:42Z</time>
      </trkpt>
      <trkpt lat="-39.0882320" lon="-72.7177950">
        <ele>370.4</ele>
        <time>2024-01-01T13:46:15Z</time>
      </trkpt>
      <trkpt lat="-39.0883450" lon="-72.7168780">
        <ele>368.9</ele>
        <time>2024-01-01T13:46:51Z</time>
      </trkpt>
      <trkpt lat="-39.0884820" lon="-72.7166420">
        <ele>368.4</ele>
        <time>2024-01-01T13:47:03Z</time>
      </trkpt>
      <trkpt lat="-39.0886600" lon="-72.7166430">
        <ele>368.0</ele>
        <time>2024-01-01T13:47:18Z</time>
      </trkpt>
      <trkpt lat="-39.0887920" lon="-72.7172370">
        <ele>366.9</ele>
        <time>2024-01-01T13:48:03Z</time>
      </trkpt>
      <trkpt lat="-39.0891050" lon="-72.7174820">
        <ele>366.1</ele>
        <time>2024-01-01T13:48:39Z</time>
      </trkpt>
      <trkpt lat="-39.0897730" lon="-72.7175800">
        <ele>364.7</ele>
        <time>2024-01-01T13:49:57Z</time>
      </trkpt>
      <trkpt lat="-39.0899520" lon="-72.7177900">
        <ele>364.2</ele>
        <time>2024-01-01T13:50:18Z</time>
      </trkpt>
      <trkpt lat="-39.0899990" lon="-72.7180240">
        <ele>363.8</ele>
        <time>2024-01-01T13:50:33Z</time>
      </trkpt>
      <trkpt lat="-39.0901250" lon="-72.7172300">
        <ele>362.3</ele>
        <time>2024-01-01T13:51:42Z</time>
      </trkpt>
      <trkpt lat="-39.0903150" lon="-72.7170220">
        <ele>361.8</ele>
        <time>2024-01-01T13:52:00Z</time>
      </trkpt>
      <trkpt lat="-39.0905070" lon="-72.7170500">
        <ele>361.4</ele>
        <time>2024-01-01T13:52:15Z</time>
      </trkpt>
      <trkpt lat="-39.0906870" lon="-72.7172630">
        <ele>360.8</ele>
        <time>2024-01-01T13:52:39Z</time>
      </trkpt>
      <trkpt lat="-39.0907970" lon="-72.7178350">
        <ele>359.9</ele>
        <time>2024-01-01T13:53:27Z</time>
      </trkpt>
      <trkpt lat="-39.0911550" lon="-72.7173990">
        <ele>356.8</ele>
        <time>2024-01-01T13:54:42Z</time>
      </trkpt>
      <trkpt lat="-39.0915420" lon="-72.7173480">
        <ele>362.4</ele>
        <time>2024-01-01T13:55:42Z</time>
      </trkpt>
      <trkpt lat="-39.0914350" lon="-72.7178470">
        <ele>370.4</ele>
        <time>2024-01-01T13:56:42Z</time>
      </trkpt>
      <trkpt lat="-39.0914800" lon="-72.7181790">
        <ele>372.1</ele>
        <time>2024-01-01T13:57:24Z</time>
      </trkpt>
      <trkpt lat="-39.0917400" lon="-72.7185780">
        <ele>374.8</ele>
        <time>2024-01-01T13:58:03Z</time>
      </trkpt>
      <trkpt lat="-39.0919430" lon="-72.7186790">
        <ele>376.4</ele>
        <time>2024-01-01T13:58:36Z</time>
      </trkpt>
      <trkpt lat="-39.0921330" lon="-72.7189800">
        <ele>377.4</ele>
        <time>2024-01-01T13:59:42Z</time>
      </trkpt>
      <trkpt lat="-39.0923250" lon="-72.7190900">
        <ele>377.4</ele>
        <time>2024-01-01T14:00:27Z</time>
      </trkpt>
      <trkpt lat="-39.0926540" lon="-72.7191250">
        <ele>382.6</ele>
        <time>2024-01-01T14:01:51Z</time>
      </trkpt>
      <trkpt lat="-39.0930030" lon="-72.7187550">
        <ele>390.0</ele>
        <time>2024-01-01T14:03:27Z</time>
      </trkpt>
      <trkpt lat="-39.0934430" lon="-72.7187030">
        <ele>390.1</ele>
        <time>2024-01-01T14:03:30Z</time>
      </trkpt>
      <trkpt lat="-39.0935600" lon="-72.7189420">
        <ele>390.4</ele>
        <time>2024-01-01T14:04:12Z</time>
      </trkpt>
      <trkpt lat="-39.0935830" lon="-72.7199650">
        <ele>400.5</ele>
        <time>2024-01-01T14:06:33Z</time>
      </trkpt>
      <trkpt lat="-39.0934100" lon="-72.7204520">
        <ele>409.4</ele>
        <time>2024-01-01T14:07:48Z</time>
      </trkpt>
      <trkpt lat="-39.0930090" lon="-72.7210070">
        <ele>412.5</ele>
        <time>2024-01-01T14:09:18Z</time>
      </trkpt>
      <trkpt lat="-39.0927770" lon="-72.7215380">
        <ele>416.6</ele>
        <time>2024-01-01T14:10:36Z</time>
      </trkpt>
      <trkpt lat="-39.0924400" lon="-72.7218900">
        <ele>418.7</ele>
        <time>2024-01-01T14:11:15Z</time>
      </trkpt>
      <trkpt lat="-39.0920850" lon="-72.7225670">
        <ele>429.6</ele>
        <time>2024-01-01T14:13:00Z</time>
      </trkpt>
      <trkpt lat="-39.0921670" lon="-72.7230280">
        <ele>434.0</ele>
        <time>2024-01-01T14:15:00Z</time>
      </trkpt>
      <trkpt lat="-39.0928260" lon="-72.7239930">
        <ele>440.3</ele>
        <time>2024-01-01T14:17:42Z</time>
      </trkpt>
      <trkpt lat="-39.0930850" lon="-72.7247240">
        <ele>444.2</ele>
        <time>2024-01-01T14:19:36Z</time>
      </trkpt>
      <trkpt lat="-39.0930670" lon="-72.7249170">
        <ele>445.2</ele>
        <time>2024-01-01T14:20:00Z</time>
      </trkpt>
      <trkpt lat="-39.0924950" lon="-72.7260020">
        <ele>444.5</ele>
        <time>2024-01-01T14:22:06Z</time>
      </trkpt>
      <trkpt lat="-39.0919520" lon="-72.7267470">
        <ele>452.8</ele>
        <time>2024-01-01T14:24:51Z</time>
      </trkpt>
      <trkpt lat="-39.0919900" lon="-72.7270170">
        <ele>453.7</ele>
        <time>2024-01-01T14:25:24Z</time>
      </trkpt>
      <trkpt lat="-39.0920930" lon="-72.7271400">
        <ele>453.2</ele>
        <time>2024-01-01T14:25:51Z</time>
      </trkpt>
      <trkpt lat="-39.0922830" lon="-72.7271720">
        <ele>454.1</ele>
        <time>2024-01-01T14:26:33Z</time>
      </trkpt>
      <trkpt lat="-39.0927410" lon="-72.7270290">
        <ele>452.2</ele>
        <time>2024-01-01T14:28:12Z</time>
      </trkpt>
      <trkpt lat="-39.0938250" lon="-72.7265450">
        <ele>458.3</ele>
        <time>2024-01-01T14:30:21Z</time>
      </trkpt>
      <trkpt lat="-39.0941480" lon="-72.7264770">
        <ele>458.8</ele>
        <time>2024-01-01T14:31:09Z</time>
      </trkpt>
      <trkpt lat="-39.0946640" lon="-72.7266220">
        <ele>462.2</ele>
        <time>2024-01-01T14:32:27Z</time>
      </trkpt>
      <trkpt lat="-39.0952980" lon="-72.7266820">
        <ele>466.2</ele>
        <time>2024-01-01T14:33:33Z</time>
      </trkpt>
      <trkpt lat="-39.0957350" lon="-72.7265720">
        <ele>469.0</ele>
        <time>2024-01-01T14:33:54Z</time>
      </trkpt>
      <trkpt lat="-39.0960100" lon="-72.7264350">
        <ele>470.8</ele>
        <time>2024-01-01T14:34:06Z</time>
      </trkpt>
      <trkpt lat="-39.0968750" lon="-72.7254290">
        <ele>458.9</ele>
        <time>2024-01-01T14:35:00Z</time>
      </trkpt>
      <trkpt lat="-39.0971050" lon="-72.7253980">
        <ele>462.1</ele>
        <time>2024-01-01T14:35:30Z</time>
      </trkpt>
      <trkpt lat="-39.0974430" lon="-72.7256330">
        <ele>468.6</ele>
        <time>2024-01-01T14:36:30Z</time>
      </trkpt>
      <trkpt lat="-39.0979970" lon="-72.7256830">
        <ele>470.4</ele>
        <time>2024-01-01T14:37:54Z</time>
      </trkpt>
      <trkpt lat="-39.0980670" lon="-72.7250030">
        <ele>465.3</ele>
        <time>2024-01-01T14:38:45Z</time>
      </trkpt>
      <trkpt lat="-39.0987680" lon="-72.7241680">
        <ele>450.0</ele>
        <time>2024-01-01T14:39:57Z</time>
      </trkpt>
      <trkpt lat="-39.0989120" lon="-72.7238000">
        <ele>444.5</ele>
        <time>2024-01-01T14:40:12Z</time>
      </trkpt>
      <trkpt lat="-39.0989020" lon="-72.7235820">
        <ele>441.0</ele>
        <time>2024-01-01T14:40:27Z</time>
      </trkpt>
      <trkpt lat="-39.0982330" lon="-72.7229330">
        <ele>433.6</ele>
        <time>2024-01-01T14:41:12Z</time>
      </trkpt>
      <trkpt lat="-39.0981570" lon="-72.7227620">
        <ele>432.4</ele>
        <time>2024-01-01T14:41:24Z</time>
      </trkpt>
      <trkpt lat="-39.0984250" lon="-72.7222100">
        <ele>429.7</ele>
        <time>2024-01-01T14:42:06Z</time>
      </trkpt>
      <trkpt lat="-39.0986080" lon="-72.7215670">
        <ele>422.4</ele>
        <time>2024-01-01T14:42:48Z</time>
      </trkpt>
      <trkpt lat="-39.0987830" lon="-72.7213800">
        <ele>417.7</ele>
        <time>2024-01-01T14:43:12Z</time>
      </trkpt>
      <trkpt lat="-39.0988320" lon="-72.7209830">
        <ele>413.2</ele>
        <time>2024-01-01T14:43:51Z</time>
      </trkpt>
      <trkpt lat="-39.0990130" lon="-72.7205170">
        <ele>415.4</ele>
        <time>2024-01-01T14:44:09Z</time>
      </trkpt>
      <trkpt lat="-39.0989100" lon="-72.7198200">
        <ele>409.8</ele>
        <time>2024-01-01T14:44:51Z</time>
      </trkpt>
      <trkpt lat="-39.0986250" lon="-72.7193820">
        <ele>405.4</ele>
        <time>2024-01-01T14:45:24Z</time>
      </trkpt>
      <trkpt lat="-39.0982950" lon="-72.7185830">
        <ele>400.5</ele>
        <time>2024-01-01T14:46:00Z</time>
      </trkpt>
      <trkpt lat="-39.0980450" lon="-72.7183520">
        <ele>396.1</ele>
        <time>2024-01-01T14:46:27Z</time>
      </trkpt>
      <trkpt lat="-39.0979830" lon="-72.7177280">
        <ele>389.6</ele>
        <time>2024-01-01T14:47:24Z</time>
      </trkpt>
      <trkpt lat="-39.0973320" lon="-72.7174150">
        <ele>386.7</ele>
        <time>2024-01-01T14:48:18Z</time>
      </trkpt>
      <trkpt lat="-39.0961370" lon="-72.7170420">
        <ele>366.3</ele>
        <time>2024-01-01T14:49:27Z</time>
      </trkpt>
      <trkpt lat="-39.0957250" lon="-72.7164530">
        <ele>358.0</ele>
        <time>2024-01-01T14:50:30Z</time>
      </trkpt>
      <trkpt lat="-39.0958920" lon="-72.7151050">
        <ele>343.8</ele>
        <time>2024-01-01T14:51:33Z</time>
      </trkpt>
      <trkpt lat="-39.0957800" lon="-72.7146580">
        <ele>336.7</ele>
        <time>2024-01-01T14:52:15Z</time>
      </trkpt>
      <trkpt lat="-39.0960480" lon="-72.7130400">
        <ele>325.0</ele>
        <time>2024-01-01T14:53:33Z</time>
      </trkpt>
      <trkpt lat="-39.0962540" lon="-72.7123810">
        <ele>316.3</ele>
        <time>2024-01-01T14:54:00Z</time>
      </trkpt>
      <trkpt lat="-39.0962730" lon="-72.7118430">
        <ele>309.1</ele>
        <time>2024-01-01T14:54:30Z</time>
      </trkpt>
      <trkpt lat="-39.0964070" lon="-72.7114430">
        <ele>303.7</ele>
        <time>2024-01-01T14:54:45Z</time>
      </trkpt>
      <trkpt lat="-39.0967550" lon="-72.7111430">
        <ele>293.2</ele>
        <time>2024-01-01T14:55:30Z</time>
      </trkpt>
      <trkpt lat="-39.0973000" lon="-72.7104100">
        <ele>275.5</ele>
        <time>2024-01-01T14:56:06Z</time>
      </trkpt>
      <trkpt lat="-39.0977220" lon="-72.7097950">
        <ele>259.3</ele>
        <time>2024-01-01T14:56:45Z</time>
      </trkpt>
      <trkpt lat="-39.0978600" lon="-72.7094270">
        <ele>255.3</ele>
        <time>2024-01-01T14:57:00Z</time>
      </trkpt>
      <trkpt lat="-39.0978760" lon="-72.7093220">
        <ele>255.1</ele>
        <time>2024-01-01T14:57:06Z</time>
      </trkpt>
      <trkpt lat="-39.0977200" lon="-72.7091620">
        <ele>256.5</ele>
        <time>2024-01-01T14:57:42Z</time>
      </trkpt>
      <trkpt lat="-39.0975980" lon="-72.7085870">
        <ele>245.9</ele>
        <time>2024-01-01T14:58:06Z</time>
      </trkpt>
      <trkpt lat="-39.0976920" lon="-72.7078470">
        <ele>232.8</ele>
        <time>2024-01-01T14:58:21Z</time>
      </trkpt>
      <trkpt lat="-39.0980100" lon="-72.7073130">
        <ele>226.5</ele>
        <time>2024-01-01T14:58:45Z</time>
      </trkpt>
      <trkpt lat="-39.0977070" lon="-72.7068970">
        <ele>220.3</ele>
        <time>2024-01-01T14:59:33Z</time>
      </trkpt>
      <trkpt lat="-39.0977200" lon="-72.7067700">
        <ele>217.9</ele>
        <time>2024-01-01T14:59:39Z</time>
      </trkpt>
      <trkpt lat="-39.0979720" lon="-72.7065600">
        <ele>213.6</ele>
        <time>2024-01-01T15:00:03Z</time>
      </trkpt>
      <trkpt lat="-39.0980430" lon="-72.7063200">
        <ele>212.3</ele>
        <time>2024-01-01T15:00:27Z</time>
      </trkpt>
      <trkpt lat="-39.0976470" lon="-72.7051520">
        <ele>204.3</ele>
        <time>2024-01-01T15:01:15Z</time>
      </trkpt>
      <trkpt lat="-39.0972070" lon="-72.7046120">
        <ele>188.5</ele>
        <time>2024-01-01T15:01:36Z</time>
      </trkpt>
      <trkpt lat="-39.0970000" lon="-72.7005520">
        <ele>146.0</ele>
        <time>2024-01-01T15:03:51Z</time>
      </trkpt>
      <trkpt lat="-39.0963520" lon="-72.6989050">
        <ele>123.7</ele>
        <time>2024-01-01T15:04:21Z</time>
      </trkpt>
      <trkpt lat="-39.0962900" lon="-72.6972650">
        <ele>104.3</ele>
        <time>2024-01-01T15:04:51Z</time>
      </trkpt>
      <trkpt lat="-39.0955750" lon="-72.6961080">
        <ele>93.8</ele>
        <time>2024-01-01T15:05:18Z</time>
      </trkpt>
      <trkpt lat="-39.0955400" lon="-72.6956920">
        <ele>92.7</ele>
        <time>2024-01-01T15:05:27Z</time>
      </trkpt>
      <trkpt lat="-39.0956920" lon="-72.6950020">
        <ele>92.8</ele>
        <time>2024-01-01T15:05:51Z</time>
      </trkpt>
      <trkpt lat="-39.0953530" lon="-72.6944130">
        <ele>89.4</ele>
        <time>2024-01-01T15:06:24Z</time>
      </trkpt>
      <trkpt lat="-39.0955970" lon="-72.6927380">
        <ele>91.4</ele>
        <time>2024-01-01T15:08:03Z</time>
      </trkpt>
      <trkpt lat="-39.0964400" lon="-72.6919990">
        <ele>94.7</ele>
        <time>2024-01-01T15:09:57Z</time>
      </trkpt>
      <trkpt lat="-39.0969480" lon="-72.6916620">
        <ele>94.6</ele>
        <time>2024-01-01T15:10:54Z</time>
      </trkpt>
      <trkpt lat="-39.0973950" lon="-72.6910670">
        <ele>94.2</ele>
        <time>2024-01-01T15:11:54Z</time>
      </trkpt>
      <trkpt lat="-39.0975570" lon="-72.6905000">
        <ele>93.9</ele>
        <time>2024-01-01T15:12:39Z</time>
      </trkpt>
      <trkpt lat="-39.0975980" lon="-72.6888330">
        <ele>93.7</ele>
        <time>2024-01-01T15:14:24Z</time>
      </trkpt>
      <trkpt lat="-39.0984170" lon="-72.6887700">
        <ele>92.4</ele>
        <time>2024-01-01T15:15:36Z</time>
      </trkpt>
      <trkpt lat="-39.0986450" lon="-72.6885530">
        <ele>92.3</ele>
        <time>2024-01-01T15:16:09Z</time>
      </trkpt>
      <trkpt lat="-39.0998380" lon="-72.6884770">
        <ele>92.3</ele>
        <time>2024-01-01T15:17:54Z</time>
      </trkpt>
      <trkpt lat="-39.1001120" lon="-72.6881350">
        <ele>91.1</ele>
        <time>2024-01-01T15:18:24Z</time>
      </trkpt>
      <trkpt lat="-39.1001470" lon="-72.6880100">
        <ele>90.6</ele>
        <time>2024-01-01T15:18:30Z</time>
      </trkpt>
      <trkpt lat="-39.1000400" lon="-72.6875500">
        <ele>90.4</ele>
        <time>2024-01-01T15:19:09Z</time>
      </trkpt>
      <trkpt lat="-39.0998720" lon="-72.6871920">
        <ele>90.7</ele>
        <time>2024-01-01T15:19:24Z</time>
      </trkpt>
      <trkpt lat="-39.0995100" lon="-72.6870050">
        <ele>91.5</ele>
        <time>2024-01-01T15:19:45Z</time>
      </trkpt>
      <trkpt lat="-39.0992480" lon="-72.6866770">
        <ele>91.9</ele>
        <time>2024-01-01T15:20:09Z</time>
      </trkpt>
      <trkpt lat="-39.0993720" lon="-72.6853970">
        <ele>91.0</ele>
        <time>2024-01-01T15:21:45Z</time>
      </trkpt>
      <trkpt lat="-39.0999970" lon="-72.6846800">
        <ele>88.8</ele>
        <time>2024-01-01T15:22:57Z</time>
      </trkpt>
      <trkpt lat="-39.1002170" lon="-72.6846200">
        <ele>86.1</ele>
        <time>2024-01-01T15:23:15Z</time>
      </trkpt>
      <trkpt lat="-39.1007720" lon="-72.6842680">
        <ele>88.3</ele>
        <time>2024-01-01T15:24:30Z</time>
      </trkpt>
      <trkpt lat="-39.1018030" lon="-72.6839750">
        <ele>89.1</ele>
        <time>2024-01-01T15:26:27Z</time>
      </trkpt>
      <trkpt lat="-39.1026200" lon="-72.6834680">
        <ele>87.8</ele>
        <time>2024-01-01T15:28:00Z</time>
      </trkpt>
      <trkpt lat="-39.1026910" lon="-72.6833030">
        <ele>87.8</ele>
        <time>2024-01-01T15:28:27Z</time>
      </trkpt>
      <trkpt lat="-39.1026730" lon="-72.6802280">
        <ele>94.7</ele>
        <time>2024-01-01T15:32:06Z</time>
      </trkpt>
      <trkpt lat="-39.1025270" lon="-72.6759370">
        <ele>95.6</ele>
        <time>2024-01-01T15:36:30Z</time>
      </trkpt>
      <trkpt lat="-39.0956710" lon="-72.6964350">
        <ele>96.6</ele>
        <time>2024-01-01T15:37:03Z</time>
      </trkpt>
      <trkpt lat="-39.0960710" lon="-72.6967730">
        <ele>100.5</ele>
        <time>2024-01-01T15:38:18Z</time>
      </trkpt>
      <trkpt lat="-39.0961240" lon="-72.6970180">
        <ele>102.9</ele>
        <time>2024-01-01T15:38:57Z</time>
      </trkpt>
      <trkpt lat="-39.0963470" lon="-72.6972100">
        <ele>106.4</ele>
        <time>2024-01-01T15:40:06Z</time>
      </trkpt>
      <trkpt lat="-39.0964740" lon="-72.6977680">
        <ele>113.5</ele>
        <time>2024-01-01T15:41:33Z</time>
      </trkpt>
      <trkpt lat="-39.0964830" lon="-72.6988940">
        <ele>124.0</ele>
        <time>2024-01-01T15:44:21Z</time>
      </trkpt>
      <trkpt lat="-39.0967040" lon="-72.6996270">
        <ele>130.7</ele>
        <time>2024-01-01T15:46:30Z</time>
      </trkpt>
      <trkpt lat="-39.0969510" lon="-72.7000510">
        <ele>137.0</ele>
        <time>2024-01-01T15:48:06Z</time>
      </trkpt>
      <trkpt lat="-39.0971840" lon="-72.7009630">
        <ele>149.1</ele>
        <time>2024-01-01T15:50:39Z</time>
      </trkpt>
      <trkpt lat="-39.0971300" lon="-72.7020900">
        <ele>160.9</ele>
        <time>2024-01-01T15:53:21Z</time>
      </trkpt>
      <trkpt lat="-39.0973370" lon="-72.7038780">
        <ele>177.7</ele>
        <time>2024-01-01T15:57:30Z</time>
      </trkpt>
      <trkpt lat="-39.0972520" lon="-72.7043430">
        <ele>182.9</ele>
        <time>2024-01-01T15:58:48Z</time>
      </trkpt>
      <trkpt lat="-39.0972650" lon="-72.7050960">
        <ele>189.2</ele>
        <time>2024-01-01T16:00:48Z</time>
      </trkpt>
      <trkpt lat="-39.0971260" lon="-72.7053940">
        <ele>191.6</ele>
        <time>2024-01-01T16:02:06Z</time>
      </trkpt>
      <trkpt lat="-39.0967050" lon="-72.7053570">
        <ele>196.4</ele>
        <time>2024-01-01T16:03:48Z</time>
      </trkpt>
      <trkpt lat="-39.0962010" lon="-72.7054580">
        <ele>203.1</ele>
        <time>2024-01-01T16:05:18Z</time>
      </trkpt>
      <trkpt lat="-39.0959030" lon="-72.7058610">
        <ele>208.8</ele>
        <time>2024-01-01T16:06:33Z</time>
      </trkpt>
      <trkpt lat="-39.0953770" lon="-72.7063320">
        <ele>217.3</ele>
        <time>2024-01-01T16:08:24Z</time>
      </trkpt>
      <trkpt lat="-39.0951860" lon="-72.7067070">
        <ele>221.9</ele>
        <time>2024-01-01T16:10:18Z</time>
      </trkpt>
      <trkpt lat="-39.0945200" lon="-72.7070230">
        <ele>231.4</ele>
        <time>2024-01-01T16:13:00Z</time>
      </trkpt>
      <trkpt lat="-39.0944470" lon="-72.7073950">
        <ele>235.8</ele>
        <time>2024-01-01T16:15:18Z</time>
      </trkpt>
      <trkpt lat="-39.0944390" lon="-72.7077300">
        <ele>239.3</ele>
        <time>2024-01-01T16:16:54Z</time>
      </trkpt>
      <trkpt lat="-39.0947150" lon="-72.7083100">
        <ele>255.4</ele>
        <time>2024-01-01T16:19:30Z</time>
      </trkpt>
      <trkpt lat="-39.0948380" lon="-72.7084020">
        <ele>258.8</ele>
        <time>2024-01-01T16:20:06Z</time>
      </trkpt>
      <trkpt lat="-39.0951340" lon="-72.7084340">
        <ele>260.7</ele>
        <time>2024-01-01T16:21:06Z</time>
      </trkpt>
      <trkpt lat="-39.0954700" lon="-72.7087390">
        <ele>266.7</ele>
        <time>2024-01-01T16:23:09Z</time>
      </trkpt>
      <trkpt lat="-39.0961370" lon="-72.7089890">
        <ele>282.4</ele>
        <time>2024-01-01T16:26:03Z</time>
      </trkpt>
      <trkpt lat="-39.0965970" lon="-72.7090640">
        <ele>282.5</ele>
        <time>2024-01-01T16:27:18Z</time>
      </trkpt>
      <trkpt lat="-39.0968750" lon="-72.7095650">
        <ele>289.4</ele>
        <time>2024-01-01T16:29:48Z</time>
      </trkpt>
      <trkpt lat="-39.0968890" lon="-72.7098340">
        <ele>292.4</ele>
        <time>2024-01-01T16:30:39Z</time>
      </trkpt>
      <trkpt lat="-39.0966300" lon="-72.7098030">
        <ele>297.9</ele>
        <time>2024-01-01T16:32:15Z</time>
      </trkpt>
      <trkpt lat="-39.0965860" lon="-72.7098620">
        <ele>300.1</ele>
        <time>2024-01-01T16:32:39Z</time>
      </trkpt>
      <trkpt lat="-39.0964860" lon="-72.7108540">
        <ele>313.3</ele>
        <time>2024-01-01T16:36:18Z</time>
      </trkpt>
      <trkpt lat="-39.0962300" lon="-72.7109960">
        <ele>318.1</ele>
        <time>2024-01-01T16:37:24Z</time>
      </trkpt>
      <trkpt lat="-39.0959750" lon="-72.7112960">
        <ele>322.5</ele>
        <time>2024-01-01T16:38:51Z</time>
      </trkpt>
      <trkpt lat="-39.0961690" lon="-72.7115590">
        <ele>326.0</ele>
        <time>2024-01-01T16:40:03Z</time>
      </trkpt>
      <trkpt lat="-39.0959250" lon="-72.7121120">
        <ele>332.0</ele>
        <time>2024-01-01T16:42:36Z</time>
      </trkpt>
      <trkpt lat="-39.0959990" lon="-72.7124590">
        <ele>336.1</ele>
        <time>2024-01-01T16:43:48Z</time>
      </trkpt>
      <trkpt lat="-39.0959050" lon="-72.7130540">
        <ele>341.8</ele>
        <time>2024-01-01T16:45:57Z</time>
      </trkpt>
      <trkpt lat="-39.0959590" lon="-72.7135880">
        <ele>348.8</ele>
        <time>2024-01-01T16:47:39Z</time>
      </trkpt>
      <trkpt lat="-39.0957750" lon="-72.7146280">
        <ele>355.8</ele>
        <time>2024-01-01T16:50:24Z</time>
      </trkpt>
      <trkpt lat="-39.0958000" lon="-72.7149720">
        <ele>362.6</ele>
        <time>2024-01-01T16:51:42Z</time>
      </trkpt>
      <trkpt lat="-39.0957370" lon="-72.7152160">
        <ele>365.3</ele>
        <time>2024-01-01T16:52:36Z</time>
      </trkpt>
      <trkpt lat="-39.0951930" lon="-72.7161850">
        <ele>377.7</ele>
        <time>2024-01-01T16:56:00Z</time>
      </trkpt>
      <trkpt lat="-39.0951030" lon="-72.7168640">
        <ele>372.3</ele>
        <time>2024-01-01T16:57:03Z</time>
      </trkpt>
      <trkpt lat="-39.0953680" lon="-72.7169530">
        <ele>379.5</ele>
        <time>2024-01-01T16:58:33Z</time>
      </trkpt>
      <trkpt lat="-39.0955410" lon="-72.7172220">
        <ele>382.3</ele>
        <time>2024-01-01T17:03:39Z</time>
      </trkpt>
      <trkpt lat="-39.0959270" lon="-72.7174010">
        <ele>386.4</ele>
        <time>2024-01-01T17:07:36Z</time>
      </trkpt>
      <trkpt lat="-39.0963730" lon="-72.7179410">
        <ele>392.3</ele>
        <time>2024-01-01T17:10:15Z</time>
      </trkpt>
      <trkpt lat="-39.0968180" lon="-72.7182500">
        <ele>397.0</ele>
        <time>2024-01-01T17:12:03Z</time>
      </trkpt>
      <trkpt lat="-39.0971350" lon="-72.7183050">
        <ele>400.1</ele>
        <time>2024-01-01T17:12:54Z</time>
      </trkpt>
      <trkpt lat="-39.0976260" lon="-72.7188770">
        <ele>406.2</ele>
        <time>2024-01-01T17:13:54Z</time>
      </trkpt>
      <trkpt lat="-39.0973810" lon="-72.7192660">
        <ele>410.4</ele>
        <time>2024-01-01T17:15:42Z</time>
      </trkpt>
      <trkpt lat="-39.0973180" lon="-72.7206810">
        <ele>420.8</ele>
        <time>2024-01-01T17:19:42Z</time>
      </trkpt>
      <trkpt lat="-39.0972040" lon="-72.7211880">
        <ele>425.2</ele>
        <time>2024-01-01T17:21:39Z</time>
      </trkpt>
      <trkpt lat="-39.0974710" lon="-72.7215640">
        <ele>432.3</ele>
        <time>2024-01-01T17:23:36Z</time>
      </trkpt>
      <trkpt lat="-39.0977770" lon="-72.7222490">
        <ele>442.3</ele>
        <time>2024-01-01T17:26:42Z</time>
      </trkpt>
      <trkpt lat="-39.0978470" lon="-72.7226700">
        <ele>446.8</ele>
        <time>2024-01-01T17:28:12Z</time>
      </trkpt>
      <trkpt lat="-39.0977760" lon="-72.7235040">
        <ele>455.7</ele>
        <time>2024-01-01T17:31:27Z</time>
      </trkpt>
      <trkpt lat="-39.0973800" lon="-72.7246570">
        <ele>471.0</ele>
        <time>2024-01-01T17:36:03Z</time>
      </trkpt>
      <trkpt lat="-39.0973250" lon="-72.7255300">
        <ele>477.3</ele>
        <time>2024-01-01T17:37:54Z</time>
      </trkpt>
      <trkpt lat="-39.0976470" lon="-72.7257000">
        <ele>478.2</ele>
        <time>2024-01-01T17:39:39Z</time>
      </trkpt>
      <trkpt lat="-39.0984030" lon="-72.7258090">
        <ele>478.9</ele>
        <time>2024-01-01T17:41:57Z</time>
      </trkpt>
      <trkpt lat="-39.0986650" lon="-72.7257370">
        <ele>479.5</ele>
        <time>2024-01-01T17:42:42Z</time>
      </trkpt>
      <trkpt lat="-39.0992350" lon="-72.7258200">
        <ele>488.2</ele>
        <time>2024-01-01T17:44:36Z</time>
      </trkpt>
      <trkpt lat="-39.0996120" lon="-72.7255850">
        <ele>494.0</ele>
        <time>2024-01-01T17:46:03Z</time>
      </trkpt>
      <trkpt lat="-39.0998860" lon="-72.7255910">
        <ele>495.3</ele>
        <time>2024-01-01T17:47:15Z</time>
      </trkpt>
      <trkpt lat="-39.1004770" lon="-72.7251000">
        <ele>496.3</ele>
        <time>2024-01-01T17:49:30Z</time>
      </trkpt>
      <trkpt lat="-39.1003040" lon="-72.7245160">
        <ele>492.8</ele>
        <time>2024-01-01T17:50:21Z</time>
      </trkpt>
      <trkpt lat="-39.0998460" lon="-72.7237170">
        <ele>481.5</ele>
        <time>2024-01-01T17:51:12Z</time>
      </trkpt>
      <trkpt lat="-39.0995850" lon="-72.7229850">
        <ele>449.3</ele>
        <time>2024-01-01T17:52:30Z</time>
      </trkpt>
      <trkpt lat="-39.0993260" lon="-72.7225900">
        <ele>432.5</ele>
        <time>2024-01-01T17:52:54Z</time>
      </trkpt>
      <trkpt lat="-39.0992000" lon="-72.7219220">
        <ele>426.2</ele>
        <time>2024-01-01T17:54:09Z</time>
      </trkpt>
      <trkpt lat="-39.0993620" lon="-72.7215350">
        <ele>425.3</ele>
        <time>2024-01-01T17:56:12Z</time>
      </trkpt>
      <trkpt lat="-39.0993120" lon="-72.7212970">
        <ele>424.4</ele>
        <time>2024-01-01T17:56:51Z</time>
      </trkpt>
      <trkpt lat="-39.0991100" lon="-72.7210220">
        <ele>421.4</ele>
        <time>2024-01-01T17:57:51Z</time>
      </trkpt>
      <trkpt lat="-39.0991100" lon="-72.7204820">
        <ele>422.9</ele>
        <time>2024-01-01T17:58:30Z</time>
      </trkpt>
      <trkpt lat="-39.0988790" lon="-72.7200700">
        <ele>412.4</ele>
        <time>2024-01-01T17:58:51Z</time>
      </trkpt>
      <trkpt lat="-39.0985080" lon="-72.7190650">
        <ele>407.0</ele>
        <time>2024-01-01T17:59:30Z</time>
      </trkpt>
      <trkpt lat="-39.0980400" lon="-72.7184520">
        <ele>398.8</ele>
        <time>2024-01-01T18:00:21Z</time>
      </trkpt>
      <trkpt lat="-39.0980070" lon="-72.7181670">
        <ele>397.7</ele>
        <time>2024-01-01T18:00:51Z</time>
      </trkpt>
      <trkpt lat="-39.0981160" lon="-72.7178220">
        <ele>392.4</ele>
        <time>2024-01-01T18:02:06Z</time>
      </trkpt>
      <trkpt lat="-39.0969090" lon="-72.7175130">
        <ele>386.1</ele>
        <time>2024-01-01T18:04:33Z</time>
      </trkpt>
      <trkpt lat="-39.0963560" lon="-72.7171000">
        <ele>369.5</ele>
        <time>2024-01-01T18:04:48Z</time>
      </trkpt>
      <trkpt lat="-39.0963190" lon="-72.7167990">
        <ele>364.7</ele>
        <time>2024-01-01T18:04:57Z</time>
      </trkpt>
      <trkpt lat="-39.0965800" lon="-72.7151950">
        <ele>347.4</ele>
        <time>2024-01-01T18:05:51Z</time>
      </trkpt>
      <trkpt lat="-39.0965130" lon="-72.7147810">
        <ele>344.2</ele>
        <time>2024-01-01T18:06:09Z</time>
      </trkpt>
      <trkpt lat="-39.0965950" lon="-72.7140710">
        <ele>340.4</ele>
        <time>2024-01-01T18:06:36Z</time>
      </trkpt>
      <trkpt lat="-39.0965300" lon="-72.7133240">
        <ele>329.1</ele>
        <time>2024-01-01T18:06:57Z</time>
      </trkpt>
      <trkpt lat="-39.0966730" lon="-72.7126340">
        <ele>314.5</ele>
        <time>2024-01-01T18:07:21Z</time>
      </trkpt>
      <trkpt lat="-39.0965030" lon="-72.7122670">
        <ele>307.3</ele>
        <time>2024-01-01T18:09:00Z</time>
      </trkpt>
      <trkpt lat="-39.0966070" lon="-72.7118220">
        <ele>299.6</ele>
        <time>2024-01-01T18:10:03Z</time>
      </trkpt>
      <trkpt lat="-39.0967790" lon="-72.7125850">
        <ele>314.1</ele>
        <time>2024-01-01T18:14:03Z</time>
      </trkpt>
      <trkpt lat="-39.0967310" lon="-72.7128260">
        <ele>319.1</ele>
        <time>2024-01-01T18:15:12Z</time>
      </trkpt>
      <trkpt lat="-39.0965340" lon="-72.7126850">
        <ele>316.1</ele>
        <time>2024-01-01T18:15:45Z</time>
      </trkpt>
      <trkpt lat="-39.0962380" lon="-72.7123280">
        <ele>312.2</ele>
        <time>2024-01-01T18:16:21Z</time>
      </trkpt>
      <trkpt lat="-39.0961760" lon="-72.7118920">
        <ele>307.3</ele>
        <time>2024-01-01T18:16:39Z</time>
      </trkpt>
      <trkpt lat="-39.0963720" lon="-72.7113410">
        <ele>299.6</ele>
        <time>2024-01-01T18:17:24Z</time>
      </trkpt>
      <trkpt lat="-39.0967080" lon="-72.7109510">
        <ele>287.3</ele>
        <time>2024-01-01T18:18:21Z</time>
      </trkpt>
      <trkpt lat="-39.0967870" lon="-72.7110640">
        <ele>286.4</ele>
        <time>2024-01-01T18:19:09Z</time>
      </trkpt>
      <trkpt lat="-39.0967660" lon="-72.7113370">
        <ele>290.8</ele>
        <time>2024-01-01T18:20:21Z</time>
      </trkpt>
      <trkpt lat="-39.0963510" lon="-72.7122180">
        <ele>309.7</ele>
        <time>2024-01-01T18:24:09Z</time>
      </trkpt>
      <trkpt lat="-39.0962390" lon="-72.7128630">
        <ele>321.6</ele>
        <time>2024-01-01T18:28:27Z</time>
      </trkpt>
      <trkpt lat="-39.0960680" lon="-72.7141770">
        <ele>336.3</ele>
        <time>2024-01-01T18:33:45Z</time>
      </trkpt>
      <trkpt lat="-39.0961350" lon="-72.7148770">
        <ele>341.4</ele>
        <time>2024-01-01T18:36:12Z</time>
      </trkpt>
      <trkpt lat="-39.0960870" lon="-72.7152250">
        <ele>344.9</ele>
        <time>2024-01-01T18:37:09Z</time>
      </trkpt>
      <trkpt lat="-39.0960050" lon="-72.7153890">
        <ele>347.2</ele>
        <time>2024-01-01T18:37:33Z</time>
      </trkpt>
      <trkpt lat="-39.0956950" lon="-72.7156320">
        <ele>351.2</ele>
        <time>2024-01-01T18:39:06Z</time>
      </trkpt>
      <trkpt lat="-39.0955610" lon="-72.7160540">
        <ele>356.8</ele>
        <time>2024-01-01T18:40:42Z</time>
      </trkpt>
      <trkpt lat="-39.0959640" lon="-72.7167650">
        <ele>363.5</ele>
        <time>2024-01-01T18:44:15Z</time>
      </trkpt>
      <trkpt lat="-39.0961350" lon="-72.7169260">
        <ele>369.0</ele>
        <time>2024-01-01T18:45:51Z</time>
      </trkpt>
      <trkpt lat="-39.0973900" lon="-72.7173620">
        <ele>391.3</ele>
        <time>2024-01-01T18:51:24Z</time>
      </trkpt>
      <trkpt lat="-39.0976120" lon="-72.7175660">
        <ele>395.9</ele>
        <time>2024-01-01T18:51:57Z</time>
      </trkpt>
      <trkpt lat="-39.0978910" lon="-72.7176170">
        <ele>395.6</ele>
        <time>2024-01-01T18:52:48Z</time>
      </trkpt>
      <trkpt lat="-39.0979400" lon="-72.7177720">
        <ele>396.7</ele>
        <time>2024-01-01T18:53:27Z</time>
      </trkpt>
      <trkpt lat="-39.0976470" lon="-72.7178790">
        <ele>398.1</ele>
        <time>2024-01-01T18:53:57Z</time>
      </trkpt>
      <trkpt lat="-39.0970890" lon="-72.7178110">
        <ele>395.2</ele>
        <time>2024-01-01T18:55:06Z</time>
      </trkpt>
      <trkpt lat="-39.0968380" lon="-72.7180190">
        <ele>393.1</ele>
        <time>2024-01-01T18:56:15Z</time>
      </trkpt>
      <trkpt lat="-39.0972870" lon="-72.7184380">
        <ele>391.2</ele>
        <time>2024-01-01T19:00:39Z</time>
      </trkpt>
      <trkpt lat="-39.0975680" lon="-72.7188240">
        <ele>396.0</ele>
        <time>2024-01-01T19:01:12Z</time>
      </trkpt>
      <trkpt lat="-39.0973460" lon="-72.7190860">
        <ele>396.5</ele>
        <time>2024-01-01T19:02:03Z</time>
      </trkpt>
      <trkpt lat="-39.0972690" lon="-72.7190760">
        <ele>395.6</ele>
        <time>2024-01-01T19:02:48Z</time>
      </trkpt>
      <trkpt lat="-39.0969990" lon="-72.7197270">
        <ele>399.3</ele>
        <time>2024-01-01T19:04:00Z</time>
      </trkpt>
      <trkpt lat="-39.0964710" lon="-72.7201050">
        <ele>395.5</ele>
        <time>2024-01-01T19:05:00Z</time>
      </trkpt>
      <trkpt lat="-39.0962150" lon="-72.7200970">
        <ele>394.7</ele>
        <time>2024-01-01T19:05:15Z</time>
      </trkpt>
      <trkpt lat="-39.0952410" lon="-72.7197690">
        <ele>392.9</ele>
        <time>2024-01-01T19:06:24Z</time>
      </trkpt>
      <trkpt lat="-39.0949800" lon="-72.7198450">
        <ele>391.7</ele>
        <time>2024-01-01T19:06:33Z</time>
      </trkpt>
      <trkpt lat="-39.0946310" lon="-72.7201250">
        <ele>388.1</ele>
        <time>2024-01-01T19:06:48Z</time>
      </trkpt>
      <trkpt lat="-39.0943170" lon="-72.7202060">
        <ele>384.6</ele>
        <time>2024-01-01T19:07:06Z</time>
      </trkpt>
      <trkpt lat="-39.0939440" lon="-72.7199140">
        <ele>384.3</ele>
        <time>2024-01-01T19:08:03Z</time>
      </trkpt>
      <trkpt lat="-39.0938080" lon="-72.7193200">
        <ele>381.3</ele>
        <time>2024-01-01T19:09:12Z</time>
      </trkpt>
      <trkpt lat="-39.0935220" lon="-72.7188820">
        <ele>383.9</ele>
        <time>2024-01-01T19:10:09Z</time>
      </trkpt>
      <trkpt lat="-39.0935550" lon="-72.7198300">
        <ele>393.7</ele>
        <time>2024-01-01T19:14:03Z</time>
      </trkpt>
      <trkpt lat="-39.0932170" lon="-72.7208710">
        <ele>411.0</ele>
        <time>2024-01-01T19:16:39Z</time>
      </trkpt>
      <trkpt lat="-39.0928090" lon="-72.7215570">
        <ele>416.0</ele>
        <time>2024-01-01T19:18:42Z</time>
      </trkpt>
      <trkpt lat="-39.0923780" lon="-72.7220160">
        <ele>419.1</ele>
        <time>2024-01-01T19:20:51Z</time>
      </trkpt>
      <trkpt lat="-39.0923520" lon="-72.7222970">
        <ele>426.4</ele>
        <time>2024-01-01T19:22:09Z</time>
      </trkpt>
      <trkpt lat="-39.0922220" lon="-72.7223390">
        <ele>427.1</ele>
        <time>2024-01-01T19:22:24Z</time>
      </trkpt>
      <trkpt lat="-39.0921030" lon="-72.7225490">
        <ele>429.5</ele>
        <time>2024-01-01T19:23:51Z</time>
      </trkpt>
      <trkpt lat="-39.0921400" lon="-72.7230820">
        <ele>434.2</ele>
        <time>2024-01-01T19:26:03Z</time>
      </trkpt>
      <trkpt lat="-39.0928220" lon="-72.7240600">
        <ele>440.7</ele>
        <time>2024-01-01T19:29:57Z</time>
      </trkpt>
      <trkpt lat="-39.0930830" lon="-72.7247940">
        <ele>444.7</ele>
        <time>2024-01-01T19:32:15Z</time>
      </trkpt>
      <trkpt lat="-39.0930040" lon="-72.7251340">
        <ele>447.1</ele>
        <time>2024-01-01T19:33:09Z</time>
      </trkpt>
      <trkpt lat="-39.0926980" lon="-72.7255660">
        <ele>446.1</ele>
        <time>2024-01-01T19:34:21Z</time>
      </trkpt>
      <trkpt lat="-39.0925680" lon="-72.7259830">
        <ele>452.1</ele>
        <time>2024-01-01T19:35:33Z</time>
      </trkpt>
      <trkpt lat="-39.0920030" lon="-72.7266510">
        <ele>464.9</ele>
        <time>2024-01-01T19:38:42Z</time>
      </trkpt>
      <trkpt lat="-39.0919340" lon="-72.7268940">
        <ele>469.8</ele>
        <time>2024-01-01T19:39:45Z</time>
      </trkpt>
      <trkpt lat="-39.0921540" lon="-72.7272910">
        <ele>470.9</ele>
        <time>2024-01-01T19:41:15Z</time>
      </trkpt>
      <trkpt lat="-39.0920330" lon="-72.7275140">
        <ele>469.9</ele>
        <time>2024-01-01T19:41:57Z</time>
      </trkpt>
      <trkpt lat="-39.0909950" lon="-72.7281630">
        <ele>478.2</ele>
        <time>2024-01-01T19:44:09Z</time>
      </trkpt>
      <trkpt lat="-39.0898390" lon="-72.7286020">
        <ele>476.4</ele>
        <time>2024-01-01T19:46:00Z</time>
      </trkpt>
      <trkpt lat="-39.0885620" lon="-72.7293180">
        <ele>467.5</ele>
        <time>2024-01-01T19:47:39Z</time>
      </trkpt>
      <trkpt lat="-39.0879580" lon="-72.7293440">
        <ele>465.5</ele>
        <time>2024-01-01T19:48:24Z</time>
      </trkpt>
      <trkpt lat="-39.0872080" lon="-72.7295790">
        <ele>467.0</ele>
        <time>2024-01-01T19:49:57Z</time>
      </trkpt>
      <trkpt lat="-39.0866230" lon="-72.7301450">
        <ele>465.4</ele>
        <time>2024-01-01T19:51:27Z</time>
      </trkpt>
      <trkpt lat="-39.0862190" lon="-72.7307930">
        <ele>468.6</ele>
        <time>2024-01-01T19:53:00Z</time>
      </trkpt>
      <trkpt lat="-39.0860220" lon="-72.7309660">
        <ele>471.2</ele>
        <time>2024-01-01T19:53:39Z</time>
      </trkpt>
      <trkpt lat="-39.0857670" lon="-72.7310570">
        <ele>472.0</ele>
        <time>2024-01-01T19:54:39Z</time>
      </trkpt>
      <trkpt lat="-39.0856380" lon="-72.7309730">
        <ele>472.9</ele>
        <time>2024-01-01T19:55:12Z</time>
      </trkpt>
      <trkpt lat="-39.0855330" lon="-72.7310750">
        <ele>473.1</ele>
        <time>2024-01-01T19:56:15Z</time>
      </trkpt>
      <trkpt lat="-39.0852370" lon="-72.7310520">
        <ele>472.0</ele>
        <time>2024-01-01T19:57:12Z</time>
      </trkpt>
      <trkpt lat="-39.0850010" lon="-72.7312840">
        <ele>476.7</ele>
        <time>2024-01-01T19:58:24Z</time>
      </trkpt>
      <trkpt lat="-39.0847980" lon="-72.7316020">
        <ele>483.1</ele>
        <time>2024-01-01T19:59:18Z</time>
      </trkpt>
      <trkpt lat="-39.0847180" lon="-72.7319410">
        <ele>484.0</ele>
        <time>2024-01-01T20:00:09Z</time>
      </trkpt>
      <trkpt lat="-39.0845870" lon="-72.7320210">
        <ele>484.3</ele>
        <time>2024-01-01T20:00:36Z</time>
      </trkpt>
      <trkpt lat="-39.0839360" lon="-72.7328940">
        <ele>490.7</ele>
        <time>2024-01-01T20:03:51Z</time>
      </trkpt>
      <trkpt lat="-39.0836710" lon="-72.7330750">
        <ele>493.2</ele>
        <time>2024-01-01T20:04:48Z</time>
      </trkpt>
      <trkpt lat="-39.0835390" lon="-72.7330490">
        <ele>495.3</ele>
        <time>2024-01-01T20:05:36Z</time>
      </trkpt>
      <trkpt lat="-39.0827800" lon="-72.7333080">
        <ele>506.6</ele>
        <time>2024-01-01T20:08:18Z</time>
      </trkpt>
      <trkpt lat="-39.0822760" lon="-72.7336730">
        <ele>510.2</ele>
        <time>2024-01-01T20:09:00Z</time>
      </trkpt>
      <trkpt lat="-39.0813620" lon="-72.7340430">
        <ele>500.6</ele>
        <time>2024-01-01T20:10:00Z</time>
      </trkpt>
      <trkpt lat="-39.0809400" lon="-72.7340770">
        <ele>497.9</ele>
        <time>2024-01-01T20:10:36Z</time>
      </trkpt>
      <trkpt lat="-39.0806070" lon="-72.7342860">
        <ele>497.9</ele>
        <time>2024-01-01T20:11:27Z</time>
      </trkpt>
      <trkpt lat="-39.0801170" lon="-72.7343160">
        <ele>496.8</ele>
        <time>2024-01-01T20:12:03Z</time>
      </trkpt>
      <trkpt lat="-39.0799190" lon="-72.7340690">
        <ele>492.6</ele>
        <time>2024-01-01T20:12:45Z</time>
      </trkpt>
      <trkpt lat="-39.0798360" lon="-72.7340630">
        <ele>492.5</ele>
        <time>2024-01-01T20:13:09Z</time>
      </trkpt>
      <trkpt lat="-39.0798210" lon="-72.7344010">
        <ele>495.9</ele>
        <time>2024-01-01T20:14:36Z</time>
      </trkpt>
      <trkpt lat="-39.0804430" lon="-72.7349600">
        <ele>492.5</ele>
        <time>2024-01-01T20:16:21Z</time>
      </trkpt>
      <trkpt lat="-39.0804880" lon="-72.7356170">
        <ele>482.4</ele>
        <time>2024-01-01T20:16:48Z</time>
      </trkpt>
      <trkpt lat="-39.0804210" lon="-72.7357400">
        <ele>479.8</ele>
        <time>2024-01-01T20:17:03Z</time>
      </trkpt>
      <trkpt lat="-39.0801560" lon="-72.7357090">
        <ele>479.4</ele>
        <time>2024-01-01T20:18:09Z</time>
      </trkpt>
      <trkpt lat="-39.0799730" lon="-72.7352240">
        <ele>489.6</ele>
        <time>2024-01-01T20:20:00Z</time>
      </trkpt>
      <trkpt lat="-39.0798400" lon="-72.7351500">
        <ele>488.9</ele>
        <time>2024-01-01T20:20:24Z</time>
      </trkpt>
      <trkpt lat="-39.0795480" lon="-72.7351930">
        <ele>488.7</ele>
        <time>2024-01-01T20:21:12Z</time>
      </trkpt>
      <trkpt lat="-39.0793270" lon="-72.7351320">
        <ele>491.3</ele>
        <time>2024-01-01T20:21:54Z</time>
      </trkpt>
      <trkpt lat="-39.0793800" lon="-72.7353170">
        <ele>488.3</ele>
        <time>2024-01-01T20:22:18Z</time>
      </trkpt>
      <trkpt lat="-39.0792130" lon="-72.7351450">
        <ele>492.6</ele>
        <time>2024-01-01T20:22:48Z</time>
      </trkpt>
      <trkpt lat="-39.0789180" lon="-72.7353200">
        <ele>490.8</ele>
        <time>2024-01-01T20:23:21Z</time>
      </trkpt>
      <trkpt lat="-39.0784900" lon="-72.7351970">
        <ele>487.8</ele>
        <time>2024-01-01T20:23:51Z</time>
      </trkpt>
      <trkpt lat="-39.0782340" lon="-72.7352060">
        <ele>485.7</ele>
        <time>2024-01-01T20:24:09Z</time>
      </trkpt>
      <trkpt lat="-39.0774770" lon="-72.7355640">
        <ele>482.3</ele>
        <time>2024-01-01T20:25:00Z</time>
      </trkpt>
      <trkpt lat="-39.0771070" lon="-72.7356100">
        <ele>479.7</ele>
        <time>2024-01-01T20:25:18Z</time>
      </trkpt>
      <trkpt lat="-39.0762740" lon="-72.7355980">
        <ele>473.4</ele>
        <time>2024-01-01T20:25:54Z</time>
      </trkpt>
      <trkpt lat="-39.0758550" lon="-72.7353920">
        <ele>468.0</ele>
        <time>2024-01-01T20:26:12Z</time>
      </trkpt>
      <trkpt lat="-39.0754310" lon="-72.7353160">
        <ele>463.9</ele>
        <time>2024-01-01T20:26:39Z</time>
      </trkpt>
      <trkpt lat="-39.0750230" lon="-72.7350330">
        <ele>451.9</ele>
        <time>2024-01-01T20:27:09Z</time>
      </trkpt>
      <trkpt lat="-39.0743700" lon="-72.7342700">
        <ele>445.9</ele>
        <time>2024-01-01T20:27:54Z</time>
      </trkpt>
      <trkpt lat="-39.0733890" lon="-72.7334780">
        <ele>426.3</ele>
        <time>2024-01-01T20:28:51Z</time>
      </trkpt>
      <trkpt lat="-39.0732070" lon="-72.7330390">
        <ele>425.1</ele>
        <time>2024-01-01T20:29:21Z</time>
      </trkpt>
      <trkpt lat="-39.0730330" lon="-72.7328260">
        <ele>421.9</ele>
        <time>2024-01-01T20:29:45Z</time>
      </trkpt>
      <trkpt lat="-39.0723960" lon="-72.7324800">
        <ele>415.6</ele>
        <time>2024-01-01T20:30:42Z</time>
      </trkpt>
      <trkpt lat="-39.0718380" lon="-72.7323580">
        <ele>411.8</ele>
        <time>2024-01-01T20:31:06Z</time>
      </trkpt>
      <trkpt lat="-39.0717030" lon="-72.7321710">
        <ele>408.0</ele>
        <time>2024-01-01T20:31:18Z</time>
      </trkpt>
      <trkpt lat="-39.0718800" lon="-72.7302600">
        <ele>386.6</ele>
        <time>2024-01-01T20:32:09Z</time>
      </trkpt>
      <trkpt lat="-39.0716130" lon="-72.7288650">
        <ele>372.2</ele>
        <time>2024-01-01T20:32:48Z</time>
      </trkpt>
      <trkpt lat="-39.0716360" lon="-72.7287640">
        <ele>371.2</ele>
        <time>2024-01-01T20:32:54Z</time>
      </trkpt>
      <trkpt lat="-39.0723280" lon="-72.7283230">
        <ele>360.2</ele>
        <time>2024-01-01T20:33:24Z</time>
      </trkpt>
      <trkpt lat="-39.0724900" lon="-72.7280210">
        <ele>352.8</ele>
        <time>2024-01-01T20:33:36Z</time>
      </trkpt>
      <trkpt lat="-39.0724510" lon="-72.7273750">
        <ele>343.8</ele>
        <time>2024-01-01T20:34:00Z</time>
      </trkpt>
      <trkpt lat="-39.0721480" lon="-72.7264500">
        <ele>341.5</ele>
        <time>2024-01-01T20:34:30Z</time>
      </trkpt>
      <trkpt lat="-39.0721620" lon="-72.7258160">
        <ele>334.9</ele>
        <time>2024-01-01T20:35:09Z</time>
      </trkpt>
      <trkpt lat="-39.0719420" lon="-72.7253260">
        <ele>331.8</ele>
        <time>2024-01-01T20:35:36Z</time>
      </trkpt>
      <trkpt lat="-39.0721530" lon="-72.7239740">
        <ele>315.3</ele>
        <time>2024-01-01T20:36:24Z</time>
      </trkpt>
      <trkpt lat="-39.0721050" lon="-72.7237160">
        <ele>317.4</ele>
        <time>2024-01-01T20:36:54Z</time>
      </trkpt>
      <trkpt lat="-39.0726640" lon="-72.7211860">
        <ele>307.6</ele>
        <time>2024-01-01T20:38:36Z</time>
      </trkpt>
      <trkpt lat="-39.0729590" lon="-72.7203030">
        <ele>290.1</ele>
        <time>2024-01-01T20:39:12Z</time>
      </trkpt>
      <trkpt lat="-39.0728180" lon="-72.7191830">
        <ele>281.3</ele>
        <time>2024-01-01T20:39:51Z</time>
      </trkpt>
      <trkpt lat="-39.0729440" lon="-72.7188250">
        <ele>276.8</ele>
        <time>2024-01-01T20:40:09Z</time>
      </trkpt>
      <trkpt lat="-39.0733930" lon="-72.7181460">
        <ele>266.3</ele>
        <time>2024-01-01T20:40:45Z</time>
      </trkpt>
      <trkpt lat="-39.0735340" lon="-72.7177400">
        <ele>258.2</ele>
        <time>2024-01-01T20:40:57Z</time>
      </trkpt>
      <trkpt lat="-39.0736260" lon="-72.7171020">
        <ele>251.3</ele>
        <time>2024-01-01T20:41:21Z</time>
      </trkpt>
      <trkpt lat="-39.0735870" lon="-72.7165510">
        <ele>252.1</ele>
        <time>2024-01-01T20:41:39Z</time>
      </trkpt>
      <trkpt lat="-39.0737620" lon="-72.7157750">
        <ele>248.6</ele>
        <time>2024-01-01T20:42:03Z</time>
      </trkpt>
      <trkpt lat="-39.0737410" lon="-72.7155600">
        <ele>247.5</ele>
        <time>2024-01-01T20:42:12Z</time>
      </trkpt>
      <trkpt lat="-39.0738170" lon="-72.7155660">
        <ele>246.6</ele>
        <time>2024-01-01T20:43:06Z</time>
      </trkpt>
      <trkpt lat="-39.0738690" lon="-72.7154630">
        <ele>245.5</ele>
        <time>2024-01-01T20:43:12Z</time>
      </trkpt>
      <trkpt lat="-39.0739570" lon="-72.7151040">
        <ele>239.4</ele>
        <time>2024-01-01T20:43:30Z</time>
      </trkpt>
      <trkpt lat="-39.0739850" lon="-72.7138160">
        <ele>222.2</ele>
        <time>2024-01-01T20:44:24Z</time>
      </trkpt>
      <trkpt lat="-39.0735490" lon="-72.7139010">
        <ele>221.4</ele>
        <time>2024-01-01T20:44:54Z</time>
      </trkpt>
      <trkpt lat="-39.0731650" lon="-72.7137580">
        <ele>213.9</ele>
        <time>2024-01-01T20:45:15Z</time>
      </trkpt>
      <trkpt lat="-39.0730640" lon="-72.7136390">
        <ele>210.4</ele>
        <time>2024-01-01T20:45:27Z</time>
      </trkpt>
      <trkpt lat="-39.0728980" lon="-72.7129770">
        <ele>193.8</ele>
        <time>2024-01-01T20:46:15Z</time>
      </trkpt>
      <trkpt lat="-39.0731550" lon="-72.7121750">
        <ele>176.4</ele>
        <time>2024-01-01T20:46:45Z</time>
      </trkpt>
      <trkpt lat="-39.0730890" lon="-72.7122020">
        <ele>175.4</ele>
        <time>2024-01-01T20:47:15Z</time>
      </trkpt>
      <trkpt lat="-39.0730910" lon="-72.7125490">
        <ele>183.1</ele>
        <time>2024-01-01T20:48:15Z</time>
      </trkpt>
      <trkpt lat="-39.0729490" lon="-72.7127850">
        <ele>186.5</ele>
        <time>2024-01-01T20:51:21Z</time>
      </trkpt>
      <trkpt lat="-39.0731530" lon="-72.7124160">
        <ele>182.0</ele>
        <time>2024-01-01T20:52:00Z</time>
      </trkpt>
      <trkpt lat="-39.0733270" lon="-72.7116150">
        <ele>177.3</ele>
        <time>2024-01-01T20:52:27Z</time>
      </trkpt>
      <trkpt lat="-39.0740370" lon="-72.7107720">
        <ele>157.0</ele>
        <time>2024-01-01T20:53:12Z</time>
      </trkpt>
      <trkpt lat="-39.0745130" lon="-72.7095180">
        <ele>146.8</ele>
        <time>2024-01-01T20:54:12Z</time>
      </trkpt>
      <trkpt lat="-39.0744630" lon="-72.7092690">
        <ele>142.6</ele>
        <time>2024-01-01T20:54:24Z</time>
      </trkpt>
      <trkpt lat="-39.0742110" lon="-72.7090300">
        <ele>134.4</ele>
        <time>2024-01-01T20:54:54Z</time>
      </trkpt>
      <trkpt lat="-39.0741910" lon="-72.7078800">
        <ele>128.1</ele>
        <time>2024-01-01T20:55:33Z</time>
      </trkpt>
      <trkpt lat="-39.0739930" lon="-72.7074610">
        <ele>119.2</ele>
        <time>2024-01-01T20:55:48Z</time>
      </trkpt>
      <trkpt lat="-39.0738900" lon="-72.7069620">
        <ele>111.6</ele>
        <time>2024-01-01T20:56:03Z</time>
      </trkpt>
      <trkpt lat="-39.0738470" lon="-72.7064070">
        <ele>104.2</ele>
        <time>2024-01-01T20:56:24Z</time>
      </trkpt>
      <trkpt lat="-39.0739530" lon="-72.7062640">
        <ele>102.3</ele>
        <time>2024-01-01T20:56:36Z</time>
      </trkpt>
      <trkpt lat="-39.0740680" lon="-72.7056790">
        <ele>98.6</ele>
        <time>2024-01-01T20:56:54Z</time>
      </trkpt>
      <trkpt lat="-39.0742120" lon="-72.7055890">
        <ele>98.5</ele>
        <time>2024-01-01T20:57:12Z</time>
      </trkpt>
      <trkpt lat="-39.0748640" lon="-72.7056320">
        <ele>95.2</ele>
        <time>2024-01-01T20:57:48Z</time>
      </trkpt>
      <trkpt lat="-39.0757320" lon="-72.7054040">
        <ele>93.4</ele>
        <time>2024-01-01T20:58:30Z</time>
      </trkpt>
      <trkpt lat="-39.0771240" lon="-72.7046600">
        <ele>99.3</ele>
        <time>2024-01-01T21:00:36Z</time>
      </trkpt>
      <trkpt lat="-39.0774390" lon="-72.7043650">
        <ele>100.2</ele>
        <time>2024-01-01T21:01:06Z</time>
      </trkpt>
      <trkpt lat="-39.0786330" lon="-72.7037280">
        <ele>100.7</ele>
        <time>2024-01-01T21:02:42Z</time>
      </trkpt>
      <trkpt lat="-39.0798650" lon="-72.7028330">
        <ele>102.0</ele>
        <time>2024-01-01T21:04:33Z</time>
      </trkpt>
      <trkpt lat="-39.0806590" lon="-72.7020140">
        <ele>96.2</ele>
        <time>2024-01-01T21:05:21Z</time>
      </trkpt>
      <trkpt lat="-39.0811410" lon="-72.7010790">
        <ele>96.1</ele>
        <time>2024-01-01T21:06:06Z</time>
      </trkpt>
      <trkpt lat="-39.0823470" lon="-72.6991900">
        <ele>97.8</ele>
        <time>2024-01-01T21:08:12Z</time>
      </trkpt>
      <trkpt lat="-39.0829730" lon="-72.6984880">
        <ele>98.1</ele>
        <time>2024-01-01T21:09:12Z</time>
      </trkpt>
      <trkpt lat="-39.0841390" lon="-72.6974760">
        <ele>95.3</ele>
        <time>2024-01-01T21:10:36Z</time>
      </trkpt>
      <trkpt lat="-39.0844220" lon="-72.6973780">
        <ele>93.1</ele>
        <time>2024-01-01T21:10:48Z</time>
      </trkpt>
      <trkpt lat="-39.0849400" lon="-72.6973590">
        <ele>90.4</ele>
        <time>2024-01-01T21:11:09Z</time>
      </trkpt>
      <trkpt lat="-39.0854500" lon="-72.6970930">
        <ele>91.9</ele>
        <time>2024-01-01T21:11:39Z</time>
      </trkpt>
      <trkpt lat="-39.0857120" lon="-72.6970890">
        <ele>93.8</ele>
        <time>2024-01-01T21:11:57Z</time>
      </trkpt>
      <trkpt lat="-39.0865120" lon="-72.6964350">
        <ele>96.7</ele>
        <time>2024-01-01T21:13:06Z</time>
      </trkpt>
      <trkpt lat="-39.0871090" lon="-72.6961750">
        <ele>96.5</ele>
        <time>2024-01-01T21:13:48Z</time>
      </trkpt>
      <trkpt lat="-39.0881230" lon="-72.6955320">
        <ele>95.7</ele>
        <time>2024-01-01T21:15:00Z</time>
      </trkpt>
      <trkpt lat="-39.0885840" lon="-72.6953750">
        <ele>95.4</ele>
        <time>2024-01-01T21:15:30Z</time>
      </trkpt>
      <trkpt lat="-39.0892180" lon="-72.6954920">
        <ele>93.8</ele>
        <time>2024-01-01T21:16:06Z</time>
      </trkpt>
      <trkpt lat="-39.0919480" lon="-72.6966130">
        <ele>93.4</ele>
        <time>2024-01-01T21:18:45Z</time>
      </trkpt>
      <trkpt lat="-39.0924220" lon="-72.6966480">
        <ele>91.7</ele>
        <time>2024-01-01T21:19:06Z</time>
      </trkpt>
      <trkpt lat="-39.0941600" lon="-72.6953430">
        <ele>96.0</ele>
        <time>2024-01-01T21:21:15Z</time>
      </trkpt>
      <trkpt lat="-39.0951720" lon="-72.6947510">
        <ele>89.8</ele>
        <time>2024-01-01T21:22:06Z</time>
      </trkpt>
      <trkpt lat="-39.0953440" lon="-72.6944360">
        <ele>89.1</ele>
        <time>2024-01-01T21:22:18Z</time>
      </trkpt>
      <trkpt lat="-39.0955820" lon="-72.6927440">
        <ele>90.9</ele>
        <time>2024-01-01T21:23:39Z</time>
      </trkpt>
      <trkpt lat="-39.0956820" lon="-72.6926000">
        <ele>91.8</ele>
        <time>2024-01-01T21:23:51Z</time>
      </trkpt>
      <trkpt lat="-39.0969660" lon="-72.6916470">
        <ele>94.3</ele>
        <time>2024-01-01T21:25:57Z</time>
      </trkpt>
      <trkpt lat="-39.0972640" lon="-72.6913470">
        <ele>94.1</ele>
        <time>2024-01-01T21:26:21Z</time>
      </trkpt>
      <trkpt lat="-39.0973530" lon="-72.6911490">
        <ele>94.0</ele>
        <time>2024-01-01T21:26:33Z</time>
      </trkpt>
      <trkpt lat="-39.0975680" lon="-72.6903050">
        <ele>93.4</ele>
        <time>2024-01-01T21:27:15Z</time>
      </trkpt>
      <trkpt lat="-39.0976150" lon="-72.6888040">
        <ele>93.2</ele>
        <time>2024-01-01T21:28:27Z</time>
      </trkpt>
      <trkpt lat="-39.0984360" lon="-72.6887310">
        <ele>92.3</ele>
        <time>2024-01-01T21:29:21Z</time>
      </trkpt>
      <trkpt lat="-39.0987420" lon="-72.6885000">
        <ele>92.6</ele>
        <time>2024-01-01T21:29:45Z</time>
      </trkpt>
      <trkpt lat="-39.0998120" lon="-72.6884960">
        <ele>92.5</ele>
        <time>2024-01-01T21:30:57Z</time>
      </trkpt>
      <trkpt lat="-39.1001140" lon="-72.6881500">
        <ele>91.1</ele>
        <time>2024-01-01T21:31:39Z</time>
      </trkpt>
      <trkpt lat="-39.0999300" lon="-72.6872340">
        <ele>90.3</ele>
        <time>2024-01-01T21:32:24Z</time>
      </trkpt>
      <trkpt lat="-39.0994830" lon="-72.6868650">
        <ele>91.8</ele>
        <time>2024-01-01T21:32:51Z</time>
      </trkpt>
      <trkpt lat="-39.0992320" lon="-72.6864890">
        <ele>90.9</ele>
        <time>2024-01-01T21:33:21Z</time>
      </trkpt>
      <trkpt lat="-39.0992780" lon="-72.6856640">
        <ele>90.1</ele>
        <time>2024-01-01T21:34:30Z</time>
      </trkpt>
      <trkpt lat="-39.0994800" lon="-72.6851790">
        <ele>89.7</ele>
        <time>2024-01-01T21:35:06Z</time>
      </trkpt>
      <trkpt lat="-39.0999060" lon="-72.6846880">
        <ele>89.7</ele>
        <time>2024-01-01T21:36:00Z</time>
      </trkpt>
      <trkpt lat="-39.1002830" lon="-72.6846200">
        <ele>86.2</ele>
        <time>2024-01-01T21:36:33Z</time>
      </trkpt>
      <trkpt lat="-39.1008410" lon="-72.6842370">
        <ele>86.6</ele>
        <time>2024-01-01T21:38:00Z</time>
      </trkpt>
      <trkpt lat="-39.1018990" lon="-72.6839840">
        <ele>87.3</ele>
        <time>2024-01-01T21:40:09Z</time>
      </trkpt>
      <trkpt lat="-39.1026920" lon="-72.6833540">
        <ele>87.9</ele>
        <time>2024-01-01T21:41:24Z</time>
      </trkpt>
      <trkpt lat="-39.1026300" lon="-72.6798660">
        <ele>94.0</ele>
        <time>2024-01-01T21:44:48Z</time>
      </trkpt>
      <trkpt lat="-39.1025470" lon="-72.6795440">
        <ele>94.0</ele>
        <time>2024-01-01T21:45:12Z</time>
      </trkpt>
      <trkpt lat="-39.1025040" lon="-72.6796050">
        <ele>94.0</ele>
        <time>2024-01-01T21:48:12Z</time>
      </trkpt>
      <trkpt lat="-39.1023800" lon="-72.6789330">
        <ele>94.0</ele>
        <time>2024-01-01T21:50:24Z</time>
      </trkpt>
      <trkpt lat="-39.1023550" lon="-72.6798140">
        <ele>94.0</ele>
        <time>2024-01-01T21:50:30Z</time>
      </trkpt>
      <trkpt lat="-39.1022730" lon="-72.6797740">
        <ele>94.0</ele>
        <time>2024-01-01T21:50:45Z</time>
      </trkpt>
      <trkpt lat="-39.1023800" lon="-72.6796870">
        <ele>94.0</ele>
        <time>2024-01-01T21:51:39Z</time>
      </trkpt>
      <trkpt lat="-39.1024470" lon="-72.6797650">
        <ele>94.0</ele>
        <time>2024-01-01T21:52:39Z</time>
      </trkpt>
    </trkseg>
  </trk>
</gpx>