<?xml version="1.0" encoding="UTF-8"?>
<gpx version="1.1" creator="BosqueAbierto" xmlns="http://www.topografix.com/GPX/1/1">
<trk><name>Pista Pato Line</name><trkseg>
<trkpt lat="-36.597268" lon="-71.737568"><ele>441.0</ele></trkpt>
<trkpt lat="-36.596631" lon="-71.738019"><ele>441.0</ele></trkpt>
<trkpt lat="-36.595477" lon="-71.737740"><ele>420.0</ele></trkpt>
<trkpt lat="-36.595236" lon="-71.738577"><ele>420.0</ele></trkpt>
<trkpt lat="-36.594719" lon="-71.738470"><ele>420.0</ele></trkpt>
<trkpt lat="-36.594651" lon="-71.738920"><ele>420.0</ele></trkpt>
<trkpt lat="-36.594237" lon="-71.738899"><ele>420.0</ele></trkpt>
<trkpt lat="-36.593342" lon="-71.739500"><ele>374.0</ele></trkpt>
<trkpt lat="-36.593394" lon="-71.740058"><ele>380.0</ele></trkpt>
<trkpt lat="-36.593204" lon="-71.740165"><ele>380.0</ele></trkpt>
<trkpt lat="-36.592671" lon="-71.741559"><ele>380.0</ele></trkpt>
<trkpt lat="-36.592361" lon="-71.742332"><ele>361.0</ele></trkpt>
<trkpt lat="-36.592430" lon="-71.742943"><ele>361.0</ele></trkpt>
<trkpt lat="-36.592644" lon="-71.743813"><ele>333.0</ele></trkpt>
<trkpt lat="-36.592844" lon="-71.744564"><ele>333.0</ele></trkpt>
<trkpt lat="-36.592758" lon="-71.748018"><ele>267.0</ele></trkpt>
<trkpt lat="-36.592806" lon="-71.747997"><ele>267.0</ele></trkpt>
<trkpt lat="-36.592793" lon="-71.747954"><ele>267.0</ele></trkpt>
<trkpt lat="-36.592810" lon="-71.748018"><ele>267.0</ele></trkpt>
<trkpt lat="-36.592911" lon="-71.747932"><ele>267.0</ele></trkpt>
</trkseg></trk>
<trk><name>Pista Boldo</name><trkseg>
<trkpt lat="-36.597188" lon="-71.737654"><ele>441.0</ele></trkpt>
<trkpt lat="-36.596413" lon="-71.738470"><ele>441.0</ele></trkpt>
<trkpt lat="-36.596207" lon="-71.739757"><ele>398.0</ele></trkpt>
<trkpt lat="-36.595432" lon="-71.739178"><ele>420.0</ele></trkpt>
<trkpt lat="-36.594416" lon="-71.739757"><ele>396.0</ele></trkpt>
<trkpt lat="-36.594588" lon="-71.740465"><ele>396.0</ele></trkpt>
<trkpt lat="-36.594072" lon="-71.740379"><ele>396.0</ele></trkpt>
<trkpt lat="-36.593314" lon="-71.740787"><ele>380.0</ele></trkpt>
<trkpt lat="-36.592669" lon="-71.741795"><ele>361.0</ele></trkpt>
<trkpt lat="-36.593870" lon="-71.742804"><ele>357.0</ele></trkpt>
<trkpt lat="-36.594189" lon="-71.742911"><ele>357.0</ele></trkpt>
<trkpt lat="-36.594370" lon="-71.743609"><ele>357.0</ele></trkpt>
<trkpt lat="-36.594499" lon="-71.744276"><ele>334.0</ele></trkpt>
<trkpt lat="-36.594421" lon="-71.744889"><ele>334.0</ele></trkpt>
<trkpt lat="-36.594219" lon="-71.745593"><ele>334.0</ele></trkpt>
<trkpt lat="-36.594103" lon="-71.746091"><ele>293.0</ele></trkpt>
<trkpt lat="-36.593862" lon="-71.746736"><ele>293.0</ele></trkpt>
<trkpt lat="-36.593785" lon="-71.748834"><ele>283.0</ele></trkpt>
</trkseg></trk>
<trk><name>Pista Hacha</name><trkseg>
<trkpt lat="-36.607977" lon="-71.724415"><ele>557.0</ele></trkpt>
<trkpt lat="-36.606704" lon="-71.725080"><ele>537.0</ele></trkpt>
<trkpt lat="-36.606136" lon="-71.727376"><ele>516.0</ele></trkpt>
<trkpt lat="-36.604245" lon="-71.731035"><ele>467.0</ele></trkpt>
<trkpt lat="-36.604439" lon="-71.731528"><ele>455.0</ele></trkpt>
<trkpt lat="-36.604689" lon="-71.733148"><ele>455.0</ele></trkpt>
<trkpt lat="-36.605206" lon="-71.735466"><ele>438.0</ele></trkpt>
<trkpt lat="-36.605103" lon="-71.736238"><ele>438.0</ele></trkpt>
<trkpt lat="-36.604793" lon="-71.737053"><ele>438.0</ele></trkpt>
<trkpt lat="-36.603794" lon="-71.738384"><ele>427.0</ele></trkpt>
</trkseg></trk>
<trk><name>Pista Calabozo</name><trkseg>
<trkpt lat="-36.603789" lon="-71.738244"><ele>427.0</ele></trkpt>
<trkpt lat="-36.603668" lon="-71.738770"><ele>427.0</ele></trkpt>
<trkpt lat="-36.603161" lon="-71.739918"><ele>409.0</ele></trkpt>
<trkpt lat="-36.603161" lon="-71.740637"><ele>409.0</ele></trkpt>
<trkpt lat="-36.602102" lon="-71.741989"><ele>372.0</ele></trkpt>
<trkpt lat="-36.601543" lon="-71.742611"><ele>383.0</ele></trkpt>
<trkpt lat="-36.600581" lon="-71.742783"><ele>383.0</ele></trkpt>
<trkpt lat="-36.600099" lon="-71.743791"><ele>336.0</ele></trkpt>
<trkpt lat="-36.599565" lon="-71.744199"><ele>344.0</ele></trkpt>
<trkpt lat="-36.599049" lon="-71.745293"><ele>344.0</ele></trkpt>
<trkpt lat="-36.598136" lon="-71.745443"><ele>344.0</ele></trkpt>
<trkpt lat="-36.596776" lon="-71.748469"><ele>277.0</ele></trkpt>
</trkseg></trk>
<trk><name>Conexión a Boldo</name><trkseg>
<trkpt lat="-36.604275" lon="-71.731362"><ele>455.0</ele></trkpt>
<trkpt lat="-36.603966" lon="-71.732161"><ele>450.0</ele></trkpt>
<trkpt lat="-36.603863" lon="-71.732719"><ele>450.0</ele></trkpt>
<trkpt lat="-36.604379" lon="-71.734371"><ele>453.0</ele></trkpt>
<trkpt lat="-36.603415" lon="-71.733770"><ele>445.0</ele></trkpt>
<trkpt lat="-36.602245" lon="-71.734757"><ele>445.0</ele></trkpt>
<trkpt lat="-36.600885" lon="-71.736088"><ele>426.0</ele></trkpt>
<trkpt lat="-36.598940" lon="-71.737118"><ele>424.0</ele></trkpt>
<trkpt lat="-36.597408" lon="-71.737590"><ele>441.0</ele></trkpt>
</trkseg></trk>
<trk><name>Camino de subida 1 a Boldo</name><trkseg>
<trkpt lat="-36.596623" lon="-71.748780"><ele>277.0</ele></trkpt>
<trkpt lat="-36.595934" lon="-71.747407"><ele>293.0</ele></trkpt>
<trkpt lat="-36.596227" lon="-71.746001"><ele>293.0</ele></trkpt>
<trkpt lat="-36.595900" lon="-71.745272"><ele>320.0</ele></trkpt>
<trkpt lat="-36.594419" lon="-71.745647"><ele>334.0</ele></trkpt>
<trkpt lat="-36.593254" lon="-71.744553"><ele>333.0</ele></trkpt>
<trkpt lat="-36.592508" lon="-71.742343"><ele>361.0</ele></trkpt>
<trkpt lat="-36.592514" lon="-71.741023"><ele>380.0</ele></trkpt>
<trkpt lat="-36.592753" lon="-71.739671"><ele>380.0</ele></trkpt>
<trkpt lat="-36.593169" lon="-71.739178"><ele>374.0</ele></trkpt>
<trkpt lat="-36.593614" lon="-71.739156"><ele>374.0</ele></trkpt>
<trkpt lat="-36.594251" lon="-71.738727"><ele>420.0</ele></trkpt>
<trkpt lat="-36.595129" lon="-71.738105"><ele>420.0</ele></trkpt>
<trkpt lat="-36.595576" lon="-71.737225"><ele>404.0</ele></trkpt>
<trkpt lat="-36.595921" lon="-71.736753"><ele>422.0</ele></trkpt>
<trkpt lat="-36.596609" lon="-71.736774"><ele>422.0</ele></trkpt>
<trkpt lat="-36.597298" lon="-71.737654"><ele>441.0</ele></trkpt>
</trkseg></trk>
<trk><name>Camino de subida 2 a Hacha</name><trkseg>
<trkpt lat="-36.608096" lon="-71.724404"><ele>557.0</ele></trkpt>
<trkpt lat="-36.608655" lon="-71.724587"><ele>538.0</ele></trkpt>
<trkpt lat="-36.609129" lon="-71.725488"><ele>516.0</ele></trkpt>
<trkpt lat="-36.609602" lon="-71.725016"><ele>516.0</ele></trkpt>
<trkpt lat="-36.609563" lon="-71.725971"><ele>516.0</ele></trkpt>
<trkpt lat="-36.608264" lon="-71.726818"><ele>537.0</ele></trkpt>
<trkpt lat="-36.607587" lon="-71.727998"><ele>496.0</ele></trkpt>
<trkpt lat="-36.606944" lon="-71.727998"><ele>496.0</ele></trkpt>
<trkpt lat="-36.606518" lon="-71.727934"><ele>496.0</ele></trkpt>
<trkpt lat="-36.605700" lon="-71.729039"><ele>516.0</ele></trkpt>
<trkpt lat="-36.604822" lon="-71.730316"><ele>467.0</ele></trkpt>
<trkpt lat="-36.604400" lon="-71.731260"><ele>455.0</ele></trkpt>
<trkpt lat="-36.604117" lon="-71.732472"><ele>450.0</ele></trkpt>
<trkpt lat="-36.604487" lon="-71.734393"><ele>453.0</ele></trkpt>
<trkpt lat="-36.604994" lon="-71.736238"><ele>438.0</ele></trkpt>
<trkpt lat="-36.603979" lon="-71.737504"><ele>427.0</ele></trkpt>
<trkpt lat="-36.603247" lon="-71.738652"><ele>427.0</ele></trkpt>
<trkpt lat="-36.602791" lon="-71.740358"><ele>409.0</ele></trkpt>
<trkpt lat="-36.601724" lon="-71.741785"><ele>383.0</ele></trkpt>
<trkpt lat="-36.601595" lon="-71.739693"><ele>383.0</ele></trkpt>
<trkpt lat="-36.599443" lon="-71.740100"><ele>373.0</ele></trkpt>
<trkpt lat="-36.598315" lon="-71.742139"><ele>344.0</ele></trkpt>
<trkpt lat="-36.597859" lon="-71.743394"><ele>343.0</ele></trkpt>
<trkpt lat="-36.596534" lon="-71.743169"><ele>343.0</ele></trkpt>
<trkpt lat="-36.596009" lon="-71.744692"><ele>320.0</ele></trkpt>
<trkpt lat="-36.595871" lon="-71.745315"><ele>320.0</ele></trkpt>
<trkpt lat="-36.595895" lon="-71.745272"><ele>320.0</ele></trkpt>
</trkseg></trk>
</gpx>