<?xml version="1.0" encoding="UTF-8"?>
<gpx version="1.1" creator="BosqueAbierto" xmlns="http://www.topografix.com/GPX/1/1">
<trk><name>Montaña Cañete XCM</name><trkseg>
<trkpt lat="-37.792469" lon="-73.358852"><ele>84.0</ele></trkpt>
<trkpt lat="-37.792778" lon="-73.357166"><ele>87.0</ele></trkpt>
<trkpt lat="-37.792906" lon="-73.355252"><ele>85.0</ele></trkpt>
<trkpt lat="-37.792849" lon="-73.354852"><ele>85.0</ele></trkpt>
<trkpt lat="-37.788635" lon="-73.356160"><ele>93.0</ele></trkpt>
<trkpt lat="-37.787947" lon="-73.356258"><ele>87.0</ele></trkpt>
<trkpt lat="-37.787470" lon="-73.356494"><ele>88.0</ele></trkpt>
<trkpt lat="-37.787082" lon="-73.356954"><ele>88.0</ele></trkpt>
<trkpt lat="-37.786490" lon="-73.357881"><ele>88.0</ele></trkpt>
<trkpt lat="-37.785732" lon="-73.358608"><ele>89.0</ele></trkpt>
<trkpt lat="-37.783522" lon="-73.363271"><ele>88.0</ele></trkpt>
<trkpt lat="-37.782193" lon="-73.364953"><ele>86.0</ele></trkpt>
<trkpt lat="-37.781496" lon="-73.366460"><ele>86.0</ele></trkpt>
<trkpt lat="-37.779454" lon="-73.369743"><ele>88.0</ele></trkpt>
<trkpt lat="-37.779583" lon="-73.368281"><ele>70.0</ele></trkpt>
<trkpt lat="-37.779513" lon="-73.367989"><ele>70.0</ele></trkpt>
<trkpt lat="-37.777646" lon="-73.365858"><ele>74.0</ele></trkpt>
<trkpt lat="-37.777347" lon="-73.365430"><ele>74.0</ele></trkpt>
<trkpt lat="-37.777285" lon="-73.365180"><ele>74.0</ele></trkpt>
<trkpt lat="-37.778006" lon="-73.363479"><ele>83.0</ele></trkpt>
<trkpt lat="-37.778764" lon="-73.361985"><ele>85.0</ele></trkpt>
<trkpt lat="-37.779632" lon="-73.359436"><ele>87.0</ele></trkpt>
<trkpt lat="-37.780219" lon="-73.356309"><ele>89.0</ele></trkpt>
<trkpt lat="-37.780818" lon="-73.353678"><ele>90.0</ele></trkpt>
<trkpt lat="-37.781767" lon="-73.345377"><ele>101.0</ele></trkpt>
<trkpt lat="-37.782007" lon="-73.340417"><ele>116.0</ele></trkpt>
<trkpt lat="-37.781869" lon="-73.338460"><ele>125.0</ele></trkpt>
<trkpt lat="-37.782045" lon="-73.337908"><ele>125.0</ele></trkpt>
<trkpt lat="-37.781794" lon="-73.336809"><ele>117.0</ele></trkpt>
<trkpt lat="-37.781371" lon="-73.335960"><ele>117.0</ele></trkpt>
<trkpt lat="-37.781085" lon="-73.334824"><ele>130.0</ele></trkpt>
<trkpt lat="-37.780070" lon="-73.333100"><ele>129.0</ele></trkpt>
<trkpt lat="-37.779429" lon="-73.331429"><ele>129.0</ele></trkpt>
<trkpt lat="-37.778594" lon="-73.328751"><ele>158.0</ele></trkpt>
<trkpt lat="-37.778255" lon="-73.327385"><ele>158.0</ele></trkpt>
<trkpt lat="-37.778023" lon="-73.326845"><ele>157.0</ele></trkpt>
<trkpt lat="-37.778044" lon="-73.326288"><ele>157.0</ele></trkpt>
<trkpt lat="-37.777538" lon="-73.324340"><ele>161.0</ele></trkpt>
<trkpt lat="-37.777335" lon="-73.323991"><ele>161.0</ele></trkpt>
<trkpt lat="-37.777271" lon="-73.323710"><ele>161.0</ele></trkpt>
<trkpt lat="-37.776777" lon="-73.323037"><ele>190.0</ele></trkpt>
<trkpt lat="-37.776544" lon="-73.323020"><ele>190.0</ele></trkpt>
<trkpt lat="-37.776359" lon="-73.323201"><ele>190.0</ele></trkpt>
<trkpt lat="-37.776055" lon="-73.323248"><ele>190.0</ele></trkpt>
<trkpt lat="-37.775667" lon="-73.323562"><ele>190.0</ele></trkpt>
<trkpt lat="-37.775277" lon="-73.323693"><ele>190.0</ele></trkpt>
<trkpt lat="-37.775149" lon="-73.323202"><ele>190.0</ele></trkpt>
<trkpt lat="-37.775264" lon="-73.322646"><ele>183.0</ele></trkpt>
<trkpt lat="-37.775074" lon="-73.322367"><ele>183.0</ele></trkpt>
<trkpt lat="-37.775088" lon="-73.322218"><ele>183.0</ele></trkpt>
<trkpt lat="-37.774986" lon="-73.322255"><ele>272.0</ele></trkpt>
<trkpt lat="-37.774872" lon="-73.322161"><ele>272.0</ele></trkpt>
<trkpt lat="-37.774780" lon="-73.321740"><ele>272.0</ele></trkpt>
<trkpt lat="-37.774621" lon="-73.321737"><ele>272.0</ele></trkpt>
<trkpt lat="-37.774258" lon="-73.321340"><ele>272.0</ele></trkpt>
<trkpt lat="-37.773440" lon="-73.321136"><ele>272.0</ele></trkpt>
<trkpt lat="-37.773066" lon="-73.321165"><ele>272.0</ele></trkpt>
<trkpt lat="-37.772834" lon="-73.320422"><ele>262.0</ele></trkpt>
<trkpt lat="-37.772976" lon="-73.319670"><ele>224.0</ele></trkpt>
<trkpt lat="-37.772865" lon="-73.319597"><ele>262.0</ele></trkpt>
<trkpt lat="-37.772449" lon="-73.319633"><ele>262.0</ele></trkpt>
<trkpt lat="-37.772706" lon="-73.318628"><ele>235.0</ele></trkpt>
<trkpt lat="-37.772655" lon="-73.318053"><ele>235.0</ele></trkpt>
<trkpt lat="-37.772113" lon="-73.318594"><ele>235.0</ele></trkpt>
<trkpt lat="-37.770842" lon="-73.319453"><ele>262.0</ele></trkpt>
<trkpt lat="-37.770701" lon="-73.319298"><ele>317.0</ele></trkpt>
<trkpt lat="-37.770846" lon="-73.318846"><ele>262.0</ele></trkpt>
<trkpt lat="-37.770741" lon="-73.318506"><ele>331.0</ele></trkpt>
<trkpt lat="-37.770546" lon="-73.318607"><ele>331.0</ele></trkpt>
<trkpt lat="-37.769944" lon="-73.317804"><ele>331.0</ele></trkpt>
<trkpt lat="-37.769730" lon="-73.317708"><ele>331.0</ele></trkpt>
<trkpt lat="-37.769650" lon="-73.317185"><ele>331.0</ele></trkpt>
<trkpt lat="-37.769366" lon="-73.316894"><ele>331.0</ele></trkpt>
<trkpt lat="-37.768812" lon="-73.316782"><ele>331.0</ele></trkpt>
<trkpt lat="-37.768772" lon="-73.315979"><ele>295.0</ele></trkpt>
<trkpt lat="-37.768891" lon="-73.315781"><ele>295.0</ele></trkpt>
<trkpt lat="-37.769440" lon="-73.315459"><ele>295.0</ele></trkpt>
<trkpt lat="-37.769588" lon="-73.315292"><ele>295.0</ele></trkpt>
<trkpt lat="-37.769704" lon="-73.315070"><ele>295.0</ele></trkpt>
<trkpt lat="-37.769668" lon="-73.314845"><ele>295.0</ele></trkpt>
<trkpt lat="-37.769784" lon="-73.314665"><ele>295.0</ele></trkpt>
<trkpt lat="-37.770242" lon="-73.314484"><ele>252.0</ele></trkpt>
<trkpt lat="-37.770031" lon="-73.314055"><ele>252.0</ele></trkpt>
<trkpt lat="-37.769233" lon="-73.313713"><ele>252.0</ele></trkpt>
<trkpt lat="-37.769140" lon="-73.313468"><ele>252.0</ele></trkpt>
<trkpt lat="-37.769148" lon="-73.312908"><ele>252.0</ele></trkpt>
<trkpt lat="-37.768915" lon="-73.312489"><ele>186.0</ele></trkpt>
<trkpt lat="-37.768519" lon="-73.312315"><ele>204.0</ele></trkpt>
<trkpt lat="-37.768309" lon="-73.312062"><ele>204.0</ele></trkpt>
<trkpt lat="-37.768091" lon="-73.312000"><ele>204.0</ele></trkpt>
<trkpt lat="-37.767956" lon="-73.311713"><ele>204.0</ele></trkpt>
<trkpt lat="-37.767282" lon="-73.311624"><ele>204.0</ele></trkpt>
<trkpt lat="-37.766326" lon="-73.311266"><ele>222.0</ele></trkpt>
<trkpt lat="-37.765827" lon="-73.311350"><ele>222.0</ele></trkpt>
<trkpt lat="-37.764910" lon="-73.311697"><ele>222.0</ele></trkpt>
<trkpt lat="-37.763877" lon="-73.311470"><ele>237.0</ele></trkpt>
<trkpt lat="-37.763135" lon="-73.311196"><ele>237.0</ele></trkpt>
<trkpt lat="-37.762914" lon="-73.310398"><ele>253.0</ele></trkpt>
<trkpt lat="-37.762499" lon="-73.310227"><ele>283.0</ele></trkpt>
<trkpt lat="-37.762088" lon="-73.310179"><ele>283.0</ele></trkpt>
<trkpt lat="-37.761875" lon="-73.309757"><ele>283.0</ele></trkpt>
<trkpt lat="-37.761272" lon="-73.309567"><ele>283.0</ele></trkpt>
<trkpt lat="-37.760670" lon="-73.309002"><ele>283.0</ele></trkpt>
<trkpt lat="-37.760490" lon="-73.308592"><ele>283.0</ele></trkpt>
<trkpt lat="-37.760068" lon="-73.308197"><ele>309.0</ele></trkpt>
<trkpt lat="-37.759686" lon="-73.308198"><ele>309.0</ele></trkpt>
<trkpt lat="-37.758766" lon="-73.307793"><ele>309.0</ele></trkpt>
<trkpt lat="-37.758662" lon="-73.307947"><ele>309.0</ele></trkpt>
<trkpt lat="-37.758892" lon="-73.308115"><ele>309.0</ele></trkpt>
<trkpt lat="-37.759179" lon="-73.308786"><ele>379.0</ele></trkpt>
<trkpt lat="-37.758801" lon="-73.308816"><ele>379.0</ele></trkpt>
<trkpt lat="-37.758584" lon="-73.308963"><ele>379.0</ele></trkpt>
<trkpt lat="-37.758408" lon="-73.308925"><ele>379.0</ele></trkpt>
<trkpt lat="-37.758056" lon="-73.308294"><ele>415.0</ele></trkpt>
<trkpt lat="-37.757835" lon="-73.308207"><ele>415.0</ele></trkpt>
<trkpt lat="-37.757828" lon="-73.307891"><ele>415.0</ele></trkpt>
<trkpt lat="-37.757672" lon="-73.307655"><ele>415.0</ele></trkpt>
<trkpt lat="-37.757264" lon="-73.307197"><ele>415.0</ele></trkpt>
<trkpt lat="-37.756985" lon="-73.307007"><ele>415.0</ele></trkpt>
<trkpt lat="-37.756849" lon="-73.307085"><ele>415.0</ele></trkpt>
<trkpt lat="-37.756878" lon="-73.307663"><ele>415.0</ele></trkpt>
<trkpt lat="-37.756468" lon="-73.308320"><ele>415.0</ele></trkpt>
<trkpt lat="-37.756629" lon="-73.309040"><ele>461.0</ele></trkpt>
<trkpt lat="-37.756366" lon="-73.309044"><ele>461.0</ele></trkpt>
<trkpt lat="-37.755771" lon="-73.308828"><ele>522.0</ele></trkpt>
<trkpt lat="-37.755594" lon="-73.308940"><ele>522.0</ele></trkpt>
<trkpt lat="-37.755813" lon="-73.309158"><ele>522.0</ele></trkpt>
<trkpt lat="-37.756350" lon="-73.310148"><ele>461.0</ele></trkpt>
<trkpt lat="-37.756712" lon="-73.311463"><ele>536.0</ele></trkpt>
<trkpt lat="-37.756988" lon="-73.311536"><ele>536.0</ele></trkpt>
<trkpt lat="-37.757266" lon="-73.311417"><ele>536.0</ele></trkpt>
<trkpt lat="-37.757403" lon="-73.311442"><ele>536.0</ele></trkpt>
<trkpt lat="-37.757599" lon="-73.311857"><ele>536.0</ele></trkpt>
<trkpt lat="-37.757912" lon="-73.312255"><ele>536.0</ele></trkpt>
<trkpt lat="-37.757786" lon="-73.312635"><ele>570.0</ele></trkpt>
<trkpt lat="-37.757795" lon="-73.312989"><ele>570.0</ele></trkpt>
<trkpt lat="-37.757585" lon="-73.313294"><ele>570.0</ele></trkpt>
<trkpt lat="-37.757587" lon="-73.313913"><ele>570.0</ele></trkpt>
<trkpt lat="-37.757331" lon="-73.314370"><ele>570.0</ele></trkpt>
<trkpt lat="-37.756954" lon="-73.316343"><ele>562.0</ele></trkpt>
<trkpt lat="-37.756977" lon="-73.316504"><ele>562.0</ele></trkpt>
<trkpt lat="-37.757323" lon="-73.316775"><ele>582.0</ele></trkpt>
<trkpt lat="-37.757362" lon="-73.316887"><ele>582.0</ele></trkpt>
<trkpt lat="-37.756360" lon="-73.317545"><ele>582.0</ele></trkpt>
<trkpt lat="-37.755917" lon="-73.317574"><ele>596.0</ele></trkpt>
<trkpt lat="-37.755541" lon="-73.317221"><ele>596.0</ele></trkpt>
<trkpt lat="-37.755284" lon="-73.316656"><ele>598.0</ele></trkpt>
<trkpt lat="-37.755068" lon="-73.315625"><ele>598.0</ele></trkpt>
<trkpt lat="-37.754468" lon="-73.314775"><ele>598.0</ele></trkpt>
<trkpt lat="-37.753907" lon="-73.314645"><ele>600.0</ele></trkpt>
<trkpt lat="-37.753306" lon="-73.314769"><ele>600.0</ele></trkpt>
<trkpt lat="-37.753103" lon="-73.314738"><ele>600.0</ele></trkpt>
<trkpt lat="-37.752407" lon="-73.314474"><ele>600.0</ele></trkpt>
<trkpt lat="-37.751888" lon="-73.314130"><ele>600.0</ele></trkpt>
<trkpt lat="-37.751239" lon="-73.313869"><ele>600.0</ele></trkpt>
<trkpt lat="-37.750948" lon="-73.313580"><ele>600.0</ele></trkpt>
<trkpt lat="-37.750549" lon="-73.312733"><ele>600.0</ele></trkpt>
<trkpt lat="-37.750350" lon="-73.312494"><ele>590.0</ele></trkpt>
<trkpt lat="-37.749757" lon="-73.312555"><ele>612.0</ele></trkpt>
<trkpt lat="-37.749193" lon="-73.312418"><ele>608.0</ele></trkpt>
<trkpt lat="-37.748766" lon="-73.312460"><ele>608.0</ele></trkpt>
<trkpt lat="-37.747772" lon="-73.311848"><ele>628.0</ele></trkpt>
<trkpt lat="-37.747302" lon="-73.312128"><ele>628.0</ele></trkpt>
<trkpt lat="-37.746539" lon="-73.312184"><ele>628.0</ele></trkpt>
<trkpt lat="-37.745869" lon="-73.312882"><ele>614.0</ele></trkpt>
<trkpt lat="-37.745551" lon="-73.312885"><ele>607.0</ele></trkpt>
<trkpt lat="-37.745328" lon="-73.312736"><ele>607.0</ele></trkpt>
<trkpt lat="-37.745186" lon="-73.312147"><ele>634.0</ele></trkpt>
<trkpt lat="-37.744725" lon="-73.311454"><ele>634.0</ele></trkpt>
<trkpt lat="-37.744164" lon="-73.310298"><ele>640.0</ele></trkpt>
<trkpt lat="-37.743514" lon="-73.308426"><ele>637.0</ele></trkpt>
<trkpt lat="-37.742894" lon="-73.307390"><ele>662.0</ele></trkpt>
<trkpt lat="-37.742753" lon="-73.306934"><ele>662.0</ele></trkpt>
<trkpt lat="-37.742970" lon="-73.305919"><ele>666.0</ele></trkpt>
<trkpt lat="-37.743505" lon="-73.304899"><ele>666.0</ele></trkpt>
<trkpt lat="-37.743424" lon="-73.303532"><ele>669.0</ele></trkpt>
<trkpt lat="-37.743212" lon="-73.302828"><ele>669.0</ele></trkpt>
<trkpt lat="-37.743242" lon="-73.302601"><ele>669.0</ele></trkpt>
<trkpt lat="-37.743564" lon="-73.302286"><ele>669.0</ele></trkpt>
<trkpt lat="-37.743957" lon="-73.302370"><ele>652.0</ele></trkpt>
<trkpt lat="-37.744261" lon="-73.302137"><ele>652.0</ele></trkpt>
<trkpt lat="-37.744643" lon="-73.302082"><ele>656.0</ele></trkpt>
<trkpt lat="-37.744844" lon="-73.301551"><ele>656.0</ele></trkpt>
<trkpt lat="-37.745145" lon="-73.301134"><ele>656.0</ele></trkpt>
<trkpt lat="-37.744884" lon="-73.301160"><ele>656.0</ele></trkpt>
<trkpt lat="-37.744610" lon="-73.301328"><ele>656.0</ele></trkpt>
<trkpt lat="-37.744514" lon="-73.301267"><ele>656.0</ele></trkpt>
<trkpt lat="-37.744682" lon="-73.300943"><ele>656.0</ele></trkpt>
<trkpt lat="-37.744784" lon="-73.300488"><ele>656.0</ele></trkpt>
<trkpt lat="-37.744722" lon="-73.300343"><ele>656.0</ele></trkpt>
<trkpt lat="-37.744441" lon="-73.300142"><ele>656.0</ele></trkpt>
<trkpt lat="-37.744126" lon="-73.299613"><ele>647.0</ele></trkpt>
<trkpt lat="-37.744280" lon="-73.298849"><ele>647.0</ele></trkpt>
<trkpt lat="-37.744097" lon="-73.298387"><ele>647.0</ele></trkpt>
<trkpt lat="-37.744006" lon="-73.297656"><ele>665.0</ele></trkpt>
<trkpt lat="-37.743886" lon="-73.297367"><ele>665.0</ele></trkpt>
<trkpt lat="-37.744087" lon="-73.296410"><ele>665.0</ele></trkpt>
<trkpt lat="-37.744099" lon="-73.295353"><ele>681.0</ele></trkpt>
<trkpt lat="-37.744334" lon="-73.294376"><ele>681.0</ele></trkpt>
<trkpt lat="-37.744640" lon="-73.293911"><ele>681.0</ele></trkpt>
<trkpt lat="-37.744786" lon="-73.292738"><ele>678.0</ele></trkpt>
<trkpt lat="-37.744940" lon="-73.292203"><ele>678.0</ele></trkpt>
<trkpt lat="-37.744909" lon="-73.291936"><ele>678.0</ele></trkpt>
<trkpt lat="-37.744531" lon="-73.291356"><ele>660.0</ele></trkpt>
<trkpt lat="-37.744530" lon="-73.291156"><ele>660.0</ele></trkpt>
<trkpt lat="-37.744727" lon="-73.290973"><ele>660.0</ele></trkpt>
<trkpt lat="-37.745376" lon="-73.290821"><ele>660.0</ele></trkpt>
<trkpt lat="-37.745414" lon="-73.290609"><ele>660.0</ele></trkpt>
<trkpt lat="-37.745311" lon="-73.289943"><ele>660.0</ele></trkpt>
<trkpt lat="-37.745373" lon="-73.289516"><ele>637.0</ele></trkpt>
<trkpt lat="-37.745614" lon="-73.289233"><ele>637.0</ele></trkpt>
<trkpt lat="-37.746362" lon="-73.288997"><ele>675.0</ele></trkpt>
<trkpt lat="-37.746615" lon="-73.288802"><ele>675.0</ele></trkpt>
<trkpt lat="-37.746671" lon="-73.287841"><ele>675.0</ele></trkpt>
<trkpt lat="-37.747013" lon="-73.287245"><ele>688.0</ele></trkpt>
<trkpt lat="-37.748204" lon="-73.286782"><ele>690.0</ele></trkpt>
<trkpt lat="-37.748444" lon="-73.286857"><ele>690.0</ele></trkpt>
<trkpt lat="-37.748833" lon="-73.287187"><ele>690.0</ele></trkpt>
<trkpt lat="-37.749184" lon="-73.287113"><ele>690.0</ele></trkpt>
<trkpt lat="-37.749565" lon="-73.287257"><ele>690.0</ele></trkpt>
<trkpt lat="-37.749974" lon="-73.287716"><ele>674.0</ele></trkpt>
<trkpt lat="-37.750509" lon="-73.287912"><ele>691.0</ele></trkpt>
<trkpt lat="-37.750550" lon="-73.288936"><ele>691.0</ele></trkpt>
<trkpt lat="-37.750853" lon="-73.289255"><ele>691.0</ele></trkpt>
<trkpt lat="-37.751901" lon="-73.289203"><ele>691.0</ele></trkpt>
<trkpt lat="-37.752432" lon="-73.288997"><ele>672.0</ele></trkpt>
<trkpt lat="-37.752996" lon="-73.288950"><ele>672.0</ele></trkpt>
<trkpt lat="-37.753465" lon="-73.289407"><ele>672.0</ele></trkpt>
<trkpt lat="-37.753639" lon="-73.290464"><ele>661.0</ele></trkpt>
<trkpt lat="-37.754320" lon="-73.291378"><ele>588.0</ele></trkpt>
<trkpt lat="-37.754327" lon="-73.291925"><ele>612.0</ele></trkpt>
<trkpt lat="-37.754070" lon="-73.292516"><ele>645.0</ele></trkpt>
<trkpt lat="-37.754067" lon="-73.292792"><ele>645.0</ele></trkpt>
<trkpt lat="-37.754212" lon="-73.293250"><ele>612.0</ele></trkpt>
<trkpt lat="-37.754026" lon="-73.294923"><ele>623.0</ele></trkpt>
<trkpt lat="-37.754298" lon="-73.295314"><ele>574.0</ele></trkpt>
<trkpt lat="-37.754325" lon="-73.295539"><ele>574.0</ele></trkpt>
<trkpt lat="-37.754251" lon="-73.295667"><ele>574.0</ele></trkpt>
<trkpt lat="-37.754673" lon="-73.295962"><ele>609.0</ele></trkpt>
<trkpt lat="-37.754870" lon="-73.296447"><ele>609.0</ele></trkpt>
<trkpt lat="-37.755263" lon="-73.297090"><ele>609.0</ele></trkpt>
<trkpt lat="-37.755292" lon="-73.297305"><ele>609.0</ele></trkpt>
<trkpt lat="-37.755066" lon="-73.297539"><ele>609.0</ele></trkpt>
<trkpt lat="-37.754745" lon="-73.297575"><ele>609.0</ele></trkpt>
<trkpt lat="-37.754508" lon="-73.297514"><ele>609.0</ele></trkpt>
<trkpt lat="-37.754216" lon="-73.297229"><ele>609.0</ele></trkpt>
<trkpt lat="-37.754018" lon="-73.296575"><ele>563.0</ele></trkpt>
<trkpt lat="-37.753770" lon="-73.296659"><ele>563.0</ele></trkpt>
<trkpt lat="-37.753445" lon="-73.297012"><ele>563.0</ele></trkpt>
<trkpt lat="-37.753309" lon="-73.297059"><ele>563.0</ele></trkpt>
<trkpt lat="-37.752836" lon="-73.296582"><ele>563.0</ele></trkpt>
<trkpt lat="-37.752253" lon="-73.296784"><ele>563.0</ele></trkpt>
<trkpt lat="-37.751430" lon="-73.296830"><ele>557.0</ele></trkpt>
<trkpt lat="-37.751530" lon="-73.297088"><ele>557.0</ele></trkpt>
<trkpt lat="-37.751866" lon="-73.297385"><ele>557.0</ele></trkpt>
<trkpt lat="-37.751877" lon="-73.297519"><ele>557.0</ele></trkpt>
<trkpt lat="-37.751667" lon="-73.297671"><ele>557.0</ele></trkpt>
<trkpt lat="-37.751098" lon="-73.297576"><ele>557.0</ele></trkpt>
<trkpt lat="-37.751067" lon="-73.297773"><ele>557.0</ele></trkpt>
<trkpt lat="-37.751270" lon="-73.297986"><ele>493.0</ele></trkpt>
<trkpt lat="-37.751458" lon="-73.298027"><ele>493.0</ele></trkpt>
<trkpt lat="-37.751837" lon="-73.297894"><ele>557.0</ele></trkpt>
<trkpt lat="-37.752258" lon="-73.297532"><ele>563.0</ele></trkpt>
<trkpt lat="-37.752471" lon="-73.297153"><ele>563.0</ele></trkpt>
<trkpt lat="-37.752680" lon="-73.297214"><ele>563.0</ele></trkpt>
<trkpt lat="-37.753020" lon="-73.297617"><ele>563.0</ele></trkpt>
<trkpt lat="-37.753042" lon="-73.297727"><ele>563.0</ele></trkpt>
<trkpt lat="-37.752811" lon="-73.298354"><ele>535.0</ele></trkpt>
<trkpt lat="-37.752145" lon="-73.299595"><ele>535.0</ele></trkpt>
<trkpt lat="-37.752110" lon="-73.299981"><ele>535.0</ele></trkpt>
<trkpt lat="-37.752194" lon="-73.300188"><ele>461.0</ele></trkpt>
<trkpt lat="-37.752357" lon="-73.300323"><ele>461.0</ele></trkpt>
<trkpt lat="-37.752875" lon="-73.300350"><ele>461.0</ele></trkpt>
<trkpt lat="-37.753188" lon="-73.300466"><ele>461.0</ele></trkpt>
<trkpt lat="-37.753675" lon="-73.301112"><ele>461.0</ele></trkpt>
<trkpt lat="-37.754095" lon="-73.301311"><ele>461.0</ele></trkpt>
<trkpt lat="-37.754306" lon="-73.301245"><ele>455.0</ele></trkpt>
<trkpt lat="-37.754752" lon="-73.300775"><ele>455.0</ele></trkpt>
<trkpt lat="-37.755022" lon="-73.300665"><ele>455.0</ele></trkpt>
<trkpt lat="-37.755694" lon="-73.300705"><ele>455.0</ele></trkpt>
<trkpt lat="-37.756371" lon="-73.300551"><ele>429.0</ele></trkpt>
<trkpt lat="-37.757099" lon="-73.300527"><ele>429.0</ele></trkpt>
<trkpt lat="-37.757650" lon="-73.300702"><ele>429.0</ele></trkpt>
<trkpt lat="-37.757980" lon="-73.300685"><ele>429.0</ele></trkpt>
<trkpt lat="-37.758530" lon="-73.300555"><ele>392.0</ele></trkpt>
<trkpt lat="-37.759097" lon="-73.300089"><ele>392.0</ele></trkpt>
<trkpt lat="-37.759333" lon="-73.299645"><ele>440.0</ele></trkpt>
<trkpt lat="-37.759656" lon="-73.298601"><ele>440.0</ele></trkpt>
<trkpt lat="-37.759812" lon="-73.298585"><ele>440.0</ele></trkpt>
<trkpt lat="-37.759937" lon="-73.298912"><ele>440.0</ele></trkpt>
<trkpt lat="-37.759904" lon="-73.299548"><ele>440.0</ele></trkpt>
<trkpt lat="-37.759272" lon="-73.300865"><ele>392.0</ele></trkpt>
<trkpt lat="-37.758975" lon="-73.301277"><ele>392.0</ele></trkpt>
<trkpt lat="-37.758338" lon="-73.301695"><ele>392.0</ele></trkpt>
<trkpt lat="-37.756975" lon="-73.302012"><ele>429.0</ele></trkpt>
<trkpt lat="-37.756235" lon="-73.302013"><ele>455.0</ele></trkpt>
<trkpt lat="-37.756058" lon="-73.302089"><ele>357.0</ele></trkpt>
<trkpt lat="-37.756008" lon="-73.302240"><ele>357.0</ele></trkpt>
<trkpt lat="-37.756187" lon="-73.302392"><ele>357.0</ele></trkpt>
<trkpt lat="-37.756798" lon="-73.302303"><ele>326.0</ele></trkpt>
<trkpt lat="-37.757487" lon="-73.302402"><ele>326.0</ele></trkpt>
<trkpt lat="-37.758351" lon="-73.302411"><ele>305.0</ele></trkpt>
<trkpt lat="-37.758746" lon="-73.302345"><ele>305.0</ele></trkpt>
<trkpt lat="-37.759466" lon="-73.302019"><ele>392.0</ele></trkpt>
<trkpt lat="-37.759711" lon="-73.302022"><ele>392.0</ele></trkpt>
<trkpt lat="-37.759547" lon="-73.302344"><ele>305.0</ele></trkpt>
<trkpt lat="-37.758916" lon="-73.302753"><ele>305.0</ele></trkpt>
<trkpt lat="-37.758400" lon="-73.302950"><ele>305.0</ele></trkpt>
<trkpt lat="-37.757476" lon="-73.302981"><ele>326.0</ele></trkpt>
<trkpt lat="-37.756694" lon="-73.303528"><ele>326.0</ele></trkpt>
<trkpt lat="-37.756731" lon="-73.303635"><ele>326.0</ele></trkpt>
<trkpt lat="-37.756947" lon="-73.303656"><ele>326.0</ele></trkpt>
<trkpt lat="-37.757616" lon="-73.303401"><ele>326.0</ele></trkpt>
<trkpt lat="-37.758363" lon="-73.303699"><ele>305.0</ele></trkpt>
<trkpt lat="-37.758632" lon="-73.303713"><ele>305.0</ele></trkpt>
<trkpt lat="-37.759479" lon="-73.303539"><ele>305.0</ele></trkpt>
<trkpt lat="-37.760003" lon="-73.303311"><ele>305.0</ele></trkpt>
<trkpt lat="-37.760357" lon="-73.302798"><ele>305.0</ele></trkpt>
<trkpt lat="-37.760587" lon="-73.302632"><ele>354.0</ele></trkpt>
<trkpt lat="-37.760828" lon="-73.301938"><ele>316.0</ele></trkpt>
<trkpt lat="-37.761086" lon="-73.301701"><ele>316.0</ele></trkpt>
<trkpt lat="-37.761203" lon="-73.301713"><ele>316.0</ele></trkpt>
<trkpt lat="-37.761230" lon="-73.301894"><ele>316.0</ele></trkpt>
<trkpt lat="-37.760942" lon="-73.302380"><ele>354.0</ele></trkpt>
<trkpt lat="-37.760893" lon="-73.302729"><ele>354.0</ele></trkpt>
<trkpt lat="-37.760548" lon="-73.303089"><ele>354.0</ele></trkpt>
<trkpt lat="-37.760510" lon="-73.303534"><ele>354.0</ele></trkpt>
<trkpt lat="-37.759970" lon="-73.304273"><ele>283.0</ele></trkpt>
<trkpt lat="-37.760067" lon="-73.304558"><ele>283.0</ele></trkpt>
<trkpt lat="-37.760263" lon="-73.304636"><ele>283.0</ele></trkpt>
<trkpt lat="-37.760810" lon="-73.303914"><ele>354.0</ele></trkpt>
<trkpt lat="-37.760953" lon="-73.303909"><ele>354.0</ele></trkpt>
<trkpt lat="-37.761013" lon="-73.304102"><ele>354.0</ele></trkpt>
<trkpt lat="-37.760852" lon="-73.304872"><ele>367.0</ele></trkpt>
<trkpt lat="-37.761051" lon="-73.305485"><ele>367.0</ele></trkpt>
<trkpt lat="-37.761174" lon="-73.305593"><ele>367.0</ele></trkpt>
<trkpt lat="-37.761363" lon="-73.305415"><ele>367.0</ele></trkpt>
<trkpt lat="-37.761320" lon="-73.304813"><ele>367.0</ele></trkpt>
<trkpt lat="-37.761818" lon="-73.303175"><ele>354.0</ele></trkpt>
<trkpt lat="-37.762262" lon="-73.302501"><ele>354.0</ele></trkpt>
<trkpt lat="-37.762932" lon="-73.302156"><ele>444.0</ele></trkpt>
<trkpt lat="-37.763192" lon="-73.301571"><ele>404.0</ele></trkpt>
<trkpt lat="-37.763279" lon="-73.300909"><ele>404.0</ele></trkpt>
<trkpt lat="-37.763552" lon="-73.300285"><ele>404.0</ele></trkpt>
<trkpt lat="-37.763547" lon="-73.299406"><ele>408.0</ele></trkpt>
<trkpt lat="-37.763681" lon="-73.298828"><ele>408.0</ele></trkpt>
<trkpt lat="-37.763099" lon="-73.297925"><ele>408.0</ele></trkpt>
<trkpt lat="-37.762827" lon="-73.297342"><ele>433.0</ele></trkpt>
<trkpt lat="-37.762804" lon="-73.296894"><ele>433.0</ele></trkpt>
<trkpt lat="-37.762628" lon="-73.296522"><ele>433.0</ele></trkpt>
<trkpt lat="-37.762520" lon="-73.295872"><ele>433.0</ele></trkpt>
<trkpt lat="-37.762262" lon="-73.295614"><ele>427.0</ele></trkpt>
<trkpt lat="-37.761805" lon="-73.295601"><ele>427.0</ele></trkpt>
<trkpt lat="-37.761605" lon="-73.295519"><ele>427.0</ele></trkpt>
<trkpt lat="-37.761301" lon="-73.295140"><ele>427.0</ele></trkpt>
<trkpt lat="-37.761273" lon="-73.294652"><ele>427.0</ele></trkpt>
<trkpt lat="-37.761073" lon="-73.294148"><ele>427.0</ele></trkpt>
<trkpt lat="-37.760982" lon="-73.293382"><ele>450.0</ele></trkpt>
<trkpt lat="-37.761074" lon="-73.293147"><ele>450.0</ele></trkpt>
<trkpt lat="-37.761228" lon="-73.293204"><ele>450.0</ele></trkpt>
<trkpt lat="-37.761387" lon="-73.293463"><ele>450.0</ele></trkpt>
<trkpt lat="-37.761401" lon="-73.293317"><ele>450.0</ele></trkpt>
<trkpt lat="-37.760959" lon="-73.292398"><ele>450.0</ele></trkpt>
<trkpt lat="-37.761002" lon="-73.292026"><ele>450.0</ele></trkpt>
<trkpt lat="-37.760916" lon="-73.291481"><ele>469.0</ele></trkpt>
<trkpt lat="-37.760999" lon="-73.291174"><ele>469.0</ele></trkpt>
<trkpt lat="-37.760783" lon="-73.291067"><ele>469.0</ele></trkpt>
<trkpt lat="-37.760302" lon="-73.291043"><ele>420.0</ele></trkpt>
<trkpt lat="-37.760095" lon="-73.290907"><ele>420.0</ele></trkpt>
<trkpt lat="-37.760018" lon="-73.290715"><ele>420.0</ele></trkpt>
<trkpt lat="-37.760024" lon="-73.290386"><ele>420.0</ele></trkpt>
<trkpt lat="-37.759768" lon="-73.290134"><ele>420.0</ele></trkpt>
<trkpt lat="-37.759552" lon="-73.289688"><ele>420.0</ele></trkpt>
<trkpt lat="-37.759497" lon="-73.289414"><ele>453.0</ele></trkpt>
<trkpt lat="-37.759699" lon="-73.288806"><ele>453.0</ele></trkpt>
<trkpt lat="-37.759592" lon="-73.288524"><ele>453.0</ele></trkpt>
<trkpt lat="-37.759709" lon="-73.288147"><ele>453.0</ele></trkpt>
<trkpt lat="-37.759652" lon="-73.287788"><ele>453.0</ele></trkpt>
<trkpt lat="-37.759320" lon="-73.287122"><ele>519.0</ele></trkpt>
<trkpt lat="-37.759288" lon="-73.286785"><ele>519.0</ele></trkpt>
<trkpt lat="-37.759519" lon="-73.286799"><ele>519.0</ele></trkpt>
<trkpt lat="-37.759841" lon="-73.287106"><ele>519.0</ele></trkpt>
<trkpt lat="-37.760105" lon="-73.287171"><ele>519.0</ele></trkpt>
<trkpt lat="-37.760341" lon="-73.287437"><ele>519.0</ele></trkpt>
<trkpt lat="-37.760449" lon="-73.287373"><ele>582.0</ele></trkpt>
<trkpt lat="-37.760623" lon="-73.287022"><ele>582.0</ele></trkpt>
<trkpt lat="-37.760975" lon="-73.286812"><ele>582.0</ele></trkpt>
<trkpt lat="-37.761083" lon="-73.286868"><ele>582.0</ele></trkpt>
<trkpt lat="-37.761136" lon="-73.287173"><ele>582.0</ele></trkpt>
<trkpt lat="-37.761238" lon="-73.287296"><ele>582.0</ele></trkpt>
<trkpt lat="-37.761633" lon="-73.287341"><ele>582.0</ele></trkpt>
<trkpt lat="-37.762066" lon="-73.287213"><ele>582.0</ele></trkpt>
<trkpt lat="-37.762267" lon="-73.287862"><ele>530.0</ele></trkpt>
<trkpt lat="-37.762573" lon="-73.288133"><ele>615.0</ele></trkpt>
<trkpt lat="-37.762926" lon="-73.288889"><ele>615.0</ele></trkpt>
<trkpt lat="-37.763106" lon="-73.289042"><ele>615.0</ele></trkpt>
<trkpt lat="-37.763461" lon="-73.289103"><ele>615.0</ele></trkpt>
<trkpt lat="-37.763969" lon="-73.289010"><ele>615.0</ele></trkpt>
<trkpt lat="-37.764150" lon="-73.288835"><ele>615.0</ele></trkpt>
<trkpt lat="-37.764357" lon="-73.288390"><ele>615.0</ele></trkpt>
<trkpt lat="-37.764519" lon="-73.288282"><ele>615.0</ele></trkpt>
<trkpt lat="-37.764629" lon="-73.288314"><ele>654.0</ele></trkpt>
<trkpt lat="-37.764773" lon="-73.288903"><ele>654.0</ele></trkpt>
<trkpt lat="-37.765020" lon="-73.289297"><ele>654.0</ele></trkpt>
<trkpt lat="-37.765453" lon="-73.289507"><ele>654.0</ele></trkpt>
<trkpt lat="-37.765534" lon="-73.289645"><ele>628.0</ele></trkpt>
<trkpt lat="-37.765451" lon="-73.290628"><ele>628.0</ele></trkpt>
<trkpt lat="-37.765217" lon="-73.291252"><ele>628.0</ele></trkpt>
<trkpt lat="-37.765165" lon="-73.291873"><ele>590.0</ele></trkpt>
<trkpt lat="-37.765262" lon="-73.292379"><ele>590.0</ele></trkpt>
<trkpt lat="-37.765652" lon="-73.292842"><ele>590.0</ele></trkpt>
<trkpt lat="-37.765545" lon="-73.293172"><ele>590.0</ele></trkpt>
<trkpt lat="-37.765488" lon="-73.294204"><ele>561.0</ele></trkpt>
<trkpt lat="-37.765984" lon="-73.294751"><ele>561.0</ele></trkpt>
<trkpt lat="-37.766341" lon="-73.295480"><ele>561.0</ele></trkpt>
<trkpt lat="-37.766435" lon="-73.295971"><ele>510.0</ele></trkpt>
<trkpt lat="-37.766348" lon="-73.296692"><ele>510.0</ele></trkpt>
<trkpt lat="-37.766452" lon="-73.297052"><ele>510.0</ele></trkpt>
<trkpt lat="-37.766922" lon="-73.297638"><ele>548.0</ele></trkpt>
<trkpt lat="-37.767481" lon="-73.298637"><ele>576.0</ele></trkpt>
<trkpt lat="-37.767567" lon="-73.299168"><ele>576.0</ele></trkpt>
<trkpt lat="-37.767356" lon="-73.299869"><ele>576.0</ele></trkpt>
<trkpt lat="-37.767330" lon="-73.300389"><ele>558.0</ele></trkpt>
<trkpt lat="-37.767407" lon="-73.300818"><ele>558.0</ele></trkpt>
<trkpt lat="-37.767598" lon="-73.301197"><ele>558.0</ele></trkpt>
<trkpt lat="-37.767970" lon="-73.301546"><ele>558.0</ele></trkpt>
<trkpt lat="-37.768527" lon="-73.302402"><ele>506.0</ele></trkpt>
<trkpt lat="-37.769711" lon="-73.302378"><ele>479.0</ele></trkpt>
<trkpt lat="-37.770743" lon="-73.302477"><ele>479.0</ele></trkpt>
<trkpt lat="-37.771513" lon="-73.303183"><ele>458.0</ele></trkpt>
<trkpt lat="-37.771891" lon="-73.303390"><ele>458.0</ele></trkpt>
<trkpt lat="-37.773092" lon="-73.303786"><ele>423.0</ele></trkpt>
<trkpt lat="-37.774086" lon="-73.303977"><ele>423.0</ele></trkpt>
<trkpt lat="-37.774725" lon="-73.304516"><ele>396.0</ele></trkpt>
<trkpt lat="-37.776180" lon="-73.305453"><ele>403.0</ele></trkpt>
<trkpt lat="-37.776490" lon="-73.305866"><ele>403.0</ele></trkpt>
<trkpt lat="-37.776859" lon="-73.307218"><ele>382.0</ele></trkpt>
<trkpt lat="-37.777850" lon="-73.308887"><ele>361.0</ele></trkpt>
<trkpt lat="-37.778797" lon="-73.310290"><ele>361.0</ele></trkpt>
<trkpt lat="-37.779495" lon="-73.310824"><ele>369.0</ele></trkpt>
<trkpt lat="-37.781426" lon="-73.312861"><ele>357.0</ele></trkpt>
<trkpt lat="-37.782645" lon="-73.313899"><ele>357.0</ele></trkpt>
<trkpt lat="-37.782866" lon="-73.314214"><ele>357.0</ele></trkpt>
<trkpt lat="-37.783369" lon="-73.315361"><ele>362.0</ele></trkpt>
<trkpt lat="-37.784289" lon="-73.315899"><ele>362.0</ele></trkpt>
<trkpt lat="-37.785081" lon="-73.316831"><ele>334.0</ele></trkpt>
<trkpt lat="-37.786372" lon="-73.320320"><ele>345.0</ele></trkpt>
<trkpt lat="-37.787164" lon="-73.321035"><ele>336.0</ele></trkpt>
<trkpt lat="-37.787350" lon="-73.321329"><ele>336.0</ele></trkpt>
<trkpt lat="-37.787523" lon="-73.321896"><ele>319.0</ele></trkpt>
<trkpt lat="-37.787609" lon="-73.322987"><ele>334.0</ele></trkpt>
<trkpt lat="-37.787519" lon="-73.323119"><ele>334.0</ele></trkpt>
<trkpt lat="-37.787105" lon="-73.323343"><ele>318.0</ele></trkpt>
<trkpt lat="-37.786856" lon="-73.323837"><ele>318.0</ele></trkpt>
<trkpt lat="-37.786677" lon="-73.323784"><ele>318.0</ele></trkpt>
<trkpt lat="-37.786568" lon="-73.323682"><ele>318.0</ele></trkpt>
<trkpt lat="-37.786476" lon="-73.323160"><ele>318.0</ele></trkpt>
<trkpt lat="-37.786210" lon="-73.323032"><ele>318.0</ele></trkpt>
<trkpt lat="-37.785966" lon="-73.323112"><ele>318.0</ele></trkpt>
<trkpt lat="-37.785865" lon="-73.322608"><ele>336.0</ele></trkpt>
<trkpt lat="-37.785688" lon="-73.322393"><ele>336.0</ele></trkpt>
<trkpt lat="-37.785379" lon="-73.322120"><ele>269.0</ele></trkpt>
<trkpt lat="-37.785091" lon="-73.322091"><ele>269.0</ele></trkpt>
<trkpt lat="-37.784596" lon="-73.322638"><ele>269.0</ele></trkpt>
<trkpt lat="-37.784424" lon="-73.323080"><ele>256.0</ele></trkpt>
<trkpt lat="-37.784539" lon="-73.323476"><ele>256.0</ele></trkpt>
<trkpt lat="-37.784967" lon="-73.323966"><ele>256.0</ele></trkpt>
<trkpt lat="-37.784862" lon="-73.324904"><ele>256.0</ele></trkpt>
<trkpt lat="-37.784305" lon="-73.325124"><ele>230.0</ele></trkpt>
<trkpt lat="-37.783911" lon="-73.325510"><ele>230.0</ele></trkpt>
<trkpt lat="-37.783450" lon="-73.325727"><ele>230.0</ele></trkpt>
<trkpt lat="-37.783291" lon="-73.326097"><ele>190.0</ele></trkpt>
<trkpt lat="-37.782988" lon="-73.326405"><ele>190.0</ele></trkpt>
<trkpt lat="-37.782934" lon="-73.326623"><ele>190.0</ele></trkpt>
<trkpt lat="-37.784192" lon="-73.327265"><ele>162.0</ele></trkpt>
<trkpt lat="-37.784551" lon="-73.327243"><ele>162.0</ele></trkpt>
<trkpt lat="-37.784914" lon="-73.327116"><ele>162.0</ele></trkpt>
<trkpt lat="-37.785279" lon="-73.327571"><ele>162.0</ele></trkpt>
<trkpt lat="-37.785556" lon="-73.327712"><ele>196.0</ele></trkpt>
<trkpt lat="-37.785801" lon="-73.327673"><ele>196.0</ele></trkpt>
<trkpt lat="-37.785846" lon="-73.327949"><ele>196.0</ele></trkpt>
<trkpt lat="-37.786146" lon="-73.328296"><ele>196.0</ele></trkpt>
<trkpt lat="-37.786868" lon="-73.328624"><ele>196.0</ele></trkpt>
<trkpt lat="-37.786928" lon="-73.329212"><ele>162.0</ele></trkpt>
<trkpt lat="-37.787603" lon="-73.329385"><ele>226.0</ele></trkpt>
<trkpt lat="-37.787217" lon="-73.330112"><ele>162.0</ele></trkpt>
<trkpt lat="-37.787215" lon="-73.330284"><ele>162.0</ele></trkpt>
<trkpt lat="-37.787695" lon="-73.330823"><ele>226.0</ele></trkpt>
<trkpt lat="-37.788210" lon="-73.331654"><ele>192.0</ele></trkpt>
<trkpt lat="-37.788752" lon="-73.332256"><ele>192.0</ele></trkpt>
<trkpt lat="-37.789237" lon="-73.332994"><ele>192.0</ele></trkpt>
<trkpt lat="-37.789500" lon="-73.334017"><ele>151.0</ele></trkpt>
<trkpt lat="-37.789609" lon="-73.334086"><ele>195.0</ele></trkpt>
<trkpt lat="-37.789981" lon="-73.333948"><ele>195.0</ele></trkpt>
<trkpt lat="-37.790122" lon="-73.334331"><ele>195.0</ele></trkpt>
<trkpt lat="-37.790375" lon="-73.334560"><ele>195.0</ele></trkpt>
<trkpt lat="-37.790321" lon="-73.334818"><ele>195.0</ele></trkpt>
<trkpt lat="-37.790075" lon="-73.335005"><ele>195.0</ele></trkpt>
<trkpt lat="-37.790064" lon="-73.335242"><ele>195.0</ele></trkpt>
<trkpt lat="-37.790410" lon="-73.335687"><ele>158.0</ele></trkpt>
<trkpt lat="-37.790853" lon="-73.335875"><ele>158.0</ele></trkpt>
<trkpt lat="-37.790992" lon="-73.336205"><ele>158.0</ele></trkpt>
<trkpt lat="-37.790729" lon="-73.336708"><ele>158.0</ele></trkpt>
<trkpt lat="-37.790918" lon="-73.337460"><ele>158.0</ele></trkpt>
<trkpt lat="-37.790727" lon="-73.338094"><ele>139.0</ele></trkpt>
<trkpt lat="-37.791352" lon="-73.338508"><ele>139.0</ele></trkpt>
<trkpt lat="-37.791614" lon="-73.338887"><ele>139.0</ele></trkpt>
<trkpt lat="-37.792827" lon="-73.339397"><ele>201.0</ele></trkpt>
<trkpt lat="-37.792783" lon="-73.338982"><ele>201.0</ele></trkpt>
<trkpt lat="-37.792188" lon="-73.338019"><ele>201.0</ele></trkpt>
<trkpt lat="-37.792067" lon="-73.337386"><ele>233.0</ele></trkpt>
<trkpt lat="-37.791994" lon="-73.336197"><ele>233.0</ele></trkpt>
<trkpt lat="-37.791883" lon="-73.335796"><ele>233.0</ele></trkpt>
<trkpt lat="-37.791610" lon="-73.335528"><ele>158.0</ele></trkpt>
<trkpt lat="-37.791526" lon="-73.335295"><ele>195.0</ele></trkpt>
<trkpt lat="-37.791521" lon="-73.334728"><ele>195.0</ele></trkpt>
<trkpt lat="-37.791166" lon="-73.334327"><ele>195.0</ele></trkpt>
<trkpt lat="-37.791109" lon="-73.334157"><ele>195.0</ele></trkpt>
<trkpt lat="-37.791094" lon="-73.333634"><ele>195.0</ele></trkpt>
<trkpt lat="-37.791420" lon="-73.332828"><ele>223.0</ele></trkpt>
<trkpt lat="-37.791463" lon="-73.332158"><ele>223.0</ele></trkpt>
<trkpt lat="-37.791235" lon="-73.331873"><ele>223.0</ele></trkpt>
<trkpt lat="-37.791061" lon="-73.331791"><ele>223.0</ele></trkpt>
<trkpt lat="-37.790681" lon="-73.331783"><ele>223.0</ele></trkpt>
<trkpt lat="-37.790366" lon="-73.331641"><ele>223.0</ele></trkpt>
<trkpt lat="-37.790140" lon="-73.331347"><ele>223.0</ele></trkpt>
<trkpt lat="-37.789614" lon="-73.329770"><ele>260.0</ele></trkpt>
<trkpt lat="-37.789688" lon="-73.328797"><ele>277.0</ele></trkpt>
<trkpt lat="-37.788806" lon="-73.326866"><ele>287.0</ele></trkpt>
<trkpt lat="-37.788472" lon="-73.326420"><ele>287.0</ele></trkpt>
<trkpt lat="-37.788497" lon="-73.326280"><ele>287.0</ele></trkpt>
<trkpt lat="-37.788647" lon="-73.326217"><ele>287.0</ele></trkpt>
<trkpt lat="-37.788937" lon="-73.326296"><ele>287.0</ele></trkpt>
<trkpt lat="-37.790098" lon="-73.327312"><ele>277.0</ele></trkpt>
<trkpt lat="-37.790296" lon="-73.327384"><ele>277.0</ele></trkpt>
<trkpt lat="-37.790665" lon="-73.327364"><ele>277.0</ele></trkpt>
<trkpt lat="-37.791004" lon="-73.327496"><ele>277.0</ele></trkpt>
<trkpt lat="-37.791590" lon="-73.328179"><ele>277.0</ele></trkpt>
<trkpt lat="-37.792122" lon="-73.328513"><ele>312.0</ele></trkpt>
<trkpt lat="-37.792700" lon="-73.329296"><ele>321.0</ele></trkpt>
<trkpt lat="-37.792826" lon="-73.329244"><ele>321.0</ele></trkpt>
<trkpt lat="-37.792814" lon="-73.329020"><ele>312.0</ele></trkpt>
<trkpt lat="-37.792642" lon="-73.328224"><ele>312.0</ele></trkpt>
<trkpt lat="-37.792268" lon="-73.327453"><ele>312.0</ele></trkpt>
<trkpt lat="-37.790397" lon="-73.325631"><ele>330.0</ele></trkpt>
<trkpt lat="-37.789206" lon="-73.324929"><ele>334.0</ele></trkpt>
<trkpt lat="-37.789188" lon="-73.324768"><ele>334.0</ele></trkpt>
<trkpt lat="-37.789447" lon="-73.324459"><ele>334.0</ele></trkpt>
<trkpt lat="-37.789620" lon="-73.324374"><ele>299.0</ele></trkpt>
<trkpt lat="-37.790286" lon="-73.324383"><ele>299.0</ele></trkpt>
<trkpt lat="-37.790948" lon="-73.324252"><ele>299.0</ele></trkpt>
<trkpt lat="-37.791402" lon="-73.324432"><ele>299.0</ele></trkpt>
<trkpt lat="-37.791943" lon="-73.324827"><ele>252.0</ele></trkpt>
<trkpt lat="-37.793089" lon="-73.326213"><ele>287.0</ele></trkpt>
<trkpt lat="-37.794489" lon="-73.327483"><ele>252.0</ele></trkpt>
<trkpt lat="-37.795670" lon="-73.329891"><ele>268.0</ele></trkpt>
<trkpt lat="-37.796069" lon="-73.330959"><ele>199.0</ele></trkpt>
<trkpt lat="-37.796367" lon="-73.331234"><ele>199.0</ele></trkpt>
<trkpt lat="-37.797124" lon="-73.331652"><ele>223.0</ele></trkpt>
<trkpt lat="-37.797785" lon="-73.332171"><ele>223.0</ele></trkpt>
<trkpt lat="-37.797999" lon="-73.332243"><ele>185.0</ele></trkpt>
<trkpt lat="-37.798190" lon="-73.332168"><ele>185.0</ele></trkpt>
<trkpt lat="-37.798855" lon="-73.331205"><ele>172.0</ele></trkpt>
<trkpt lat="-37.799430" lon="-73.331011"><ele>172.0</ele></trkpt>
<trkpt lat="-37.800034" lon="-73.330686"><ele>130.0</ele></trkpt>
<trkpt lat="-37.800480" lon="-73.330611"><ele>130.0</ele></trkpt>
<trkpt lat="-37.800871" lon="-73.331070"><ele>130.0</ele></trkpt>
<trkpt lat="-37.800980" lon="-73.331555"><ele>132.0</ele></trkpt>
<trkpt lat="-37.800749" lon="-73.332631"><ele>132.0</ele></trkpt>
<trkpt lat="-37.799626" lon="-73.333228"><ele>185.0</ele></trkpt>
<trkpt lat="-37.799258" lon="-73.333624"><ele>111.0</ele></trkpt>
<trkpt lat="-37.798564" lon="-73.334077"><ele>111.0</ele></trkpt>
<trkpt lat="-37.797652" lon="-73.335268"><ele>192.0</ele></trkpt>
<trkpt lat="-37.797629" lon="-73.335587"><ele>171.0</ele></trkpt>
<trkpt lat="-37.797230" lon="-73.336372"><ele>171.0</ele></trkpt>
<trkpt lat="-37.797167" lon="-73.336797"><ele>171.0</ele></trkpt>
<trkpt lat="-37.797199" lon="-73.337077"><ele>171.0</ele></trkpt>
<trkpt lat="-37.797566" lon="-73.337574"><ele>150.0</ele></trkpt>
<trkpt lat="-37.797647" lon="-73.337885"><ele>150.0</ele></trkpt>
<trkpt lat="-37.797564" lon="-73.337960"><ele>150.0</ele></trkpt>
<trkpt lat="-37.797274" lon="-73.337975"><ele>150.0</ele></trkpt>
<trkpt lat="-37.797039" lon="-73.338467"><ele>150.0</ele></trkpt>
<trkpt lat="-37.796627" lon="-73.338718"><ele>150.0</ele></trkpt>
<trkpt lat="-37.796501" lon="-73.339932"><ele>132.0</ele></trkpt>
<trkpt lat="-37.796299" lon="-73.340488"><ele>132.0</ele></trkpt>
<trkpt lat="-37.796204" lon="-73.340541"><ele>132.0</ele></trkpt>
<trkpt lat="-37.796204" lon="-73.340009"><ele>132.0</ele></trkpt>
<trkpt lat="-37.795771" lon="-73.339082"><ele>206.0</ele></trkpt>
<trkpt lat="-37.795103" lon="-73.340078"><ele>184.0</ele></trkpt>
<trkpt lat="-37.794834" lon="-73.340710"><ele>184.0</ele></trkpt>
<trkpt lat="-37.793527" lon="-73.342071"><ele>184.0</ele></trkpt>
<trkpt lat="-37.793304" lon="-73.342470"><ele>184.0</ele></trkpt>
<trkpt lat="-37.793213" lon="-73.342511"><ele>184.0</ele></trkpt>
<trkpt lat="-37.793173" lon="-73.342229"><ele>184.0</ele></trkpt>
<trkpt lat="-37.793054" lon="-73.342111"><ele>184.0</ele></trkpt>
<trkpt lat="-37.792886" lon="-73.342531"><ele>184.0</ele></trkpt>
<trkpt lat="-37.792449" lon="-73.343133"><ele>184.0</ele></trkpt>
<trkpt lat="-37.792684" lon="-73.342282"><ele>184.0</ele></trkpt>
<trkpt lat="-37.792661" lon="-73.341988"><ele>184.0</ele></trkpt>
<trkpt lat="-37.792464" lon="-73.342423"><ele>184.0</ele></trkpt>
<trkpt lat="-37.792540" lon="-73.342323"><ele>184.0</ele></trkpt>
<trkpt lat="-37.792575" lon="-73.342367"><ele>184.0</ele></trkpt>
<trkpt lat="-37.792396" lon="-73.342671"><ele>184.0</ele></trkpt>
<trkpt lat="-37.792331" lon="-73.342736"><ele>184.0</ele></trkpt>
<trkpt lat="-37.792160" lon="-73.342645"><ele>184.0</ele></trkpt>
<trkpt lat="-37.792063" lon="-73.342719"><ele>184.0</ele></trkpt>
<trkpt lat="-37.792085" lon="-73.342956"><ele>184.0</ele></trkpt>
<trkpt lat="-37.791992" lon="-73.343309"><ele>184.0</ele></trkpt>
<trkpt lat="-37.791819" lon="-73.343542"><ele>184.0</ele></trkpt>
<trkpt lat="-37.791644" lon="-73.344075"><ele>143.0</ele></trkpt>
<trkpt lat="-37.791488" lon="-73.344012"><ele>143.0</ele></trkpt>
<trkpt lat="-37.791352" lon="-73.343557"><ele>126.0</ele></trkpt>
<trkpt lat="-37.791123" lon="-73.343752"><ele>143.0</ele></trkpt>
<trkpt lat="-37.791030" lon="-73.343953"><ele>143.0</ele></trkpt>
<trkpt lat="-37.790866" lon="-73.345240"><ele>143.0</ele></trkpt>
<trkpt lat="-37.790484" lon="-73.345955"><ele>156.0</ele></trkpt>
<trkpt lat="-37.790046" lon="-73.347269"><ele>156.0</ele></trkpt>
<trkpt lat="-37.790332" lon="-73.347950"><ele>115.0</ele></trkpt>
<trkpt lat="-37.790637" lon="-73.348084"><ele>115.0</ele></trkpt>
<trkpt lat="-37.791831" lon="-73.347564"><ele>131.0</ele></trkpt>
<trkpt lat="-37.792351" lon="-73.347130"><ele>131.0</ele></trkpt>
<trkpt lat="-37.794120" lon="-73.344661"><ele>127.0</ele></trkpt>
<trkpt lat="-37.795242" lon="-73.343368"><ele>155.0</ele></trkpt>
<trkpt lat="-37.795365" lon="-73.343542"><ele>155.0</ele></trkpt>
<trkpt lat="-37.795498" lon="-73.343515"><ele>155.0</ele></trkpt>
<trkpt lat="-37.795910" lon="-73.344077"><ele>106.0</ele></trkpt>
<trkpt lat="-37.795889" lon="-73.344453"><ele>106.0</ele></trkpt>
<trkpt lat="-37.796171" lon="-73.344734"><ele>106.0</ele></trkpt>
<trkpt lat="-37.796281" lon="-73.344703"><ele>106.0</ele></trkpt>
<trkpt lat="-37.796537" lon="-73.344333"><ele>106.0</ele></trkpt>
<trkpt lat="-37.796584" lon="-73.344008"><ele>106.0</ele></trkpt>
<trkpt lat="-37.796084" lon="-73.343634"><ele>120.0</ele></trkpt>
<trkpt lat="-37.795848" lon="-73.343171"><ele>120.0</ele></trkpt>
<trkpt lat="-37.795505" lon="-73.342846"><ele>155.0</ele></trkpt>
<trkpt lat="-37.795519" lon="-73.342690"><ele>155.0</ele></trkpt>
<trkpt lat="-37.796008" lon="-73.341888"><ele>120.0</ele></trkpt>
<trkpt lat="-37.796069" lon="-73.341859"><ele>120.0</ele></trkpt>
<trkpt lat="-37.796362" lon="-73.342301"><ele>120.0</ele></trkpt>
<trkpt lat="-37.796969" lon="-73.342826"><ele>120.0</ele></trkpt>
<trkpt lat="-37.796860" lon="-73.343081"><ele>120.0</ele></trkpt>
<trkpt lat="-37.796718" lon="-73.343201"><ele>120.0</ele></trkpt>
<trkpt lat="-37.796749" lon="-73.343380"><ele>120.0</ele></trkpt>
<trkpt lat="-37.796679" lon="-73.343536"><ele>120.0</ele></trkpt>
<trkpt lat="-37.796554" lon="-73.343628"><ele>120.0</ele></trkpt>
<trkpt lat="-37.796703" lon="-73.343740"><ele>120.0</ele></trkpt>
<trkpt lat="-37.796770" lon="-73.343983"><ele>106.0</ele></trkpt>
<trkpt lat="-37.796612" lon="-73.344359"><ele>106.0</ele></trkpt>
<trkpt lat="-37.795611" lon="-73.345443"><ele>127.0</ele></trkpt>
<trkpt lat="-37.795055" lon="-73.345868"><ele>108.0</ele></trkpt>
<trkpt lat="-37.794342" lon="-73.347174"><ele>108.0</ele></trkpt>
<trkpt lat="-37.794032" lon="-73.347328"><ele>108.0</ele></trkpt>
<trkpt lat="-37.793729" lon="-73.346804"><ele>131.0</ele></trkpt>
<trkpt lat="-37.793332" lon="-73.346477"><ele>131.0</ele></trkpt>
<trkpt lat="-37.793096" lon="-73.346787"><ele>131.0</ele></trkpt>
<trkpt lat="-37.792911" lon="-73.347345"><ele>131.0</ele></trkpt>
<trkpt lat="-37.792506" lon="-73.348050"><ele>104.0</ele></trkpt>
<trkpt lat="-37.791993" lon="-73.348334"><ele>104.0</ele></trkpt>
<trkpt lat="-37.791467" lon="-73.348429"><ele>115.0</ele></trkpt>
<trkpt lat="-37.791023" lon="-73.348325"><ele>115.0</ele></trkpt>
<trkpt lat="-37.790671" lon="-73.348702"><ele>115.0</ele></trkpt>
<trkpt lat="-37.789892" lon="-73.349233"><ele>115.0</ele></trkpt>
<trkpt lat="-37.789994" lon="-73.349346"><ele>115.0</ele></trkpt>
<trkpt lat="-37.790859" lon="-73.349523"><ele>115.0</ele></trkpt>
<trkpt lat="-37.791050" lon="-73.349716"><ele>115.0</ele></trkpt>
<trkpt lat="-37.791189" lon="-73.350005"><ele>96.0</ele></trkpt>
<trkpt lat="-37.791994" lon="-73.353314"><ele>85.0</ele></trkpt>
<trkpt lat="-37.792117" lon="-73.353425"><ele>85.0</ele></trkpt>
<trkpt lat="-37.792638" lon="-73.353481"><ele>85.0</ele></trkpt>
<trkpt lat="-37.792788" lon="-73.353706"><ele>85.0</ele></trkpt>
<trkpt lat="-37.792750" lon="-73.354741"><ele>85.0</ele></trkpt>
<trkpt lat="-37.792859" lon="-73.355108"><ele>85.0</ele></trkpt>
<trkpt lat="-37.792769" lon="-73.357223"><ele>87.0</ele></trkpt>
<trkpt lat="-37.792537" lon="-73.358612"><ele>84.0</ele></trkpt>
</trkseg></trk></gpx>