<?xml version='1.0' encoding='UTF-8'?>
<gpx xmlns="http://www.topografix.com/GPX/1/1" version="1.1" creator="Bosque Abierto MTB">
  <trk>
    <name>Parque Collico</name>
    <trkseg>
      <trkpt lat="-39.81894165427713" lon="-73.20263139853031"><ele>0.0</ele></trkpt>
      <trkpt lat="-39.81916202623184" lon="-73.20107286117633"><ele>0.0</ele></trkpt>
      <trkpt lat="-39.81900861312297" lon="-73.19986785191425"><ele>0.0</ele></trkpt>
      <trkpt lat="-39.81837654414196" lon="-73.19847279451125"><ele>0.0</ele></trkpt>
      <trkpt lat="-39.81851656939355" lon="-73.1978215971931"><ele>0.0</ele></trkpt>
      <trkpt lat="-39.81822950503773" lon="-73.1974965517631"><ele>0.0</ele></trkpt>
      <trkpt lat="-39.81770738014082" lon="-73.1974392566305"><ele>0.0</ele></trkpt>
      <trkpt lat="-39.81761517078522" lon="-73.1972617256754"><ele>0.0</ele></trkpt>
      <trkpt lat="-39.81757043823014" lon="-73.19674983954704"><ele>0.0</ele></trkpt>
      <trkpt lat="-39.81759823141364" lon="-73.19651286953027"><ele>0.0</ele></trkpt>
      <trkpt lat="-39.8181092750735" lon="-73.19552576079657"><ele>0.0</ele></trkpt>
      <trkpt lat="-39.81882301178481" lon="-73.19455798293762"><ele>0.0</ele></trkpt>
      <trkpt lat="-39.8188795249599" lon="-73.19437732686906"><ele>0.0</ele></trkpt>
      <trkpt lat="-39.81876960713244" lon="-73.19398051747739"><ele>0.0</ele></trkpt>
      <trkpt lat="-39.81820188617999" lon="-73.19347236896816"><ele>0.0</ele></trkpt>
      <trkpt lat="-39.81805237666588" lon="-73.19318984726208"><ele>0.0</ele></trkpt>
      <trkpt lat="-39.81801551421792" lon="-73.19256025742442"><ele>0.0</ele></trkpt>
      <trkpt lat="-39.81811858480289" lon="-73.19068645839661"><ele>0.0</ele></trkpt>
      <trkpt lat="-39.8183758488205" lon="-73.19015237721739"><ele>0.0</ele></trkpt>
      <trkpt lat="-39.81844600976851" lon="-73.18978422351609"><ele>0.0</ele></trkpt>
      <trkpt lat="-39.81833689527097" lon="-73.1894307621472"><ele>0.0</ele></trkpt>
      <trkpt lat="-39.81772431010248" lon="-73.18870536490867"><ele>0.0</ele></trkpt>
      <trkpt lat="-39.81710213089347" lon="-73.18770222929794"><ele>0.0</ele></trkpt>
      <trkpt lat="-39.81660204061538" lon="-73.1866570705588"><ele>0.0</ele></trkpt>
      <trkpt lat="-39.81651040559999" lon="-73.18561992040948"><ele>0.0</ele></trkpt>
      <trkpt lat="-39.81673213987719" lon="-73.18509586468981"><ele>0.0</ele></trkpt>
      <trkpt lat="-39.81672896785602" lon="-73.18466446805269"><ele>0.0</ele></trkpt>
      <trkpt lat="-39.81705186130478" lon="-73.1841741161778"><ele>0.0</ele></trkpt>
      <trkpt lat="-39.81693015413622" lon="-73.18372297606966"><ele>0.0</ele></trkpt>
      <trkpt lat="-39.81700841193964" lon="-73.18345190285798"><ele>0.0</ele></trkpt>
      <trkpt lat="-39.81744484147397" lon="-73.18314233007239"><ele>0.0</ele></trkpt>
      <trkpt lat="-39.81818782882469" lon="-73.18293058249363"><ele>0.0</ele></trkpt>
      <trkpt lat="-39.81849671459028" lon="-73.18266883007887"><ele>0.0</ele></trkpt>
      <trkpt lat="-39.81858490136808" lon="-73.18248341801525"><ele>0.0</ele></trkpt>
      <trkpt lat="-39.81886686500862" lon="-73.18240230907409"><ele>0.0</ele></trkpt>
      <trkpt lat="-39.81919690974029" lon="-73.18202652289688"><ele>0.0</ele></trkpt>
      <trkpt lat="-39.81954854376171" lon="-73.18179533590117"><ele>0.0</ele></trkpt>
      <trkpt lat="-39.81980653423171" lon="-73.18182362805454"><ele>0.0</ele></trkpt>
      <trkpt lat="-39.82020137359697" lon="-73.18159185288745"><ele>0.0</ele></trkpt>
      <trkpt lat="-39.82086079872365" lon="-73.18167362388186"><ele>0.0</ele></trkpt>
      <trkpt lat="-39.82110524172212" lon="-73.18149365313893"><ele>0.0</ele></trkpt>
      <trkpt lat="-39.82123979463948" lon="-73.18091162680962"><ele>0.0</ele></trkpt>
      <trkpt lat="-39.82102995751531" lon="-73.18057517140548"><ele>0.0</ele></trkpt>
      <trkpt lat="-39.82083833121696" lon="-73.1806153707086"><ele>0.0</ele></trkpt>
      <trkpt lat="-39.82086786740637" lon="-73.18040874192371"><ele>0.0</ele></trkpt>
      <trkpt lat="-39.82078225180616" lon="-73.18036155506759"><ele>0.0</ele></trkpt>
      <trkpt lat="-39.82093554550752" lon="-73.1799046106375"><ele>0.0</ele></trkpt>
      <trkpt lat="-39.82123477128727" lon="-73.17974932376791"><ele>0.0</ele></trkpt>
      <trkpt lat="-39.82126571613599" lon="-73.17936550469389"><ele>0.0</ele></trkpt>
      <trkpt lat="-39.82113254595805" lon="-73.1793439457956"><ele>0.0</ele></trkpt>
      <trkpt lat="-39.82119780846154" lon="-73.17901747674199"><ele>0.0</ele></trkpt>
      <trkpt lat="-39.82108415108561" lon="-73.17900468025388"><ele>0.0</ele></trkpt>
      <trkpt lat="-39.82100422061443" lon="-73.17881693322424"><ele>0.0</ele></trkpt>
      <trkpt lat="-39.82108088033251" lon="-73.1786839434465"><ele>0.0</ele></trkpt>
      <trkpt lat="-39.82104884444207" lon="-73.178564793198"><ele>0.0</ele></trkpt>
      <trkpt lat="-39.82085365627912" lon="-73.17835746381014"><ele>0.0</ele></trkpt>
      <trkpt lat="-39.82093726756414" lon="-73.17818837716638"><ele>0.0</ele></trkpt>
      <trkpt lat="-39.82088784611421" lon="-73.17801607387642"><ele>0.0</ele></trkpt>
      <trkpt lat="-39.81894165427713" lon="-73.20263139853031"><ele>0.0</ele></trkpt>
      <trkpt lat="-39.81915815391649" lon="-73.20098107107268"><ele>0.0</ele></trkpt>
      <trkpt lat="-39.81897149145001" lon="-73.19974517850318"><ele>0.0</ele></trkpt>
      <trkpt lat="-39.81837654414196" lon="-73.19847279451125"><ele>0.0</ele></trkpt>
      <trkpt lat="-39.81843653071924" lon="-73.19809558090215"><ele>0.0</ele></trkpt>
      <trkpt lat="-39.81859213634635" lon="-73.19778536256014"><ele>0.0</ele></trkpt>
      <trkpt lat="-39.82012799446907" lon="-73.19653725588853"><ele>0.0</ele></trkpt>
      <trkpt lat="-39.82055582053424" lon="-73.19571291173018"><ele>0.0</ele></trkpt>
      <trkpt lat="-39.82093855770685" lon="-73.19530753820587"><ele>0.0</ele></trkpt>
      <trkpt lat="-39.8210492529963" lon="-73.19497641820267"><ele>0.0</ele></trkpt>
      <trkpt lat="-39.82156180395985" lon="-73.19428287327379"><ele>0.0</ele></trkpt>
      <trkpt lat="-39.82229123846638" lon="-73.19383923227734"><ele>0.0</ele></trkpt>
      <trkpt lat="-39.82269171637381" lon="-73.19387421684917"><ele>0.0</ele></trkpt>
      <trkpt lat="-39.8235119001022" lon="-73.19322259183262"><ele>0.0</ele></trkpt>
      <trkpt lat="-39.82375469766485" lon="-73.19223473517994"><ele>0.0</ele></trkpt>
      <trkpt lat="-39.82371762802257" lon="-73.19172124083275"><ele>0.0</ele></trkpt>
      <trkpt lat="-39.82356304134224" lon="-73.19117188396905"><ele>0.0</ele></trkpt>
      <trkpt lat="-39.82360822303104" lon="-73.19059439408642"><ele>0.0</ele></trkpt>
      <trkpt lat="-39.82345958669613" lon="-73.19022088862991"><ele>0.0</ele></trkpt>
      <trkpt lat="-39.82346899452681" lon="-73.18997565187117"><ele>0.0</ele></trkpt>
      <trkpt lat="-39.82353847625365" lon="-73.18984488360223"><ele>0.0</ele></trkpt>
      <trkpt lat="-39.82392160051921" lon="-73.18964574529855"><ele>0.0</ele></trkpt>
      <trkpt lat="-39.82410741263354" lon="-73.18938209776884"><ele>0.0</ele></trkpt>
      <trkpt lat="-39.82421528102097" lon="-73.1888740716828"><ele>0.0</ele></trkpt>
      <trkpt lat="-39.82471790556998" lon="-73.18784853990415"><ele>0.0</ele></trkpt>
      <trkpt lat="-39.82514113098338" lon="-73.18665616538901"><ele>0.0</ele></trkpt>
      <trkpt lat="-39.82540208445628" lon="-73.18567101957139"><ele>0.0</ele></trkpt>
      <trkpt lat="-39.82547611991196" lon="-73.18503113393429"><ele>0.0</ele></trkpt>
      <trkpt lat="-39.82629721604096" lon="-73.1834611000857"><ele>0.0</ele></trkpt>
      <trkpt lat="-39.82649314228261" lon="-73.18323575496004"><ele>0.0</ele></trkpt>
      <trkpt lat="-39.82678326927884" lon="-73.18310717594439"><ele>0.0</ele></trkpt>
      <trkpt lat="-39.827616612376" lon="-73.18327030168375"><ele>0.0</ele></trkpt>
      <trkpt lat="-39.82823773430019" lon="-73.18283806757206"><ele>0.0</ele></trkpt>
      <trkpt lat="-39.82846197766197" lon="-73.1823529606293"><ele>0.0</ele></trkpt>
      <trkpt lat="-39.82868585662413" lon="-73.18149888283989"><ele>0.0</ele></trkpt>
      <trkpt lat="-39.82862966026958" lon="-73.1812383404281"><ele>0.0</ele></trkpt>
      <trkpt lat="-39.82818858197172" lon="-73.18077392365674"><ele>0.0</ele></trkpt>
      <trkpt lat="-39.82817289655633" lon="-73.18055315965962"><ele>0.0</ele></trkpt>
      <trkpt lat="-39.82824786872612" lon="-73.18040093876667"><ele>0.0</ele></trkpt>
      <trkpt lat="-39.82840297493718" lon="-73.1803549461506"><ele>0.0</ele></trkpt>
      <trkpt lat="-39.82867763657649" lon="-73.1804136850118"><ele>0.0</ele></trkpt>
      <trkpt lat="-39.82948664081434" lon="-73.18110907744318"><ele>0.0</ele></trkpt>
      <trkpt lat="-39.83017687729197" lon="-73.1815751343314"><ele>0.0</ele></trkpt>
      <trkpt lat="-39.83049832335043" lon="-73.18161151399111"><ele>0.0</ele></trkpt>
      <trkpt lat="-39.83079007887468" lon="-73.18150990711929"><ele>0.0</ele></trkpt>
      <trkpt lat="-39.830993477047" lon="-73.1813594206365"><ele>0.0</ele></trkpt>
      <trkpt lat="-39.83176550985841" lon="-73.18034327809654"><ele>0.0</ele></trkpt>
      <trkpt lat="-39.83215051784939" lon="-73.17942654243465"><ele>0.0</ele></trkpt>
      <trkpt lat="-39.83271709727483" lon="-73.17874200600669"><ele>0.0</ele></trkpt>
      <trkpt lat="-39.83320862987711" lon="-73.17830031029935"><ele>0.0</ele></trkpt>
      <trkpt lat="-39.83445660945557" lon="-73.1776579125859"><ele>0.0</ele></trkpt>
      <trkpt lat="-39.83571494411734" lon="-73.17729040692578"><ele>0.0</ele></trkpt>
      <trkpt lat="-39.83630584731878" lon="-73.17732533601777"><ele>0.0</ele></trkpt>
      <trkpt lat="-39.83657922310482" lon="-73.17742425659681"><ele>0.0</ele></trkpt>
      <trkpt lat="-39.83684790580999" lon="-73.17770307125545"><ele>0.0</ele></trkpt>
      <trkpt lat="-39.83693189720206" lon="-73.17810204842704"><ele>0.0</ele></trkpt>
      <trkpt lat="-39.83691323874799" lon="-73.17854506071052"><ele>0.0</ele></trkpt>
      <trkpt lat="-39.83701950223163" lon="-73.17867498992753"><ele>0.0</ele></trkpt>
      <trkpt lat="-39.83744692430221" lon="-73.17877572516487"><ele>0.0</ele></trkpt>
      <trkpt lat="-39.83758371258528" lon="-73.17871049075097"><ele>0.0</ele></trkpt>
      <trkpt lat="-39.83764594877695" lon="-73.17855509639597"><ele>0.0</ele></trkpt>
      <trkpt lat="-39.83764514461851" lon="-73.1778017600344"><ele>0.0</ele></trkpt>
      <trkpt lat="-39.83773323034224" lon="-73.17767232593584"><ele>0.0</ele></trkpt>
      <trkpt lat="-39.83839725323907" lon="-73.17740787697454"><ele>0.0</ele></trkpt>
      <trkpt lat="-39.83874967360191" lon="-73.17696073422294"><ele>0.0</ele></trkpt>
      <trkpt lat="-39.83880866926341" lon="-73.17677619073116"><ele>0.0</ele></trkpt>
      <trkpt lat="-39.83892556116049" lon="-73.17611025976147"><ele>0.0</ele></trkpt>
      <trkpt lat="-39.838585029215" lon="-73.1752008344348"><ele>0.0</ele></trkpt>
      <trkpt lat="-39.83870477927545" lon="-73.17497605341696"><ele>0.0</ele></trkpt>
      <trkpt lat="-39.83925624094095" lon="-73.17443897318614"><ele>0.0</ele></trkpt>
      <trkpt lat="-39.84016681342187" lon="-73.17319396807218"><ele>0.0</ele></trkpt>
      <trkpt lat="-39.84057000942843" lon="-73.17250562873582"><ele>0.0</ele></trkpt>
      <trkpt lat="-39.84070977051003" lon="-73.17171863980055"><ele>0.0</ele></trkpt>
      <trkpt lat="-39.84132380788137" lon="-73.17089723353774"><ele>0.0</ele></trkpt>
      <trkpt lat="-39.8414374316724" lon="-73.17055327764072"><ele>0.0</ele></trkpt>
      <trkpt lat="-39.84197530853807" lon="-73.16963756463544"><ele>0.0</ele></trkpt>
      <trkpt lat="-39.84212857494254" lon="-73.16840268219372"><ele>0.0</ele></trkpt>
      <trkpt lat="-39.84256510891696" lon="-73.1675844698855"><ele>0.0</ele></trkpt>
      <trkpt lat="-39.84329288783172" lon="-73.16563962052388"><ele>0.0</ele></trkpt>
      <trkpt lat="-39.84308920227731" lon="-73.16517172665333"><ele>0.0</ele></trkpt>
      <trkpt lat="-39.84302316033892" lon="-73.16480190921291"><ele>0.0</ele></trkpt>
      <trkpt lat="-39.84323641018775" lon="-73.16418914646604"><ele>0.0</ele></trkpt>
      <trkpt lat="-39.84308936016909" lon="-73.16355894479055"><ele>0.0</ele></trkpt>
      <trkpt lat="-39.8431140629392" lon="-73.16315006974575"><ele>0.0</ele></trkpt>
      <trkpt lat="-39.84317956187896" lon="-73.1629979982442"><ele>0.0</ele></trkpt>
      <trkpt lat="-39.84342138359217" lon="-73.16284007247668"><ele>0.0</ele></trkpt>
      <trkpt lat="-39.84431829601127" lon="-73.16262017927791"><ele>0.0</ele></trkpt>
      <trkpt lat="-39.84436895216299" lon="-73.16254027660561"><ele>0.0</ele></trkpt>
      <trkpt lat="-39.84437617523127" lon="-73.16238899911951"><ele>0.0</ele></trkpt>
      <trkpt lat="-39.84417946586343" lon="-73.16201181769499"><ele>0.0</ele></trkpt>
      <trkpt lat="-39.84417948971929" lon="-73.16158513717008"><ele>0.0</ele></trkpt>
      <trkpt lat="-39.84369630409689" lon="-73.16111057077887"><ele>0.0</ele></trkpt>
      <trkpt lat="-39.84308133529982" lon="-73.1602733882184"><ele>0.0</ele></trkpt>
      <trkpt lat="-39.84274625723603" lon="-73.16014301296738"><ele>0.0</ele></trkpt>
      <trkpt lat="-39.84236175528815" lon="-73.1603887398326"><ele>0.0</ele></trkpt>
      <trkpt lat="-39.84196859645267" lon="-73.1603770938657"><ele>0.0</ele></trkpt>
      <trkpt lat="-39.8417774060066" lon="-73.16015476579662"><ele>0.0</ele></trkpt>
      <trkpt lat="-39.84165303192555" lon="-73.16012992061809"><ele>0.0</ele></trkpt>
      <trkpt lat="-39.84103194831968" lon="-73.16038626950586"><ele>0.0</ele></trkpt>
      <trkpt lat="-39.84046439489386" lon="-73.16079810867537"><ele>0.0</ele></trkpt>
      <trkpt lat="-39.84027337580728" lon="-73.16103849126421"><ele>0.0</ele></trkpt>
      <trkpt lat="-39.84012128143737" lon="-73.16181625583876"><ele>0.0</ele></trkpt>
      <trkpt lat="-39.83981898611033" lon="-73.16217950823524"><ele>0.0</ele></trkpt>
      <trkpt lat="-39.8392239036625" lon="-73.16241137953446"><ele>0.0</ele></trkpt>
      <trkpt lat="-39.83859243264423" lon="-73.16244772547752"><ele>0.0</ele></trkpt>
      <trkpt lat="-39.8383288680141" lon="-73.16238712617928"><ele>0.0</ele></trkpt>
      <trkpt lat="-39.83834728019382" lon="-73.1621451943376"><ele>0.0</ele></trkpt>
      <trkpt lat="-39.83860145454792" lon="-73.16187734917278"><ele>0.0</ele></trkpt>
      <trkpt lat="-39.83835787372732" lon="-73.16123093514021"><ele>0.0</ele></trkpt>
      <trkpt lat="-39.83836589503382" lon="-73.16062653805521"><ele>0.0</ele></trkpt>
      <trkpt lat="-39.83858676745663" lon="-73.15980046008711"><ele>0.0</ele></trkpt>
      <trkpt lat="-39.83884838682766" lon="-73.1592116290642"><ele>0.0</ele></trkpt>
      <trkpt lat="-39.83887871475149" lon="-73.15890303678493"><ele>0.0</ele></trkpt>
      <trkpt lat="-39.83884080922149" lon="-73.15881405527317"><ele>0.0</ele></trkpt>
      <trkpt lat="-39.83849278719139" lon="-73.15871998003279"><ele>0.0</ele></trkpt>
      <trkpt lat="-39.83824564145554" lon="-73.15850826695873"><ele>0.0</ele></trkpt>
      <trkpt lat="-39.83795072152763" lon="-73.15775306899693"><ele>0.0</ele></trkpt>
      <trkpt lat="-39.83770669192499" lon="-73.15739968923312"><ele>0.0</ele></trkpt>
      <trkpt lat="-39.83706774883419" lon="-73.15712245912943"><ele>0.0</ele></trkpt>
      <trkpt lat="-39.83697242967712" lon="-73.15698497586135"><ele>0.0</ele></trkpt>
      <trkpt lat="-39.83688423869157" lon="-73.15683799557311"><ele>0.0</ele></trkpt>
      <trkpt lat="-39.8367716950166" lon="-73.15572360199113"><ele>0.0</ele></trkpt>
      <trkpt lat="-39.83667585279579" lon="-73.15551731130064"><ele>0.0</ele></trkpt>
      <trkpt lat="-39.83595945050497" lon="-73.15524013855415"><ele>0.0</ele></trkpt>
      <trkpt lat="-39.83546004269764" lon="-73.15520039077184"><ele>0.0</ele></trkpt>
      <trkpt lat="-39.83537812369008" lon="-73.15504842358222"><ele>0.0</ele></trkpt>
      <trkpt lat="-39.81894162365726" lon="-73.20262979181786"><ele>0.0</ele></trkpt>
      <trkpt lat="-39.81879763635735" lon="-73.2028491601435"><ele>0.0</ele></trkpt>
      <trkpt lat="-39.8189238483046" lon="-73.20345591806242"><ele>0.0</ele></trkpt>
      <trkpt lat="-39.81899488115457" lon="-73.203464354773"><ele>0.0</ele></trkpt>
      <trkpt lat="-39.81916555529655" lon="-73.20320447943075"><ele>0.0</ele></trkpt>
      <trkpt lat="-39.819373378862" lon="-73.20325490961089"><ele>0.0</ele></trkpt>
      <trkpt lat="-39.81949155846478" lon="-73.20314066858245"><ele>0.0</ele></trkpt>
      <trkpt lat="-39.81969932595631" lon="-73.20324097490933"><ele>0.0</ele></trkpt>
      <trkpt lat="-39.81994502952681" lon="-73.20319518757633"><ele>0.0</ele></trkpt>
      <trkpt lat="-39.81990711277511" lon="-73.20326569624885"><ele>0.0</ele></trkpt>
      <trkpt lat="-39.8200052633134" lon="-73.20318975014455"><ele>0.0</ele></trkpt>
      <trkpt lat="-39.8204100742979" lon="-73.20348441952898"><ele>0.0</ele></trkpt>
      <trkpt lat="-39.82041529763803" lon="-73.20366682804747"><ele>0.0</ele></trkpt>
      <trkpt lat="-39.82066106790001" lon="-73.20373164338045"><ele>0.0</ele></trkpt>
      <trkpt lat="-39.82086391691788" lon="-73.20396019762"><ele>0.0</ele></trkpt>
      <trkpt lat="-39.820943095238" lon="-73.20392340346868"><ele>0.0</ele></trkpt>
      <trkpt lat="-39.82117807211092" lon="-73.20369114455062"><ele>0.0</ele></trkpt>
      <trkpt lat="-39.82250640169028" lon="-73.20086672332536"><ele>0.0</ele></trkpt>
      <trkpt lat="-39.82307369318878" lon="-73.2002719052397"><ele>0.0</ele></trkpt>
      <trkpt lat="-39.8234215722286" lon="-73.19962589619124"><ele>0.0</ele></trkpt>
      <trkpt lat="-39.81894165427713" lon="-73.20263139853031"><ele>0.0</ele></trkpt>
      <trkpt lat="-39.81915815391649" lon="-73.20098107107268"><ele>0.0</ele></trkpt>
      <trkpt lat="-39.81897149145001" lon="-73.19974517850318"><ele>0.0</ele></trkpt>
      <trkpt lat="-39.81837654414196" lon="-73.19847279451125"><ele>0.0</ele></trkpt>
      <trkpt lat="-39.81843653071924" lon="-73.19809558090215"><ele>0.0</ele></trkpt>
      <trkpt lat="-39.81859213634635" lon="-73.19778536256014"><ele>0.0</ele></trkpt>
      <trkpt lat="-39.81899247962457" lon="-73.1974997858319"><ele>0.0</ele></trkpt>
      <trkpt lat="-39.81919895337723" lon="-73.19724295811433"><ele>0.0</ele></trkpt>
      <trkpt lat="-39.8200856306666" lon="-73.1966342463981"><ele>0.0</ele></trkpt>
      <trkpt lat="-39.82023368128484" lon="-73.19667753736866"><ele>0.0</ele></trkpt>
      <trkpt lat="-39.82045135416909" lon="-73.19696749010187"><ele>0.0</ele></trkpt>
      <trkpt lat="-39.82043398236583" lon="-73.19752734828135"><ele>0.0</ele></trkpt>
      <trkpt lat="-39.82057978180603" lon="-73.19779533029252"><ele>0.0</ele></trkpt>
      <trkpt lat="-39.82072182853317" lon="-73.19781690451035"><ele>0.0</ele></trkpt>
      <trkpt lat="-39.82083576119749" lon="-73.19723939604312"><ele>0.0</ele></trkpt>
      <trkpt lat="-39.82119861025642" lon="-73.19654884303694"><ele>0.0</ele></trkpt>
      <trkpt lat="-39.82234743492064" lon="-73.19568748532535"><ele>0.0</ele></trkpt>
      <trkpt lat="-39.82253681856922" lon="-73.1957112934882"><ele>0.0</ele></trkpt>
      <trkpt lat="-39.82265076623282" lon="-73.1958078959779"><ele>0.0</ele></trkpt>
      <trkpt lat="-39.82270829812781" lon="-73.19617173325425"><ele>0.0</ele></trkpt>
      <trkpt lat="-39.82203596932297" lon="-73.19659190772715"><ele>0.0</ele></trkpt>
      <trkpt lat="-39.82188332089041" lon="-73.19711864684022"><ele>0.0</ele></trkpt>
      <trkpt lat="-39.8220012061938" lon="-73.19726416282126"><ele>0.0</ele></trkpt>
      <trkpt lat="-39.82234409260443" lon="-73.1969702030384"><ele>0.0</ele></trkpt>
      <trkpt lat="-39.82272290918343" lon="-73.19707200968296"><ele>0.0</ele></trkpt>
      <trkpt lat="-39.82318859190089" lon="-73.19746934738123"><ele>0.0</ele></trkpt>
      <trkpt lat="-39.82373774154124" lon="-73.19868464897395"><ele>0.0</ele></trkpt>
      <trkpt lat="-39.82373198284056" lon="-73.19903230819646"><ele>0.0</ele></trkpt>
      <trkpt lat="-39.8234212984481" lon="-73.19962398099725"><ele>0.0</ele></trkpt>
      <trkpt lat="-39.81894165427713" lon="-73.20263139853031"><ele>0.0</ele></trkpt>
      <trkpt lat="-39.81915815391649" lon="-73.20098107107268"><ele>0.0</ele></trkpt>
      <trkpt lat="-39.81897149145001" lon="-73.19974517850318"><ele>0.0</ele></trkpt>
      <trkpt lat="-39.81837654414196" lon="-73.19847279451125"><ele>0.0</ele></trkpt>
      <trkpt lat="-39.81843653071924" lon="-73.19809558090215"><ele>0.0</ele></trkpt>
      <trkpt lat="-39.81859213634635" lon="-73.19778536256014"><ele>0.0</ele></trkpt>
      <trkpt lat="-39.82012799446907" lon="-73.19653725588853"><ele>0.0</ele></trkpt>
      <trkpt lat="-39.82055582053424" lon="-73.19571291173018"><ele>0.0</ele></trkpt>
      <trkpt lat="-39.82093855770685" lon="-73.19530753820587"><ele>0.0</ele></trkpt>
      <trkpt lat="-39.8210492529963" lon="-73.19497641820267"><ele>0.0</ele></trkpt>
      <trkpt lat="-39.82156180395985" lon="-73.19428287327379"><ele>0.0</ele></trkpt>
      <trkpt lat="-39.82229123846638" lon="-73.19383923227734"><ele>0.0</ele></trkpt>
      <trkpt lat="-39.82269171637381" lon="-73.19387421684917"><ele>0.0</ele></trkpt>
      <trkpt lat="-39.8235119001022" lon="-73.19322259183262"><ele>0.0</ele></trkpt>
      <trkpt lat="-39.82375469766485" lon="-73.19223473517994"><ele>0.0</ele></trkpt>
      <trkpt lat="-39.82371762802257" lon="-73.19172124083275"><ele>0.0</ele></trkpt>
      <trkpt lat="-39.82356304134224" lon="-73.19117188396905"><ele>0.0</ele></trkpt>
      <trkpt lat="-39.82360822303104" lon="-73.19059439408642"><ele>0.0</ele></trkpt>
      <trkpt lat="-39.82345958669613" lon="-73.19022088862991"><ele>0.0</ele></trkpt>
      <trkpt lat="-39.82346899452681" lon="-73.18997565187117"><ele>0.0</ele></trkpt>
      <trkpt lat="-39.82353847625365" lon="-73.18984488360223"><ele>0.0</ele></trkpt>
      <trkpt lat="-39.82392160051921" lon="-73.18964574529855"><ele>0.0</ele></trkpt>
      <trkpt lat="-39.82410741263354" lon="-73.18938209776884"><ele>0.0</ele></trkpt>
      <trkpt lat="-39.82421528102097" lon="-73.1888740716828"><ele>0.0</ele></trkpt>
      <trkpt lat="-39.82471790556998" lon="-73.18784853990415"><ele>0.0</ele></trkpt>
      <trkpt lat="-39.82514113098338" lon="-73.18665616538901"><ele>0.0</ele></trkpt>
      <trkpt lat="-39.82540208445628" lon="-73.18567101957139"><ele>0.0</ele></trkpt>
      <trkpt lat="-39.82547611991196" lon="-73.18503113393429"><ele>0.0</ele></trkpt>
      <trkpt lat="-39.82629721604096" lon="-73.1834611000857"><ele>0.0</ele></trkpt>
      <trkpt lat="-39.82667327270765" lon="-73.1830801873309"><ele>0.0</ele></trkpt>
      <trkpt lat="-39.82654522133588" lon="-73.1829305151519"><ele>0.0</ele></trkpt>
      <trkpt lat="-39.82633006186948" lon="-73.18288529847912"><ele>0.0</ele></trkpt>
      <trkpt lat="-39.8260388383509" lon="-73.18297442401636"><ele>0.0</ele></trkpt>
      <trkpt lat="-39.82579483179735" lon="-73.18319946319541"><ele>0.0</ele></trkpt>
      <trkpt lat="-39.82547808702032" lon="-73.18371166440272"><ele>0.0</ele></trkpt>
      <trkpt lat="-39.82516769849754" lon="-73.18392225469017"><ele>0.0</ele></trkpt>
      <trkpt lat="-39.82454514186351" lon="-73.18416124010892"><ele>0.0</ele></trkpt>
      <trkpt lat="-39.82180971579756" lon="-73.18433785987818"><ele>0.0</ele></trkpt>
      <trkpt lat="-39.82166048809133" lon="-73.18445545794094"><ele>0.0</ele></trkpt>
      <trkpt lat="-39.82165272463852" lon="-73.18506426935043"><ele>0.0</ele></trkpt>
      <trkpt lat="-39.82198006997009" lon="-73.18565108972292"><ele>0.0</ele></trkpt>
      <trkpt lat="-39.82238519645593" lon="-73.1859343929928"><ele>0.0</ele></trkpt>
      <trkpt lat="-39.82230570071357" lon="-73.1862865686778"><ele>0.0</ele></trkpt>
      <trkpt lat="-39.82181921104635" lon="-73.18654434178272"><ele>0.0</ele></trkpt>
      <trkpt lat="-39.82137922744662" lon="-73.18692156248764"><ele>0.0</ele></trkpt>
      <trkpt lat="-39.82109819436644" lon="-73.18700759519028"><ele>0.0</ele></trkpt>
      <trkpt lat="-39.82047679492904" lon="-73.18752969641447"><ele>0.0</ele></trkpt>
      <trkpt lat="-39.81956765557627" lon="-73.18798389823675"><ele>0.0</ele></trkpt>
      <trkpt lat="-39.81846516072618" lon="-73.18835414773709"><ele>0.0</ele></trkpt>
      <trkpt lat="-39.81788111314518" lon="-73.18839590478925"><ele>0.0</ele></trkpt>
      <trkpt lat="-39.81769036383029" lon="-73.18854180428677"><ele>0.0</ele></trkpt>
      <trkpt lat="-39.81783665502595" lon="-73.18886378232942"><ele>0.0</ele></trkpt>
      <trkpt lat="-39.81833353034266" lon="-73.18942670272261"><ele>0.0</ele></trkpt>
      <trkpt lat="-39.81844521751682" lon="-73.18977752484248"><ele>0.0</ele></trkpt>
      <trkpt lat="-39.81837630963465" lon="-73.19015391988584"><ele>0.0</ele></trkpt>
      <trkpt lat="-39.81812010727635" lon="-73.19068102739553"><ele>0.0</ele></trkpt>
      <trkpt lat="-39.81801479828033" lon="-73.19258247469354"><ele>0.0</ele></trkpt>
      <trkpt lat="-39.8180525989016" lon="-73.19318323523117"><ele>0.0</ele></trkpt>
      <trkpt lat="-39.81819775844439" lon="-73.19346652657856"><ele>0.0</ele></trkpt>
      <trkpt lat="-39.81876736646304" lon="-73.19398059558283"><ele>0.0</ele></trkpt>
      <trkpt lat="-39.81887834446691" lon="-73.19430008802249"><ele>0.0</ele></trkpt>
      <trkpt lat="-39.8188243905487" lon="-73.1945532089222"><ele>0.0</ele></trkpt>
      <trkpt lat="-39.81812068018674" lon="-73.19550010941764"><ele>0.0</ele></trkpt>
      <trkpt lat="-39.81760475628958" lon="-73.19649894041468"><ele>0.0</ele></trkpt>
      <trkpt lat="-39.81761672443311" lon="-73.19727220878266"><ele>0.0</ele></trkpt>
      <trkpt lat="-39.81771587093722" lon="-73.19744109897492"><ele>0.0</ele></trkpt>
      <trkpt lat="-39.81823393342754" lon="-73.19749939371262"><ele>0.0</ele></trkpt>
      <trkpt lat="-39.81851608325814" lon="-73.19782117906412"><ele>0.0</ele></trkpt>
      <trkpt lat="-39.81894165427713" lon="-73.20263139853031"><ele>0.0</ele></trkpt>
      <trkpt lat="-39.81916202623184" lon="-73.20107286117633"><ele>0.0</ele></trkpt>
      <trkpt lat="-39.81900861312297" lon="-73.19986785191425"><ele>0.0</ele></trkpt>
      <trkpt lat="-39.81837654414196" lon="-73.19847279451125"><ele>0.0</ele></trkpt>
      <trkpt lat="-39.81851656939355" lon="-73.1978215971931"><ele>0.0</ele></trkpt>
      <trkpt lat="-39.81822950503773" lon="-73.1974965517631"><ele>0.0</ele></trkpt>
      <trkpt lat="-39.81770738014082" lon="-73.1974392566305"><ele>0.0</ele></trkpt>
      <trkpt lat="-39.81761517078522" lon="-73.1972617256754"><ele>0.0</ele></trkpt>
      <trkpt lat="-39.81757043823014" lon="-73.19674983954704"><ele>0.0</ele></trkpt>
      <trkpt lat="-39.81759823141364" lon="-73.19651286953027"><ele>0.0</ele></trkpt>
      <trkpt lat="-39.8181092750735" lon="-73.19552576079657"><ele>0.0</ele></trkpt>
      <trkpt lat="-39.81882301178481" lon="-73.19455798293762"><ele>0.0</ele></trkpt>
      <trkpt lat="-39.8188795249599" lon="-73.19437732686906"><ele>0.0</ele></trkpt>
      <trkpt lat="-39.81876960713244" lon="-73.19398051747739"><ele>0.0</ele></trkpt>
      <trkpt lat="-39.81820188617999" lon="-73.19347236896816"><ele>0.0</ele></trkpt>
      <trkpt lat="-39.81805237666588" lon="-73.19318984726208"><ele>0.0</ele></trkpt>
      <trkpt lat="-39.81801551421792" lon="-73.19256025742442"><ele>0.0</ele></trkpt>
      <trkpt lat="-39.81811858480289" lon="-73.19068645839661"><ele>0.0</ele></trkpt>
      <trkpt lat="-39.8183758488205" lon="-73.19015237721739"><ele>0.0</ele></trkpt>
      <trkpt lat="-39.81844600976851" lon="-73.18978422351609"><ele>0.0</ele></trkpt>
      <trkpt lat="-39.81833689527097" lon="-73.1894307621472"><ele>0.0</ele></trkpt>
      <trkpt lat="-39.81772431010248" lon="-73.18870536490867"><ele>0.0</ele></trkpt>
      <trkpt lat="-39.81666504641827" lon="-73.18687513238407"><ele>0.0</ele></trkpt>
      <trkpt lat="-39.81651040559999" lon="-73.18561992040948"><ele>0.0</ele></trkpt>
      <trkpt lat="-39.81673213987719" lon="-73.18509586468981"><ele>0.0</ele></trkpt>
      <trkpt lat="-39.81672896785602" lon="-73.18466446805269"><ele>0.0</ele></trkpt>
      <trkpt lat="-39.81711148044393" lon="-73.18421262246382"><ele>0.0</ele></trkpt>
      <trkpt lat="-39.81729441027863" lon="-73.18416970227896"><ele>0.0</ele></trkpt>
      <trkpt lat="-39.81785791315703" lon="-73.18430368591993"><ele>0.0</ele></trkpt>
      <trkpt lat="-39.81801009099015" lon="-73.18448931643698"><ele>0.0</ele></trkpt>
      <trkpt lat="-39.81802203436836" lon="-73.18470311314032"><ele>0.0</ele></trkpt>
      <trkpt lat="-39.81792831732707" lon="-73.18477326730876"><ele>0.0</ele></trkpt>
      <trkpt lat="-39.81894165427713" lon="-73.20263139853031"><ele>0.0</ele></trkpt>
      <trkpt lat="-39.81916202623184" lon="-73.20107286117633"><ele>0.0</ele></trkpt>
      <trkpt lat="-39.81900861312297" lon="-73.19986785191425"><ele>0.0</ele></trkpt>
      <trkpt lat="-39.81837654414196" lon="-73.19847279451125"><ele>0.0</ele></trkpt>
      <trkpt lat="-39.81851656939355" lon="-73.1978215971931"><ele>0.0</ele></trkpt>
      <trkpt lat="-39.81822950503773" lon="-73.1974965517631"><ele>0.0</ele></trkpt>
      <trkpt lat="-39.81770738014082" lon="-73.1974392566305"><ele>0.0</ele></trkpt>
      <trkpt lat="-39.81761517078522" lon="-73.1972617256754"><ele>0.0</ele></trkpt>
      <trkpt lat="-39.81757043823014" lon="-73.19674983954704"><ele>0.0</ele></trkpt>
      <trkpt lat="-39.81759823141364" lon="-73.19651286953027"><ele>0.0</ele></trkpt>
      <trkpt lat="-39.8181092750735" lon="-73.19552576079657"><ele>0.0</ele></trkpt>
      <trkpt lat="-39.81882301178481" lon="-73.19455798293762"><ele>0.0</ele></trkpt>
      <trkpt lat="-39.8188795249599" lon="-73.19437732686906"><ele>0.0</ele></trkpt>
      <trkpt lat="-39.81876960713244" lon="-73.19398051747739"><ele>0.0</ele></trkpt>
      <trkpt lat="-39.81820188617999" lon="-73.19347236896816"><ele>0.0</ele></trkpt>
      <trkpt lat="-39.81805237666588" lon="-73.19318984726208"><ele>0.0</ele></trkpt>
      <trkpt lat="-39.81801551421792" lon="-73.19256025742442"><ele>0.0</ele></trkpt>
      <trkpt lat="-39.81811858480289" lon="-73.19068645839661"><ele>0.0</ele></trkpt>
      <trkpt lat="-39.81824690106415" lon="-73.1903643514692"><ele>0.0</ele></trkpt>
      <trkpt lat="-39.81848342177098" lon="-73.18990875015551"><ele>0.0</ele></trkpt>
      <trkpt lat="-39.81891781104336" lon="-73.18987543254916"><ele>0.0</ele></trkpt>
      <trkpt lat="-39.81964406526655" lon="-73.19031625787181"><ele>0.0</ele></trkpt>
      <trkpt lat="-39.8199271445547" lon="-73.1902633951658"><ele>0.0</ele></trkpt>
      <trkpt lat="-39.82063635962373" lon="-73.19034682707269"><ele>0.0</ele></trkpt>
      <trkpt lat="-39.82109110157307" lon="-73.1906084521479"><ele>0.0</ele></trkpt>
      <trkpt lat="-39.82121934062371" lon="-73.1907881385381"><ele>0.0</ele></trkpt>
      <trkpt lat="-39.82151251855187" lon="-73.19044055786638"><ele>0.0</ele></trkpt>
      <trkpt lat="-39.82153213920424" lon="-73.18983241662423"><ele>0.0</ele></trkpt>
      <trkpt lat="-39.82166286598702" lon="-73.18968565460942"><ele>0.0</ele></trkpt>
      <trkpt lat="-39.82179799912723" lon="-73.18966033232464"><ele>0.0</ele></trkpt>
      <trkpt lat="-39.8221212645459" lon="-73.1898428324601"><ele>0.0</ele></trkpt>
      <trkpt lat="-39.82255145002726" lon="-73.19041307390302"><ele>0.0</ele></trkpt>
      <trkpt lat="-39.8226826554254" lon="-73.19042306985038"><ele>0.0</ele></trkpt>
      <trkpt lat="-39.82286471667087" lon="-73.19025728985999"><ele>0.0</ele></trkpt>
      <trkpt lat="-39.82304987484436" lon="-73.19065796054079"><ele>0.0</ele></trkpt>
      <trkpt lat="-39.82325188756718" lon="-73.19054797744155"><ele>0.0</ele></trkpt>
      <trkpt lat="-39.82335948753752" lon="-73.18989916149901"><ele>0.0</ele></trkpt>
      <trkpt lat="-39.8234747828893" lon="-73.18984761882626"><ele>0.0</ele></trkpt>
      <trkpt lat="-39.82345891258384" lon="-73.19021999899772"><ele>0.0</ele></trkpt>
      <trkpt lat="-39.82361905735085" lon="-73.19068639753256"><ele>0.0</ele></trkpt>
      <trkpt lat="-39.8235634655211" lon="-73.19117219441661"><ele>0.0</ele></trkpt>
      <trkpt lat="-39.82371889760862" lon="-73.19171751979341"><ele>0.0</ele></trkpt>
      <trkpt lat="-39.82375557533762" lon="-73.19223022134194"><ele>0.0</ele></trkpt>
      <trkpt lat="-39.82343805710614" lon="-73.19334011652612"><ele>0.0</ele></trkpt>
      <trkpt lat="-39.82268954231034" lon="-73.19387616211048"><ele>0.0</ele></trkpt>
      <trkpt lat="-39.82228878995728" lon="-73.19384051667284"><ele>0.0</ele></trkpt>
      <trkpt lat="-39.82156575902785" lon="-73.19428251542534"><ele>0.0</ele></trkpt>
      <trkpt lat="-39.82104197521466" lon="-73.19498467815005"><ele>0.0</ele></trkpt>
      <trkpt lat="-39.82093902116663" lon="-73.19531074413351"><ele>0.0</ele></trkpt>
      <trkpt lat="-39.82055343002499" lon="-73.19570835523926"><ele>0.0</ele></trkpt>
      <trkpt lat="-39.82009358996809" lon="-73.19657844282075"><ele>0.0</ele></trkpt>
      <trkpt lat="-39.81919961862118" lon="-73.19724267130512"><ele>0.0</ele></trkpt>
      <trkpt lat="-39.818527412501" lon="-73.19788312375775"><ele>0.0</ele></trkpt>
      <trkpt lat="-39.81894100865856" lon="-73.2026287289767"><ele>0.0</ele></trkpt>
      <trkpt lat="-39.8191579036807" lon="-73.20112658149553"><ele>0.0</ele></trkpt>
      <trkpt lat="-39.81905215495079" lon="-73.20008033688983"><ele>0.0</ele></trkpt>
      <trkpt lat="-39.81836032556977" lon="-73.19835870420366"><ele>0.0</ele></trkpt>
      <trkpt lat="-39.81821800533736" lon="-73.19849904492278"><ele>0.0</ele></trkpt>
      <trkpt lat="-39.81830674857758" lon="-73.19879226697707"><ele>0.0</ele></trkpt>
      <trkpt lat="-39.81820914312168" lon="-73.1988658054254"><ele>0.0</ele></trkpt>
      <trkpt lat="-39.8175939223196" lon="-73.1985245821686"><ele>0.0</ele></trkpt>
      <trkpt lat="-39.81715153431226" lon="-73.19862388907308"><ele>0.0</ele></trkpt>
      <trkpt lat="-39.81701097420503" lon="-73.19855573315421"><ele>0.0</ele></trkpt>
      <trkpt lat="-39.81687791959062" lon="-73.19863029832399"><ele>0.0</ele></trkpt>
      <trkpt lat="-39.81654005201012" lon="-73.19839411194415"><ele>0.0</ele></trkpt>
      <trkpt lat="-39.81635558274093" lon="-73.1984405548918"><ele>0.0</ele></trkpt>
      <trkpt lat="-39.81661002253605" lon="-73.199162019687"><ele>0.0</ele></trkpt>
      <trkpt lat="-39.81664411766298" lon="-73.20053160183458"><ele>0.0</ele></trkpt>
      <trkpt lat="-39.81703929582674" lon="-73.20178787101243"><ele>0.0</ele></trkpt>
      <trkpt lat="-39.81758750978607" lon="-73.20256215859025"><ele>0.0</ele></trkpt>
      <trkpt lat="-39.81845140819178" lon="-73.20293164528826"><ele>0.0</ele></trkpt>
      <trkpt lat="-39.81876261334699" lon="-73.20288271626069"><ele>0.0</ele></trkpt>
      <trkpt lat="-39.81899268430016" lon="-73.20251194441774"><ele>0.0</ele></trkpt>
      <trkpt lat="-39.81916202623184" lon="-73.20107286117633"><ele>0.0</ele></trkpt>
      <trkpt lat="-39.81900861312297" lon="-73.19986785191425"><ele>0.0</ele></trkpt>
      <trkpt lat="-39.81837654414196" lon="-73.19847279451125"><ele>0.0</ele></trkpt>
      <trkpt lat="-39.81852603622453" lon="-73.19788473356667"><ele>0.0</ele></trkpt>
      <trkpt lat="-39.81919895337723" lon="-73.19724295811433"><ele>0.0</ele></trkpt>
      <trkpt lat="-39.81969501587424" lon="-73.19693339613721"><ele>0.0</ele></trkpt>
      <trkpt lat="-39.82012799446907" lon="-73.19653725588853"><ele>0.0</ele></trkpt>
      <trkpt lat="-39.82055582053424" lon="-73.19571291173018"><ele>0.0</ele></trkpt>
      <trkpt lat="-39.82093855770685" lon="-73.19530753820587"><ele>0.0</ele></trkpt>
      <trkpt lat="-39.8210492529963" lon="-73.19497641820267"><ele>0.0</ele></trkpt>
      <trkpt lat="-39.82156180395985" lon="-73.19428287327379"><ele>0.0</ele></trkpt>
      <trkpt lat="-39.82229123846638" lon="-73.19383923227734"><ele>0.0</ele></trkpt>
      <trkpt lat="-39.82269171637381" lon="-73.19387421684917"><ele>0.0</ele></trkpt>
      <trkpt lat="-39.8235119001022" lon="-73.19322259183262"><ele>0.0</ele></trkpt>
      <trkpt lat="-39.82375469766485" lon="-73.19223473517994"><ele>0.0</ele></trkpt>
      <trkpt lat="-39.82371762802257" lon="-73.19172124083275"><ele>0.0</ele></trkpt>
      <trkpt lat="-39.82356304134224" lon="-73.19117188396905"><ele>0.0</ele></trkpt>
      <trkpt lat="-39.82360822303104" lon="-73.19059439408642"><ele>0.0</ele></trkpt>
      <trkpt lat="-39.82345958669613" lon="-73.19022088862991"><ele>0.0</ele></trkpt>
      <trkpt lat="-39.82346899452681" lon="-73.18997565187117"><ele>0.0</ele></trkpt>
      <trkpt lat="-39.82353847625365" lon="-73.18984488360223"><ele>0.0</ele></trkpt>
      <trkpt lat="-39.82392160051921" lon="-73.18964574529855"><ele>0.0</ele></trkpt>
      <trkpt lat="-39.82410741263354" lon="-73.18938209776884"><ele>0.0</ele></trkpt>
      <trkpt lat="-39.82421528102097" lon="-73.1888740716828"><ele>0.0</ele></trkpt>
      <trkpt lat="-39.82471790556998" lon="-73.18784853990415"><ele>0.0</ele></trkpt>
      <trkpt lat="-39.82514113098338" lon="-73.18665616538901"><ele>0.0</ele></trkpt>
      <trkpt lat="-39.82540208445628" lon="-73.18567101957139"><ele>0.0</ele></trkpt>
      <trkpt lat="-39.82544141954769" lon="-73.18514214406056"><ele>0.0</ele></trkpt>
      <trkpt lat="-39.82560418457611" lon="-73.18474406294278"><ele>0.0</ele></trkpt>
      <trkpt lat="-39.82629721604096" lon="-73.1834611000857"><ele>0.0</ele></trkpt>
      <trkpt lat="-39.82649314228261" lon="-73.18323575496004"><ele>0.0</ele></trkpt>
      <trkpt lat="-39.82678326927884" lon="-73.18310717594439"><ele>0.0</ele></trkpt>
      <trkpt lat="-39.827616612376" lon="-73.18327030168375"><ele>0.0</ele></trkpt>
      <trkpt lat="-39.82800376256861" lon="-73.18304845327451"><ele>0.0</ele></trkpt>
      <trkpt lat="-39.82834447791146" lon="-73.18265951075922"><ele>0.0</ele></trkpt>
      <trkpt lat="-39.82837939252754" lon="-73.18249806024932"><ele>0.0</ele></trkpt>
      <trkpt lat="-39.82825191648129" lon="-73.18189877158252"><ele>0.0</ele></trkpt>
      <trkpt lat="-39.82815651490701" lon="-73.18175170776445"><ele>0.0</ele></trkpt>
      <trkpt lat="-39.82779915454934" lon="-73.18155658240856"><ele>0.0</ele></trkpt>
      <trkpt lat="-39.82775170091853" lon="-73.18091999338272"><ele>0.0</ele></trkpt>
      <trkpt lat="-39.82760835542078" lon="-73.18071834690512"><ele>0.0</ele></trkpt>
      <trkpt lat="-39.82730817321078" lon="-73.1806196096303"><ele>0.0</ele></trkpt>
      <trkpt lat="-39.82722042954287" lon="-73.18049311311086"><ele>0.0</ele></trkpt>
      <trkpt lat="-39.8271944855038" lon="-73.17981281110083"><ele>0.0</ele></trkpt>
      <trkpt lat="-39.82759385928138" lon="-73.17910079929348"><ele>0.0</ele></trkpt>
      <trkpt lat="-39.82773933955614" lon="-73.17907650674698"><ele>0.0</ele></trkpt>
      <trkpt lat="-39.82860221276297" lon="-73.17940979890355"><ele>0.0</ele></trkpt>
      <trkpt lat="-39.82894174498084" lon="-73.17930711958262"><ele>0.0</ele></trkpt>
      <trkpt lat="-39.82909809417084" lon="-73.179077191722"><ele>0.0</ele></trkpt>
      <trkpt lat="-39.8291306216612" lon="-73.17846059720651"><ele>0.0</ele></trkpt>
      <trkpt lat="-39.82924740051362" lon="-73.17820139024984"><ele>0.0</ele></trkpt>
      <trkpt lat="-39.82973523408896" lon="-73.17812283607392"><ele>0.0</ele></trkpt>
      <trkpt lat="-39.83018285246274" lon="-73.1783949743109"><ele>0.0</ele></trkpt>
      <trkpt lat="-39.8302620232071" lon="-73.17818398279447"><ele>0.0</ele></trkpt>
      <trkpt lat="-39.83089595341104" lon="-73.17768914556015"><ele>0.0</ele></trkpt>
      <trkpt lat="-39.83104740833573" lon="-73.17730978120689"><ele>0.0</ele></trkpt>
      <trkpt lat="-39.83104480710811" lon="-73.17668297557611"><ele>0.0</ele></trkpt>
      <trkpt lat="-39.83121469948743" lon="-73.17643177703789"><ele>0.0</ele></trkpt>
      <trkpt lat="-39.83126344115345" lon="-73.17617347443449"><ele>0.0</ele></trkpt>
      <trkpt lat="-39.83106180683549" lon="-73.1757282218669"><ele>0.0</ele></trkpt>
      <trkpt lat="-39.83163967908779" lon="-73.17525429933104"><ele>0.0</ele></trkpt>
      <trkpt lat="-39.83196672531461" lon="-73.17459463273767"><ele>0.0</ele></trkpt>
      <trkpt lat="-39.83209412693559" lon="-73.173758500506"><ele>0.0</ele></trkpt>
      <trkpt lat="-39.83240007660847" lon="-73.17339176938742"><ele>0.0</ele></trkpt>
      <trkpt lat="-39.83268929448158" lon="-73.1722350645876"><ele>0.0</ele></trkpt>
      <trkpt lat="-39.83327211199926" lon="-73.17129080484983"><ele>0.0</ele></trkpt>
      <trkpt lat="-39.83339391483864" lon="-73.17062137228913"><ele>0.0</ele></trkpt>
      <trkpt lat="-39.83342411476556" lon="-73.1698873764238"><ele>0.0</ele></trkpt>
      <trkpt lat="-39.83332555512434" lon="-73.16958352547297"><ele>0.0</ele></trkpt>
      <trkpt lat="-39.83261489163748" lon="-73.16932500637267"><ele>0.0</ele></trkpt>
      <trkpt lat="-39.83232434268976" lon="-73.16858623875785"><ele>0.0</ele></trkpt>
      <trkpt lat="-39.83205996154141" lon="-73.16822896013205"><ele>0.0</ele></trkpt>
      <trkpt lat="-39.83076631785404" lon="-73.16724704224394"><ele>0.0</ele></trkpt>
      <trkpt lat="-39.83046014030415" lon="-73.16684008613555"><ele>0.0</ele></trkpt>
      <trkpt lat="-39.83027284878595" lon="-73.1667209930106"><ele>0.0</ele></trkpt>
      <trkpt lat="-39.82956716054564" lon="-73.1665389245654"><ele>0.0</ele></trkpt>
      <trkpt lat="-39.82925121529923" lon="-73.16626613576062"><ele>0.0</ele></trkpt>
      <trkpt lat="-39.82916011143915" lon="-73.16594555154245"><ele>0.0</ele></trkpt>
      <trkpt lat="-39.82918037179629" lon="-73.1655470561632"><ele>0.0</ele></trkpt>
      <trkpt lat="-39.829467293683" lon="-73.1650586923623"><ele>0.0</ele></trkpt>
      <trkpt lat="-39.82947728844454" lon="-73.16490316149752"><ele>0.0</ele></trkpt>
      <trkpt lat="-39.82935379245933" lon="-73.16426016871314"><ele>0.0</ele></trkpt>
      <trkpt lat="-39.82949928819134" lon="-73.16374277730635"><ele>0.0</ele></trkpt>
      <trkpt lat="-39.82939800697103" lon="-73.16370083260163"><ele>0.0</ele></trkpt>
      <trkpt lat="-39.82920297323333" lon="-73.163935952313"><ele>0.0</ele></trkpt>
      <trkpt lat="-39.82902670872999" lon="-73.16436494908011"><ele>0.0</ele></trkpt>
      <trkpt lat="-39.82897305022526" lon="-73.16494782211379"><ele>0.0</ele></trkpt>
      <trkpt lat="-39.82861191221425" lon="-73.1652322878491"><ele>0.0</ele></trkpt>
      <trkpt lat="-39.82832510833236" lon="-73.16601410414255"><ele>0.0</ele></trkpt>
      <trkpt lat="-39.82748626131244" lon="-73.16664631731385"><ele>0.0</ele></trkpt>
      <trkpt lat="-39.82720201494962" lon="-73.167255180103"><ele>0.0</ele></trkpt>
      <trkpt lat="-39.82690821933081" lon="-73.16750094182834"><ele>0.0</ele></trkpt>
      <trkpt lat="-39.82649273760821" lon="-73.16832473174651"><ele>0.0</ele></trkpt>
      <trkpt lat="-39.82628375065277" lon="-73.16852201467842"><ele>0.0</ele></trkpt>
      <trkpt lat="-39.82593498810008" lon="-73.16855182913211"><ele>0.0</ele></trkpt>
      <trkpt lat="-39.82576323624033" lon="-73.1683717892418"><ele>0.0</ele></trkpt>
      <trkpt lat="-39.82561223292582" lon="-73.16783556779978"><ele>0.0</ele></trkpt>
      <trkpt lat="-39.82566817491641" lon="-73.16707450346792"><ele>0.0</ele></trkpt>
      <trkpt lat="-39.82640924033068" lon="-73.16557099710437"><ele>0.0</ele></trkpt>
      <trkpt lat="-39.82656896436981" lon="-73.16548566118615"><ele>0.0</ele></trkpt>
      <trkpt lat="-39.82669039473959" lon="-73.16563495549764"><ele>0.0</ele></trkpt>
      <trkpt lat="-39.8268171141484" lon="-73.16567337581495"><ele>0.0</ele></trkpt>
      <trkpt lat="-39.82690747075201" lon="-73.1655930877433"><ele>0.0</ele></trkpt>
      <trkpt lat="-39.82709209426204" lon="-73.16539718125087"><ele>0.0</ele></trkpt>
      <trkpt lat="-39.82725283835162" lon="-73.1648012947201"><ele>0.0</ele></trkpt>
      <trkpt lat="-39.82719954766903" lon="-73.16336303999906"><ele>0.0</ele></trkpt>
      <trkpt lat="-39.82676794195842" lon="-73.16250462748073"><ele>0.0</ele></trkpt>
      <trkpt lat="-39.82640908503675" lon="-73.16197905500657"><ele>0.0</ele></trkpt>
      <trkpt lat="-39.82624572721114" lon="-73.16108963096879"><ele>0.0</ele></trkpt>
      <trkpt lat="-39.82635319361888" lon="-73.16033667592615"><ele>0.0</ele></trkpt>
      <trkpt lat="-39.82624176735555" lon="-73.15956517371902"><ele>0.0</ele></trkpt>
      <trkpt lat="-39.82652811783873" lon="-73.15851775145855"><ele>0.0</ele></trkpt>
      <trkpt lat="-39.82682698169791" lon="-73.15795653218352"><ele>0.0</ele></trkpt>
      <trkpt lat="-39.82702223907361" lon="-73.1572257842548"><ele>0.0</ele></trkpt>
      <trkpt lat="-39.82652591874643" lon="-73.15602486840783"><ele>0.0</ele></trkpt>
      <trkpt lat="-39.82613256465439" lon="-73.1552446051601"><ele>0.0</ele></trkpt>
      <trkpt lat="-39.82580039817918" lon="-73.15480299156559"><ele>0.0</ele></trkpt>
      <trkpt lat="-39.82562794075859" lon="-73.15434091480788"><ele>0.0</ele></trkpt>
      <trkpt lat="-39.82553518471719" lon="-73.1539581952938"><ele>0.0</ele></trkpt>
      <trkpt lat="-39.8254958597263" lon="-73.15277632477421"><ele>0.0</ele></trkpt>
      <trkpt lat="-39.82558645880524" lon="-73.15174042624012"><ele>0.0</ele></trkpt>
      <trkpt lat="-39.82601203940887" lon="-73.15091341941667"><ele>0.0</ele></trkpt>
      <trkpt lat="-39.82649791012793" lon="-73.15056030284309"><ele>0.0</ele></trkpt>
      <trkpt lat="-39.82661067175027" lon="-73.15038916265806"><ele>0.0</ele></trkpt>
      <trkpt lat="-39.82674300140148" lon="-73.14997786731122"><ele>0.0</ele></trkpt>
      <trkpt lat="-39.82682100290205" lon="-73.14927205622507"><ele>0.0</ele></trkpt>
      <trkpt lat="-39.82741695901528" lon="-73.14828020809753"><ele>0.0</ele></trkpt>
      <trkpt lat="-39.82819983358798" lon="-73.14750168061693"><ele>0.0</ele></trkpt>
      <trkpt lat="-39.82906484578997" lon="-73.14706233011027"><ele>0.0</ele></trkpt>
      <trkpt lat="-39.82981334839224" lon="-73.14647066595636"><ele>0.0</ele></trkpt>
      <trkpt lat="-39.82984961153002" lon="-73.14636649746855"><ele>0.0</ele></trkpt>
      <trkpt lat="-39.82926460035347" lon="-73.14615704902118"><ele>0.0</ele></trkpt>
      <trkpt lat="-39.82910665147291" lon="-73.14598836983643"><ele>0.0</ele></trkpt>
      <trkpt lat="-39.81894165427713" lon="-73.20263139853031"><ele>0.0</ele></trkpt>
      <trkpt lat="-39.81916202623184" lon="-73.20107286117633"><ele>0.0</ele></trkpt>
      <trkpt lat="-39.81900861312297" lon="-73.19986785191425"><ele>0.0</ele></trkpt>
      <trkpt lat="-39.81837654414196" lon="-73.19847279451125"><ele>0.0</ele></trkpt>
      <trkpt lat="-39.81851656939355" lon="-73.1978215971931"><ele>0.0</ele></trkpt>
      <trkpt lat="-39.81822950503773" lon="-73.1974965517631"><ele>0.0</ele></trkpt>
      <trkpt lat="-39.81770738014082" lon="-73.1974392566305"><ele>0.0</ele></trkpt>
      <trkpt lat="-39.81761517078522" lon="-73.1972617256754"><ele>0.0</ele></trkpt>
      <trkpt lat="-39.81757043823014" lon="-73.19674983954704"><ele>0.0</ele></trkpt>
      <trkpt lat="-39.81759823141364" lon="-73.19651286953027"><ele>0.0</ele></trkpt>
      <trkpt lat="-39.8181092750735" lon="-73.19552576079657"><ele>0.0</ele></trkpt>
      <trkpt lat="-39.81882301178481" lon="-73.19455798293762"><ele>0.0</ele></trkpt>
      <trkpt lat="-39.8188795249599" lon="-73.19437732686906"><ele>0.0</ele></trkpt>
      <trkpt lat="-39.81876960713244" lon="-73.19398051747739"><ele>0.0</ele></trkpt>
      <trkpt lat="-39.81820188617999" lon="-73.19347236896816"><ele>0.0</ele></trkpt>
      <trkpt lat="-39.81805237666588" lon="-73.19318984726208"><ele>0.0</ele></trkpt>
      <trkpt lat="-39.81801551421792" lon="-73.19256025742442"><ele>0.0</ele></trkpt>
      <trkpt lat="-39.81811858480289" lon="-73.19068645839661"><ele>0.0</ele></trkpt>
      <trkpt lat="-39.8183758488205" lon="-73.19015237721739"><ele>0.0</ele></trkpt>
      <trkpt lat="-39.81844600976851" lon="-73.18978422351609"><ele>0.0</ele></trkpt>
      <trkpt lat="-39.81833689527097" lon="-73.1894307621472"><ele>0.0</ele></trkpt>
      <trkpt lat="-39.81772431010248" lon="-73.18870536490867"><ele>0.0</ele></trkpt>
      <trkpt lat="-39.81710213089347" lon="-73.18770222929794"><ele>0.0</ele></trkpt>
      <trkpt lat="-39.81660204061538" lon="-73.1866570705588"><ele>0.0</ele></trkpt>
      <trkpt lat="-39.81651040559999" lon="-73.18561992040948"><ele>0.0</ele></trkpt>
      <trkpt lat="-39.81673213987719" lon="-73.18509586468981"><ele>0.0</ele></trkpt>
      <trkpt lat="-39.81672896785602" lon="-73.18466446805269"><ele>0.0</ele></trkpt>
      <trkpt lat="-39.81705186130478" lon="-73.1841741161778"><ele>0.0</ele></trkpt>
      <trkpt lat="-39.81695513615322" lon="-73.18357911086963"><ele>0.0</ele></trkpt>
      <trkpt lat="-39.81709065772669" lon="-73.18334010170243"><ele>0.0</ele></trkpt>
      <trkpt lat="-39.8172463924394" lon="-73.18324654784313"><ele>0.0</ele></trkpt>
      <trkpt lat="-39.81818782882469" lon="-73.18293058249363"><ele>0.0</ele></trkpt>
      <trkpt lat="-39.81849671459028" lon="-73.18266883007887"><ele>0.0</ele></trkpt>
      <trkpt lat="-39.81858490136808" lon="-73.18248341801525"><ele>0.0</ele></trkpt>
      <trkpt lat="-39.81886686500862" lon="-73.18240230907409"><ele>0.0</ele></trkpt>
      <trkpt lat="-39.81935610346299" lon="-73.18190181750813"><ele>0.0</ele></trkpt>
      <trkpt lat="-39.81964058078999" lon="-73.18176729127202"><ele>0.0</ele></trkpt>
      <trkpt lat="-39.81985266651537" lon="-73.18180733462056"><ele>0.0</ele></trkpt>
      <trkpt lat="-39.82020137359697" lon="-73.18159185288745"><ele>0.0</ele></trkpt>
      <trkpt lat="-39.82086079872365" lon="-73.18167362388186"><ele>0.0</ele></trkpt>
      <trkpt lat="-39.82124993061853" lon="-73.18133822954458"><ele>0.0</ele></trkpt>
      <trkpt lat="-39.82136989804772" lon="-73.18189802757881"><ele>0.0</ele></trkpt>
      <trkpt lat="-39.82154368825638" lon="-73.18214138551686"><ele>0.0</ele></trkpt>
      <trkpt lat="-39.82155312956771" lon="-73.18234820955334"><ele>0.0</ele></trkpt>
      <trkpt lat="-39.82191837737143" lon="-73.18224707752064"><ele>0.0</ele></trkpt>
      <trkpt lat="-39.82196976666931" lon="-73.18197766321276"><ele>0.0</ele></trkpt>
      <trkpt lat="-39.82211589234014" lon="-73.18193656508754"><ele>0.0</ele></trkpt>
      <trkpt lat="-39.82224931053859" lon="-73.18205398931984"><ele>0.0</ele></trkpt>
      <trkpt lat="-39.82249507887601" lon="-73.18204332039687"><ele>0.0</ele></trkpt>
      <trkpt lat="-39.82289384587575" lon="-73.18177719613122"><ele>0.0</ele></trkpt>
      <trkpt lat="-39.82304671451567" lon="-73.18133576184088"><ele>0.0</ele></trkpt>
      <trkpt lat="-39.82385179458417" lon="-73.18060468047466"><ele>0.0</ele></trkpt>
      <trkpt lat="-39.82501540473176" lon="-73.17862633256212"><ele>0.0</ele></trkpt>
      <trkpt lat="-39.82537324314997" lon="-73.17814550066886"><ele>0.0</ele></trkpt>
      <trkpt lat="-39.82569548626176" lon="-73.17748652578034"><ele>0.0</ele></trkpt>
      <trkpt lat="-39.82626991714717" lon="-73.1766588387729"><ele>0.0</ele></trkpt>
      <trkpt lat="-39.82666174842718" lon="-73.17586452895665"><ele>0.0</ele></trkpt>
      <trkpt lat="-39.82702092241753" lon="-73.17542565721665"><ele>0.0</ele></trkpt>
      <trkpt lat="-39.82743323881109" lon="-73.17360387527991"><ele>0.0</ele></trkpt>
      <trkpt lat="-39.82742752030062" lon="-73.17108565462772"><ele>0.0</ele></trkpt>
      <trkpt lat="-39.82768153025641" lon="-73.17034328575865"><ele>0.0</ele></trkpt>
      <trkpt lat="-39.82844815581677" lon="-73.169178020141"><ele>0.0</ele></trkpt>
      <trkpt lat="-39.83007503179369" lon="-73.16793315295394"><ele>0.0</ele></trkpt>
      <trkpt lat="-39.83049556543332" lon="-73.16709163235038"><ele>0.0</ele></trkpt>
      <trkpt lat="-39.83053338681807" lon="-73.16680634320105"><ele>0.0</ele></trkpt>
      <trkpt lat="-39.8300063263241" lon="-73.16546808969466"><ele>0.0</ele></trkpt>
      <trkpt lat="-39.83000624709565" lon="-73.16494535930875"><ele>0.0</ele></trkpt>
      <trkpt lat="-39.83046099420418" lon="-73.16421015101264"><ele>0.0</ele></trkpt>
      <trkpt lat="-39.83092439624409" lon="-73.162828745605"><ele>0.0</ele></trkpt>
      <trkpt lat="-39.83095954597178" lon="-73.16250957401769"><ele>0.0</ele></trkpt>
      <trkpt lat="-39.83083626987285" lon="-73.16192964869177"><ele>0.0</ele></trkpt>
      <trkpt lat="-39.83042509404681" lon="-73.16123361229545"><ele>0.0</ele></trkpt>
      <trkpt lat="-39.83038143812302" lon="-73.1595066132273"><ele>0.0</ele></trkpt>
      <trkpt lat="-39.83054195729508" lon="-73.15919037750359"><ele>0.0</ele></trkpt>
      <trkpt lat="-39.8309261196077" lon="-73.15891348183828"><ele>0.0</ele></trkpt>
      <trkpt lat="-39.83093596621189" lon="-73.15817927429137"><ele>0.0</ele></trkpt>
      <trkpt lat="-39.83105182156373" lon="-73.15742332656546"><ele>0.0</ele></trkpt>
      <trkpt lat="-39.8313381370922" lon="-73.1566998816899"><ele>0.0</ele></trkpt>
      <trkpt lat="-39.83167162080785" lon="-73.15645355026572"><ele>0.0</ele></trkpt>
      <trkpt lat="-39.8319272903897" lon="-73.15658718358418"><ele>0.0</ele></trkpt>
      <trkpt lat="-39.83226798031103" lon="-73.15647909334055"><ele>0.0</ele></trkpt>
      <trkpt lat="-39.83275442200576" lon="-73.15524753534959"><ele>0.0</ele></trkpt>
      <trkpt lat="-39.83268357788955" lon="-73.15472172752536"><ele>0.0</ele></trkpt>
      <trkpt lat="-39.83306851489263" lon="-73.15237952718311"><ele>0.0</ele></trkpt>
      <trkpt lat="-39.83353240603829" lon="-73.15085854853045"><ele>0.0</ele></trkpt>
      <trkpt lat="-39.83375110148624" lon="-73.15064854219679"><ele>0.0</ele></trkpt>
      <trkpt lat="-39.83378921356875" lon="-73.15049548758333"><ele>0.0</ele></trkpt>
      <trkpt lat="-39.83370287974848" lon="-73.15025206049852"><ele>0.0</ele></trkpt>
      <trkpt lat="-39.83261600712237" lon="-73.14894405753712"><ele>0.0</ele></trkpt>
      <trkpt lat="-39.83225405003029" lon="-73.14868147050235"><ele>0.0</ele></trkpt>
      <trkpt lat="-39.83092271541339" lon="-73.14807860803711"><ele>0.0</ele></trkpt>
      <trkpt lat="-39.83060249519171" lon="-73.14737114970329"><ele>0.0</ele></trkpt>
      <trkpt lat="-39.83035425112678" lon="-73.14653719762877"><ele>0.0</ele></trkpt>
      <trkpt lat="-39.82997353856378" lon="-73.14634243592376"><ele>0.0</ele></trkpt>
      <trkpt lat="-39.8294207922574" lon="-73.1462304617902"><ele>0.0</ele></trkpt>
      <trkpt lat="-39.82910913778545" lon="-73.1459849879806"><ele>0.0</ele></trkpt>
      <trkpt lat="-39.81894165427713" lon="-73.20263139853031"><ele>0.0</ele></trkpt>
      <trkpt lat="-39.81915815391649" lon="-73.20098107107268"><ele>0.0</ele></trkpt>
      <trkpt lat="-39.81897149145001" lon="-73.19974517850318"><ele>0.0</ele></trkpt>
      <trkpt lat="-39.81837654414196" lon="-73.19847279451125"><ele>0.0</ele></trkpt>
      <trkpt lat="-39.81852603622453" lon="-73.19788473356667"><ele>0.0</ele></trkpt>
      <trkpt lat="-39.81919895337723" lon="-73.19724295811433"><ele>0.0</ele></trkpt>
      <trkpt lat="-39.81969501587424" lon="-73.19693339613721"><ele>0.0</ele></trkpt>
      <trkpt lat="-39.82012799446907" lon="-73.19653725588853"><ele>0.0</ele></trkpt>
      <trkpt lat="-39.82055582053424" lon="-73.19571291173018"><ele>0.0</ele></trkpt>
      <trkpt lat="-39.82093855770685" lon="-73.19530753820587"><ele>0.0</ele></trkpt>
      <trkpt lat="-39.8210492529963" lon="-73.19497641820267"><ele>0.0</ele></trkpt>
      <trkpt lat="-39.82156180395985" lon="-73.19428287327379"><ele>0.0</ele></trkpt>
      <trkpt lat="-39.82229123846638" lon="-73.19383923227734"><ele>0.0</ele></trkpt>
      <trkpt lat="-39.82269171637381" lon="-73.19387421684917"><ele>0.0</ele></trkpt>
      <trkpt lat="-39.8235119001022" lon="-73.19322259183262"><ele>0.0</ele></trkpt>
      <trkpt lat="-39.82375469766485" lon="-73.19223473517994"><ele>0.0</ele></trkpt>
      <trkpt lat="-39.82371762802257" lon="-73.19172124083275"><ele>0.0</ele></trkpt>
      <trkpt lat="-39.82356304134224" lon="-73.19117188396905"><ele>0.0</ele></trkpt>
      <trkpt lat="-39.82360822303104" lon="-73.19059439408642"><ele>0.0</ele></trkpt>
      <trkpt lat="-39.82345958669613" lon="-73.19022088862991"><ele>0.0</ele></trkpt>
      <trkpt lat="-39.82346899452681" lon="-73.18997565187117"><ele>0.0</ele></trkpt>
      <trkpt lat="-39.82353847625365" lon="-73.18984488360223"><ele>0.0</ele></trkpt>
      <trkpt lat="-39.82392160051921" lon="-73.18964574529855"><ele>0.0</ele></trkpt>
      <trkpt lat="-39.82410741263354" lon="-73.18938209776884"><ele>0.0</ele></trkpt>
      <trkpt lat="-39.82421528102097" lon="-73.1888740716828"><ele>0.0</ele></trkpt>
      <trkpt lat="-39.82471790556998" lon="-73.18784853990415"><ele>0.0</ele></trkpt>
      <trkpt lat="-39.82514113098338" lon="-73.18665616538901"><ele>0.0</ele></trkpt>
      <trkpt lat="-39.82540208445628" lon="-73.18567101957139"><ele>0.0</ele></trkpt>
      <trkpt lat="-39.82544141954769" lon="-73.18514214406056"><ele>0.0</ele></trkpt>
      <trkpt lat="-39.82560418457611" lon="-73.18474406294278"><ele>0.0</ele></trkpt>
      <trkpt lat="-39.82629721604096" lon="-73.1834611000857"><ele>0.0</ele></trkpt>
      <trkpt lat="-39.82649314228261" lon="-73.18323575496004"><ele>0.0</ele></trkpt>
      <trkpt lat="-39.82678326927884" lon="-73.18310717594439"><ele>0.0</ele></trkpt>
      <trkpt lat="-39.827616612376" lon="-73.18327030168375"><ele>0.0</ele></trkpt>
      <trkpt lat="-39.82800376256861" lon="-73.18304845327451"><ele>0.0</ele></trkpt>
      <trkpt lat="-39.82834447791146" lon="-73.18265951075922"><ele>0.0</ele></trkpt>
      <trkpt lat="-39.82837939252754" lon="-73.18249806024932"><ele>0.0</ele></trkpt>
      <trkpt lat="-39.82825191648129" lon="-73.18189877158252"><ele>0.0</ele></trkpt>
      <trkpt lat="-39.82815651490701" lon="-73.18175170776445"><ele>0.0</ele></trkpt>
      <trkpt lat="-39.82779915454934" lon="-73.18155658240856"><ele>0.0</ele></trkpt>
      <trkpt lat="-39.82775170091853" lon="-73.18091999338272"><ele>0.0</ele></trkpt>
      <trkpt lat="-39.82760835542078" lon="-73.18071834690512"><ele>0.0</ele></trkpt>
      <trkpt lat="-39.82730817321078" lon="-73.1806196096303"><ele>0.0</ele></trkpt>
      <trkpt lat="-39.82722042954287" lon="-73.18049311311086"><ele>0.0</ele></trkpt>
      <trkpt lat="-39.8271944855038" lon="-73.17981281110083"><ele>0.0</ele></trkpt>
      <trkpt lat="-39.82759385928138" lon="-73.17910079929348"><ele>0.0</ele></trkpt>
      <trkpt lat="-39.82773933955614" lon="-73.17907650674698"><ele>0.0</ele></trkpt>
      <trkpt lat="-39.82860221276297" lon="-73.17940979890355"><ele>0.0</ele></trkpt>
      <trkpt lat="-39.82894174498084" lon="-73.17930711958262"><ele>0.0</ele></trkpt>
      <trkpt lat="-39.82909809417084" lon="-73.179077191722"><ele>0.0</ele></trkpt>
      <trkpt lat="-39.8291306216612" lon="-73.17846059720651"><ele>0.0</ele></trkpt>
      <trkpt lat="-39.82924740051362" lon="-73.17820139024984"><ele>0.0</ele></trkpt>
      <trkpt lat="-39.82973523408896" lon="-73.17812283607392"><ele>0.0</ele></trkpt>
      <trkpt lat="-39.83018285246274" lon="-73.1783949743109"><ele>0.0</ele></trkpt>
      <trkpt lat="-39.8302620232071" lon="-73.17818398279447"><ele>0.0</ele></trkpt>
      <trkpt lat="-39.83089595341104" lon="-73.17768914556015"><ele>0.0</ele></trkpt>
      <trkpt lat="-39.83104740833573" lon="-73.17730978120689"><ele>0.0</ele></trkpt>
      <trkpt lat="-39.83104480710811" lon="-73.17668297557611"><ele>0.0</ele></trkpt>
      <trkpt lat="-39.83121469948743" lon="-73.17643177703789"><ele>0.0</ele></trkpt>
      <trkpt lat="-39.83126344115345" lon="-73.17617347443449"><ele>0.0</ele></trkpt>
      <trkpt lat="-39.83106180683549" lon="-73.1757282218669"><ele>0.0</ele></trkpt>
      <trkpt lat="-39.83155609979078" lon="-73.1753541095064"><ele>0.0</ele></trkpt>
      <trkpt lat="-39.83177470706077" lon="-73.17501171347166"><ele>0.0</ele></trkpt>
      <trkpt lat="-39.83207610466491" lon="-73.17418526380362"><ele>0.0</ele></trkpt>
      <trkpt lat="-39.83209412693559" lon="-73.173758500506"><ele>0.0</ele></trkpt>
      <trkpt lat="-39.83240007660847" lon="-73.17339176938742"><ele>0.0</ele></trkpt>
      <trkpt lat="-39.83268929448158" lon="-73.1722350645876"><ele>0.0</ele></trkpt>
      <trkpt lat="-39.83327211199926" lon="-73.17129080484983"><ele>0.0</ele></trkpt>
      <trkpt lat="-39.83342412223558" lon="-73.17017381323652"><ele>0.0</ele></trkpt>
      <trkpt lat="-39.83332555512434" lon="-73.16958352547297"><ele>0.0</ele></trkpt>
      <trkpt lat="-39.83261489163748" lon="-73.16932500637267"><ele>0.0</ele></trkpt>
      <trkpt lat="-39.83232434268976" lon="-73.16858623875785"><ele>0.0</ele></trkpt>
      <trkpt lat="-39.83205996154141" lon="-73.16822896013205"><ele>0.0</ele></trkpt>
      <trkpt lat="-39.83180640766098" lon="-73.16797534929393"><ele>0.0</ele></trkpt>
      <trkpt lat="-39.83126170695302" lon="-73.16766212810602"><ele>0.0</ele></trkpt>
      <trkpt lat="-39.83066942254379" lon="-73.16710771942034"><ele>0.0</ele></trkpt>
      <trkpt lat="-39.83086509198631" lon="-73.16644968944622"><ele>0.0</ele></trkpt>
      <trkpt lat="-39.83155729452798" lon="-73.16299769225313"><ele>0.0</ele></trkpt>
      <trkpt lat="-39.83138046620083" lon="-73.16159335928242"><ele>0.0</ele></trkpt>
      <trkpt lat="-39.83179145416178" lon="-73.16093222278356"><ele>0.0</ele></trkpt>
      <trkpt lat="-39.83192800377677" lon="-73.15975950852882"><ele>0.0</ele></trkpt>
      <trkpt lat="-39.83216595268241" lon="-73.15930390874793"><ele>0.0</ele></trkpt>
      <trkpt lat="-39.83217318999856" lon="-73.1583165083331"><ele>0.0</ele></trkpt>
      <trkpt lat="-39.83240664136362" lon="-73.15746054199442"><ele>0.0</ele></trkpt>
      <trkpt lat="-39.8323690332065" lon="-73.15714996347037"><ele>0.0</ele></trkpt>
      <trkpt lat="-39.83222683573415" lon="-73.1568757321203"><ele>0.0</ele></trkpt>
      <trkpt lat="-39.831949848339" lon="-73.15659133590486"><ele>0.0</ele></trkpt>
      <trkpt lat="-39.8316782873038" lon="-73.15644595890305"><ele>0.0</ele></trkpt>
      <trkpt lat="-39.83133701586873" lon="-73.15669787096869"><ele>0.0</ele></trkpt>
      <trkpt lat="-39.8310610383968" lon="-73.15739428335328"><ele>0.0</ele></trkpt>
      <trkpt lat="-39.83093177120533" lon="-73.15821479320036"><ele>0.0</ele></trkpt>
      <trkpt lat="-39.83092935820103" lon="-73.15890347137216"><ele>0.0</ele></trkpt>
      <trkpt lat="-39.83047489853803" lon="-73.15927858112333"><ele>0.0</ele></trkpt>
      <trkpt lat="-39.83037778303514" lon="-73.15959836620421"><ele>0.0</ele></trkpt>
      <trkpt lat="-39.83042155601612" lon="-73.16121906376401"><ele>0.0</ele></trkpt>
      <trkpt lat="-39.83083352743334" lon="-73.16193007495451"><ele>0.0</ele></trkpt>
      <trkpt lat="-39.83096116982239" lon="-73.16251474589684"><ele>0.0</ele></trkpt>
      <trkpt lat="-39.83092591265208" lon="-73.16282302910254"><ele>0.0</ele></trkpt>
      <trkpt lat="-39.83039306713918" lon="-73.16437135540482"><ele>0.0</ele></trkpt>
      <trkpt lat="-39.83005485639824" lon="-73.16478693068856"><ele>0.0</ele></trkpt>
      <trkpt lat="-39.82997373246803" lon="-73.16523669668999"><ele>0.0</ele></trkpt>
      <trkpt lat="-39.83028617384691" lon="-73.166251728803"><ele>0.0</ele></trkpt>
      <trkpt lat="-39.83067662580925" lon="-73.1670024329644"><ele>0.0</ele></trkpt>
      <trkpt lat="-39.81894165427713" lon="-73.20263139853031"><ele>0.0</ele></trkpt>
      <trkpt lat="-39.81915815391649" lon="-73.20098107107268"><ele>0.0</ele></trkpt>
      <trkpt lat="-39.81897149145001" lon="-73.19974517850318"><ele>0.0</ele></trkpt>
      <trkpt lat="-39.81837654414196" lon="-73.19847279451125"><ele>0.0</ele></trkpt>
      <trkpt lat="-39.81843653071924" lon="-73.19809558090215"><ele>0.0</ele></trkpt>
      <trkpt lat="-39.81859213634635" lon="-73.19778536256014"><ele>0.0</ele></trkpt>
      <trkpt lat="-39.82012799446907" lon="-73.19653725588853"><ele>0.0</ele></trkpt>
      <trkpt lat="-39.82055582053424" lon="-73.19571291173018"><ele>0.0</ele></trkpt>
      <trkpt lat="-39.82093855770685" lon="-73.19530753820587"><ele>0.0</ele></trkpt>
      <trkpt lat="-39.8210492529963" lon="-73.19497641820267"><ele>0.0</ele></trkpt>
      <trkpt lat="-39.82156180395985" lon="-73.19428287327379"><ele>0.0</ele></trkpt>
      <trkpt lat="-39.82229123846638" lon="-73.19383923227734"><ele>0.0</ele></trkpt>
      <trkpt lat="-39.82269171637381" lon="-73.19387421684917"><ele>0.0</ele></trkpt>
      <trkpt lat="-39.8235119001022" lon="-73.19322259183262"><ele>0.0</ele></trkpt>
      <trkpt lat="-39.82375469766485" lon="-73.19223473517994"><ele>0.0</ele></trkpt>
      <trkpt lat="-39.82371762802257" lon="-73.19172124083275"><ele>0.0</ele></trkpt>
      <trkpt lat="-39.82356304134224" lon="-73.19117188396905"><ele>0.0</ele></trkpt>
      <trkpt lat="-39.82360822303104" lon="-73.19059439408642"><ele>0.0</ele></trkpt>
      <trkpt lat="-39.82345958669613" lon="-73.19022088862991"><ele>0.0</ele></trkpt>
      <trkpt lat="-39.82346899452681" lon="-73.18997565187117"><ele>0.0</ele></trkpt>
      <trkpt lat="-39.82353847625365" lon="-73.18984488360223"><ele>0.0</ele></trkpt>
      <trkpt lat="-39.82392160051921" lon="-73.18964574529855"><ele>0.0</ele></trkpt>
      <trkpt lat="-39.82410741263354" lon="-73.18938209776884"><ele>0.0</ele></trkpt>
      <trkpt lat="-39.82421528102097" lon="-73.1888740716828"><ele>0.0</ele></trkpt>
      <trkpt lat="-39.82471790556998" lon="-73.18784853990415"><ele>0.0</ele></trkpt>
      <trkpt lat="-39.82514113098338" lon="-73.18665616538901"><ele>0.0</ele></trkpt>
      <trkpt lat="-39.82540208445628" lon="-73.18567101957139"><ele>0.0</ele></trkpt>
      <trkpt lat="-39.82547611991196" lon="-73.18503113393429"><ele>0.0</ele></trkpt>
      <trkpt lat="-39.82629721604096" lon="-73.1834611000857"><ele>0.0</ele></trkpt>
      <trkpt lat="-39.82649314228261" lon="-73.18323575496004"><ele>0.0</ele></trkpt>
      <trkpt lat="-39.82678326927884" lon="-73.18310717594439"><ele>0.0</ele></trkpt>
      <trkpt lat="-39.827616612376" lon="-73.18327030168375"><ele>0.0</ele></trkpt>
      <trkpt lat="-39.82823773430019" lon="-73.18283806757206"><ele>0.0</ele></trkpt>
      <trkpt lat="-39.82846197766197" lon="-73.1823529606293"><ele>0.0</ele></trkpt>
      <trkpt lat="-39.82868585662413" lon="-73.18149888283989"><ele>0.0</ele></trkpt>
      <trkpt lat="-39.82862966026958" lon="-73.1812383404281"><ele>0.0</ele></trkpt>
      <trkpt lat="-39.82818858197172" lon="-73.18077392365674"><ele>0.0</ele></trkpt>
      <trkpt lat="-39.82817289655633" lon="-73.18055315965962"><ele>0.0</ele></trkpt>
      <trkpt lat="-39.82824786872612" lon="-73.18040093876667"><ele>0.0</ele></trkpt>
      <trkpt lat="-39.82840297493718" lon="-73.1803549461506"><ele>0.0</ele></trkpt>
      <trkpt lat="-39.82867763657649" lon="-73.1804136850118"><ele>0.0</ele></trkpt>
      <trkpt lat="-39.82948664081434" lon="-73.18110907744318"><ele>0.0</ele></trkpt>
      <trkpt lat="-39.83017687729197" lon="-73.1815751343314"><ele>0.0</ele></trkpt>
      <trkpt lat="-39.83049832335043" lon="-73.18161151399111"><ele>0.0</ele></trkpt>
      <trkpt lat="-39.83079007887468" lon="-73.18150990711929"><ele>0.0</ele></trkpt>
      <trkpt lat="-39.830993477047" lon="-73.1813594206365"><ele>0.0</ele></trkpt>
      <trkpt lat="-39.83176550985841" lon="-73.18034327809654"><ele>0.0</ele></trkpt>
      <trkpt lat="-39.83215051784939" lon="-73.17942654243465"><ele>0.0</ele></trkpt>
      <trkpt lat="-39.83271709727483" lon="-73.17874200600669"><ele>0.0</ele></trkpt>
      <trkpt lat="-39.83320862987711" lon="-73.17830031029935"><ele>0.0</ele></trkpt>
      <trkpt lat="-39.83445660945557" lon="-73.1776579125859"><ele>0.0</ele></trkpt>
      <trkpt lat="-39.83571494411734" lon="-73.17729040692578"><ele>0.0</ele></trkpt>
      <trkpt lat="-39.83630584731878" lon="-73.17732533601777"><ele>0.0</ele></trkpt>
      <trkpt lat="-39.83657922310482" lon="-73.17742425659681"><ele>0.0</ele></trkpt>
      <trkpt lat="-39.83684790580999" lon="-73.17770307125545"><ele>0.0</ele></trkpt>
      <trkpt lat="-39.83693189720206" lon="-73.17810204842704"><ele>0.0</ele></trkpt>
      <trkpt lat="-39.83691323874799" lon="-73.17854506071052"><ele>0.0</ele></trkpt>
      <trkpt lat="-39.83701950223163" lon="-73.17867498992753"><ele>0.0</ele></trkpt>
      <trkpt lat="-39.83744692430221" lon="-73.17877572516487"><ele>0.0</ele></trkpt>
      <trkpt lat="-39.83758371258528" lon="-73.17871049075097"><ele>0.0</ele></trkpt>
      <trkpt lat="-39.83764594877695" lon="-73.17855509639597"><ele>0.0</ele></trkpt>
      <trkpt lat="-39.83764514461851" lon="-73.1778017600344"><ele>0.0</ele></trkpt>
      <trkpt lat="-39.83773323034224" lon="-73.17767232593584"><ele>0.0</ele></trkpt>
      <trkpt lat="-39.83839725323907" lon="-73.17740787697454"><ele>0.0</ele></trkpt>
      <trkpt lat="-39.83874967360191" lon="-73.17696073422294"><ele>0.0</ele></trkpt>
      <trkpt lat="-39.83880866926341" lon="-73.17677619073116"><ele>0.0</ele></trkpt>
      <trkpt lat="-39.83892556116049" lon="-73.17611025976147"><ele>0.0</ele></trkpt>
      <trkpt lat="-39.838585029215" lon="-73.1752008344348"><ele>0.0</ele></trkpt>
      <trkpt lat="-39.83870477927545" lon="-73.17497605341696"><ele>0.0</ele></trkpt>
      <trkpt lat="-39.83925624094095" lon="-73.17443897318614"><ele>0.0</ele></trkpt>
      <trkpt lat="-39.84016681342187" lon="-73.17319396807218"><ele>0.0</ele></trkpt>
      <trkpt lat="-39.84057000942843" lon="-73.17250562873582"><ele>0.0</ele></trkpt>
      <trkpt lat="-39.84070977051003" lon="-73.17171863980055"><ele>0.0</ele></trkpt>
      <trkpt lat="-39.84132380788137" lon="-73.17089723353774"><ele>0.0</ele></trkpt>
      <trkpt lat="-39.8414374316724" lon="-73.17055327764072"><ele>0.0</ele></trkpt>
      <trkpt lat="-39.84197530853807" lon="-73.16963756463544"><ele>0.0</ele></trkpt>
      <trkpt lat="-39.84212857494254" lon="-73.16840268219372"><ele>0.0</ele></trkpt>
      <trkpt lat="-39.84256510891696" lon="-73.1675844698855"><ele>0.0</ele></trkpt>
      <trkpt lat="-39.84329288783172" lon="-73.16563962052388"><ele>0.0</ele></trkpt>
      <trkpt lat="-39.84308920227731" lon="-73.16517172665333"><ele>0.0</ele></trkpt>
      <trkpt lat="-39.84302316033892" lon="-73.16480190921291"><ele>0.0</ele></trkpt>
      <trkpt lat="-39.84323641018775" lon="-73.16418914646604"><ele>0.0</ele></trkpt>
      <trkpt lat="-39.84308936016909" lon="-73.16355894479055"><ele>0.0</ele></trkpt>
      <trkpt lat="-39.8431140629392" lon="-73.16315006974575"><ele>0.0</ele></trkpt>
      <trkpt lat="-39.84317956187896" lon="-73.1629979982442"><ele>0.0</ele></trkpt>
      <trkpt lat="-39.84342138359217" lon="-73.16284007247668"><ele>0.0</ele></trkpt>
      <trkpt lat="-39.84431829601127" lon="-73.16262017927791"><ele>0.0</ele></trkpt>
      <trkpt lat="-39.84436895216299" lon="-73.16254027660561"><ele>0.0</ele></trkpt>
      <trkpt lat="-39.84437617523127" lon="-73.16238899911951"><ele>0.0</ele></trkpt>
      <trkpt lat="-39.84417946586343" lon="-73.16201181769499"><ele>0.0</ele></trkpt>
      <trkpt lat="-39.84417948971929" lon="-73.16158513717008"><ele>0.0</ele></trkpt>
      <trkpt lat="-39.84369630409689" lon="-73.16111057077887"><ele>0.0</ele></trkpt>
      <trkpt lat="-39.84308133529982" lon="-73.1602733882184"><ele>0.0</ele></trkpt>
      <trkpt lat="-39.84274625723603" lon="-73.16014301296738"><ele>0.0</ele></trkpt>
      <trkpt lat="-39.84236175528815" lon="-73.1603887398326"><ele>0.0</ele></trkpt>
      <trkpt lat="-39.84196859645267" lon="-73.1603770938657"><ele>0.0</ele></trkpt>
      <trkpt lat="-39.8417774060066" lon="-73.16015476579662"><ele>0.0</ele></trkpt>
      <trkpt lat="-39.84165303192555" lon="-73.16012992061809"><ele>0.0</ele></trkpt>
      <trkpt lat="-39.84103194831968" lon="-73.16038626950586"><ele>0.0</ele></trkpt>
      <trkpt lat="-39.84046439489386" lon="-73.16079810867537"><ele>0.0</ele></trkpt>
      <trkpt lat="-39.84027337580728" lon="-73.16103849126421"><ele>0.0</ele></trkpt>
      <trkpt lat="-39.84012128143737" lon="-73.16181625583876"><ele>0.0</ele></trkpt>
      <trkpt lat="-39.83981898611033" lon="-73.16217950823524"><ele>0.0</ele></trkpt>
      <trkpt lat="-39.8392239036625" lon="-73.16241137953446"><ele>0.0</ele></trkpt>
      <trkpt lat="-39.83859243264423" lon="-73.16244772547752"><ele>0.0</ele></trkpt>
      <trkpt lat="-39.8383288680141" lon="-73.16238712617928"><ele>0.0</ele></trkpt>
      <trkpt lat="-39.83834728019382" lon="-73.1621451943376"><ele>0.0</ele></trkpt>
      <trkpt lat="-39.83860145454792" lon="-73.16187734917278"><ele>0.0</ele></trkpt>
      <trkpt lat="-39.83835787372732" lon="-73.16123093514021"><ele>0.0</ele></trkpt>
      <trkpt lat="-39.83836589503382" lon="-73.16062653805521"><ele>0.0</ele></trkpt>
      <trkpt lat="-39.83858676745663" lon="-73.15980046008711"><ele>0.0</ele></trkpt>
      <trkpt lat="-39.83884838682766" lon="-73.1592116290642"><ele>0.0</ele></trkpt>
      <trkpt lat="-39.83887871475149" lon="-73.15890303678493"><ele>0.0</ele></trkpt>
      <trkpt lat="-39.83884080922149" lon="-73.15881405527317"><ele>0.0</ele></trkpt>
      <trkpt lat="-39.83849278719139" lon="-73.15871998003279"><ele>0.0</ele></trkpt>
      <trkpt lat="-39.83824564145554" lon="-73.15850826695873"><ele>0.0</ele></trkpt>
      <trkpt lat="-39.83795072152763" lon="-73.15775306899693"><ele>0.0</ele></trkpt>
      <trkpt lat="-39.83770669192499" lon="-73.15739968923312"><ele>0.0</ele></trkpt>
      <trkpt lat="-39.83714765871223" lon="-73.15718924432329"><ele>0.0</ele></trkpt>
      <trkpt lat="-39.83689257171056" lon="-73.1572982056958"><ele>0.0</ele></trkpt>
      <trkpt lat="-39.83618544922796" lon="-73.15720764664164"><ele>0.0</ele></trkpt>
      <trkpt lat="-39.83524934641945" lon="-73.15675495457243"><ele>0.0</ele></trkpt>
      <trkpt lat="-39.83491991163741" lon="-73.1573939663942"><ele>0.0</ele></trkpt>
      <trkpt lat="-39.83419467677621" lon="-73.15744281421058"><ele>0.0</ele></trkpt>
      <trkpt lat="-39.83364062803643" lon="-73.15784901330292"><ele>0.0</ele></trkpt>
      <trkpt lat="-39.8330021604301" lon="-73.15818180680957"><ele>0.0</ele></trkpt>
      <trkpt lat="-39.8328863249314" lon="-73.15830688192885"><ele>0.0</ele></trkpt>
      <trkpt lat="-39.83273294310144" lon="-73.15894593085066"><ele>0.0</ele></trkpt>
      <trkpt lat="-39.83256317669667" lon="-73.15914128973088"><ele>0.0</ele></trkpt>
      <trkpt lat="-39.83227535016034" lon="-73.15919823837164"><ele>0.0</ele></trkpt>
      <trkpt lat="-39.83217260290701" lon="-73.1590824133074"><ele>0.0</ele></trkpt>
      <trkpt lat="-39.83215053177081" lon="-73.15853559658724"><ele>0.0</ele></trkpt>
      <trkpt lat="-39.83239912403882" lon="-73.157280464899"><ele>0.0</ele></trkpt>
      <trkpt lat="-39.83222165236157" lon="-73.15690250657244"><ele>0.0</ele></trkpt>
      <trkpt lat="-39.83196362069207" lon="-73.15659671228383"><ele>0.0</ele></trkpt>
      <trkpt lat="-39.8316600180756" lon="-73.15645109019704"><ele>0.0</ele></trkpt>
      <trkpt lat="-39.83134655403354" lon="-73.15668983972998"><ele>0.0</ele></trkpt>
      <trkpt lat="-39.83106219250652" lon="-73.15739985732041"><ele>0.0</ele></trkpt>
      <trkpt lat="-39.83093196070302" lon="-73.15820149605851"><ele>0.0</ele></trkpt>
      <trkpt lat="-39.83097830700924" lon="-73.15859991292832"><ele>0.0</ele></trkpt>
      <trkpt lat="-39.83092220737468" lon="-73.15891520241865"><ele>0.0</ele></trkpt>
      <trkpt lat="-39.83047821712675" lon="-73.15927201431835"><ele>0.0</ele></trkpt>
      <trkpt lat="-39.8303765063493" lon="-73.15959859893556"><ele>0.0</ele></trkpt>
      <trkpt lat="-39.83042713350022" lon="-73.1612580551819"><ele>0.0</ele></trkpt>
      <trkpt lat="-39.83083102108105" lon="-73.16192943234623"><ele>0.0</ele></trkpt>
      <trkpt lat="-39.83096055297288" lon="-73.1625127763466"><ele>0.0</ele></trkpt>
      <trkpt lat="-39.8309259440121" lon="-73.16282645088614"><ele>0.0</ele></trkpt>
      <trkpt lat="-39.83042630722969" lon="-73.1642885192271"><ele>0.0</ele></trkpt>
      <trkpt lat="-39.83007217679349" lon="-73.16474881803038"><ele>0.0</ele></trkpt>
      <trkpt lat="-39.82997245024546" lon="-73.16526058434722"><ele>0.0</ele></trkpt>
      <trkpt lat="-39.83031572585449" lon="-73.16632417748144"><ele>0.0</ele></trkpt>
      <trkpt lat="-39.83067911069091" lon="-73.16700357467346"><ele>0.0</ele></trkpt>
      <trkpt lat="-39.83085318182493" lon="-73.16648356035329"><ele>0.0</ele></trkpt>
      <trkpt lat="-39.83155732878661" lon="-73.16299641992426"><ele>0.0</ele></trkpt>
      <trkpt lat="-39.83137702307318" lon="-73.16158726891696"><ele>0.0</ele></trkpt>
      <trkpt lat="-39.83179136804454" lon="-73.16093172733996"><ele>0.0</ele></trkpt>
      <trkpt lat="-39.83189536430392" lon="-73.15991292289111"><ele>0.0</ele></trkpt>
      <trkpt lat="-39.83216522789702" lon="-73.15930247805568"><ele>0.0</ele></trkpt>
      <trkpt lat="-39.83218264307548" lon="-73.15910006740155"><ele>0.0</ele></trkpt>
      <trkpt lat="-39.81884042999999" lon="-73.20292634"><ele>0.0</ele></trkpt>
      <trkpt lat="-39.81892494845651" lon="-73.2026535368116"><ele>0.0</ele></trkpt>
      <trkpt lat="-39.81740211279033" lon="-73.20237173053897"><ele>0.0</ele></trkpt>
      <trkpt lat="-39.8188683975644" lon="-73.20292106796767"><ele>0.0</ele></trkpt>
      <trkpt lat="-39.81822630709368" lon="-73.20305913253745"><ele>0.0</ele></trkpt>
      <trkpt lat="-39.81856714175577" lon="-73.20314953208545"><ele>0.0</ele></trkpt>
      <trkpt lat="-39.82088964983136" lon="-73.17801560856863"><ele>0.0</ele></trkpt>
      <trkpt lat="-39.82292697" lon="-73.19405667"><ele>0.0</ele></trkpt>
      <trkpt lat="-39.82839089851224" lon="-73.18249506002735"><ele>0.0</ele></trkpt>
      <trkpt lat="-39.81892132890545" lon="-73.20343967744822"><ele>0.0</ele></trkpt>
      <trkpt lat="-39.82342317057427" lon="-73.19961209610807"><ele>0.0</ele></trkpt>
      <trkpt lat="-39.82013051477733" lon="-73.19655910941893"><ele>0.0</ele></trkpt>
      <trkpt lat="-39.81768983158469" lon="-73.18845921049089"><ele>0.0</ele></trkpt>
      <trkpt lat="-39.82674250760321" lon="-73.18298655472846"><ele>0.0</ele></trkpt>
      <trkpt lat="-39.81789647" lon="-73.18476004"><ele>182.018539428711</ele></trkpt>
      <trkpt lat="-39.81855555555561" lon="-73.19775000000001"><ele>0.0</ele></trkpt>
      <trkpt lat="-39.81852941" lon="-73.18987869999998"><ele>0.0</ele></trkpt>
      <trkpt lat="-39.81678407747417" lon="-73.1845610864595"><ele>0.0</ele></trkpt>
      <trkpt lat="-39.82304165" lon="-73.19064826"><ele>89.8998565673828</ele></trkpt>
      <trkpt lat="-39.82292196000001" lon="-73.19030307999996"><ele>0.0</ele></trkpt>
      <trkpt lat="-39.81834377648141" lon="-73.19833093760752"><ele>0.0</ele></trkpt>
      <trkpt lat="-39.82978203734896" lon="-73.14624785606705"><ele>0.0</ele></trkpt>
      <trkpt lat="-39.82350317204001" lon="-73.18976383544444"><ele>0.0</ele></trkpt>
      <trkpt lat="-39.83067805762347" lon="-73.16701129310648"><ele>0.0</ele></trkpt>
      <trkpt lat="-39.83196356197311" lon="-73.15655881889634"><ele>0.0</ele></trkpt>
      <trkpt lat="-39.83727070745913" lon="-73.15721943653193"><ele>0.0</ele></trkpt>
    </trkseg>
  </trk>
</gpx>