<?xml version='1.0' encoding='UTF-8'?>
<gpx xmlns="http://www.topografix.com/GPX/1/1" xmlns:xsi="http://www.w3.org/2001/XMLSchema-instance" version="1.1" creator="Bosque Abierto MTB - Guardianes del Bosque" xsi:schemaLocation="http://www.topografix.com/GPX/1/1 http://www.topografix.com/GPX/1/1/gpx.xsd">
  <metadata>
    <name>Penco Bike Park Negro</name>
    <desc>Ruta MTB Bosque Abierto - ARAUCO Renovables</desc>
    <author>
      <name>Guardianes del Bosque MTB</name>
    </author>
    <time>2024-01-01T10:00:00Z</time>
  </metadata>
  <trk>
    <name>Penco Bike Park Negro</name>
    <type>cycling</type>
    <trkseg>
      <trkpt lat="-36.7479420" lon="-72.9894230">
        <ele>79.4</ele>
        <time>2024-01-01T10:00:00Z</time>
      </trkpt>
      <trkpt lat="-36.7478920" lon="-72.9895620">
        <ele>87.9</ele>
        <time>2024-01-01T10:00:12Z</time>
      </trkpt>
      <trkpt lat="-36.7479640" lon="-72.9897140">
        <ele>89.6</ele>
        <time>2024-01-01T10:00:21Z</time>
      </trkpt>
      <trkpt lat="-36.7485490" lon="-72.9903200">
        <ele>110.7</ele>
        <time>2024-01-01T10:01:09Z</time>
      </trkpt>
      <trkpt lat="-36.7488600" lon="-72.9904820">
        <ele>114.8</ele>
        <time>2024-01-01T10:01:30Z</time>
      </trkpt>
      <trkpt lat="-36.7489560" lon="-72.9904340">
        <ele>114.6</ele>
        <time>2024-01-01T10:01:36Z</time>
      </trkpt>
      <trkpt lat="-36.7489760" lon="-72.9902440">
        <ele>114.3</ele>
        <time>2024-01-01T10:01:45Z</time>
      </trkpt>
      <trkpt lat="-36.7495570" lon="-72.9894330">
        <ele>129.4</ele>
        <time>2024-01-01T10:01:48Z</time>
      </trkpt>
      <trkpt lat="-36.7496760" lon="-72.9894590">
        <ele>129.5</ele>
        <time>2024-01-01T10:01:51Z</time>
      </trkpt>
      <trkpt lat="-36.7496110" lon="-72.9893980">
        <ele>129.7</ele>
        <time>2024-01-01T10:01:54Z</time>
      </trkpt>
      <trkpt lat="-36.7496530" lon="-72.9893530">
        <ele>129.8</ele>
        <time>2024-01-01T10:01:57Z</time>
      </trkpt>
      <trkpt lat="-36.7499380" lon="-72.9894770">
        <ele>132.3</ele>
        <time>2024-01-01T10:02:15Z</time>
      </trkpt>
      <trkpt lat="-36.7511230" lon="-72.9896190">
        <ele>131.9</ele>
        <time>2024-01-01T10:03:18Z</time>
      </trkpt>
      <trkpt lat="-36.7515340" lon="-72.9894350">
        <ele>134.5</ele>
        <time>2024-01-01T10:03:42Z</time>
      </trkpt>
      <trkpt lat="-36.7515280" lon="-72.9894960">
        <ele>134.7</ele>
        <time>2024-01-01T10:03:45Z</time>
      </trkpt>
      <trkpt lat="-36.7519670" lon="-72.9894690">
        <ele>138.7</ele>
        <time>2024-01-01T10:04:09Z</time>
      </trkpt>
      <trkpt lat="-36.7522410" lon="-72.9891010">
        <ele>143.6</ele>
        <time>2024-01-01T10:04:33Z</time>
      </trkpt>
      <trkpt lat="-36.7522170" lon="-72.9890170">
        <ele>144.7</ele>
        <time>2024-01-01T10:04:36Z</time>
      </trkpt>
      <trkpt lat="-36.7524800" lon="-72.9889170">
        <ele>150.6</ele>
        <time>2024-01-01T10:04:51Z</time>
      </trkpt>
      <trkpt lat="-36.7527100" lon="-72.9889800">
        <ele>153.4</ele>
        <time>2024-01-01T10:05:06Z</time>
      </trkpt>
      <trkpt lat="-36.7530770" lon="-72.9888400">
        <ele>160.0</ele>
        <time>2024-01-01T10:05:30Z</time>
      </trkpt>
      <trkpt lat="-36.7531550" lon="-72.9886840">
        <ele>161.2</ele>
        <time>2024-01-01T10:05:39Z</time>
      </trkpt>
      <trkpt lat="-36.7530390" lon="-72.9883470">
        <ele>165.8</ele>
        <time>2024-01-01T10:05:57Z</time>
      </trkpt>
      <trkpt lat="-36.7531770" lon="-72.9880990">
        <ele>169.0</ele>
        <time>2024-01-01T10:06:12Z</time>
      </trkpt>
      <trkpt lat="-36.7532690" lon="-72.9880810">
        <ele>171.7</ele>
        <time>2024-01-01T10:06:18Z</time>
      </trkpt>
      <trkpt lat="-36.7535320" lon="-72.9883480">
        <ele>177.6</ele>
        <time>2024-01-01T10:06:39Z</time>
      </trkpt>
      <trkpt lat="-36.7552180" lon="-72.9776260">
        <ele>190.2</ele>
        <time>2024-01-01T10:06:51Z</time>
      </trkpt>
      <trkpt lat="-36.7555710" lon="-72.9776300">
        <ele>197.2</ele>
        <time>2024-01-01T10:07:12Z</time>
      </trkpt>
      <trkpt lat="-36.7555900" lon="-72.9773580">
        <ele>204.5</ele>
        <time>2024-01-01T10:07:27Z</time>
      </trkpt>
      <trkpt lat="-36.7561030" lon="-72.9771290">
        <ele>215.6</ele>
        <time>2024-01-01T10:07:57Z</time>
      </trkpt>
      <trkpt lat="-36.7566570" lon="-72.9771810">
        <ele>219.9</ele>
        <time>2024-01-01T10:08:30Z</time>
      </trkpt>
      <trkpt lat="-36.7567540" lon="-72.9769500">
        <ele>223.6</ele>
        <time>2024-01-01T10:08:42Z</time>
      </trkpt>
      <trkpt lat="-36.7568430" lon="-72.9769100">
        <ele>224.0</ele>
        <time>2024-01-01T10:08:48Z</time>
      </trkpt>
      <trkpt lat="-36.7569050" lon="-72.9766260">
        <ele>225.2</ele>
        <time>2024-01-01T10:09:03Z</time>
      </trkpt>
      <trkpt lat="-36.7566480" lon="-72.9754520">
        <ele>241.8</ele>
        <time>2024-01-01T10:09:54Z</time>
      </trkpt>
      <trkpt lat="-36.7567300" lon="-72.9751950">
        <ele>247.2</ele>
        <time>2024-01-01T10:10:06Z</time>
      </trkpt>
      <trkpt lat="-36.7564480" lon="-72.9751770">
        <ele>252.8</ele>
        <time>2024-01-01T10:10:24Z</time>
      </trkpt>
      <trkpt lat="-36.7564390" lon="-72.9748170">
        <ele>258.5</ele>
        <time>2024-01-01T10:10:42Z</time>
      </trkpt>
      <trkpt lat="-36.7537560" lon="-72.9731100">
        <ele>254.6</ele>
        <time>2024-01-01T10:10:45Z</time>
      </trkpt>
      <trkpt lat="-36.7534000" lon="-72.9732020">
        <ele>249.1</ele>
        <time>2024-01-01T10:11:09Z</time>
      </trkpt>
      <trkpt lat="-36.7533140" lon="-72.9731110">
        <ele>246.8</ele>
        <time>2024-01-01T10:11:15Z</time>
      </trkpt>
      <trkpt lat="-36.7529350" lon="-72.9732760">
        <ele>243.3</ele>
        <time>2024-01-01T10:11:33Z</time>
      </trkpt>
      <trkpt lat="-36.7527770" lon="-72.9732610">
        <ele>241.2</ele>
        <time>2024-01-01T10:11:42Z</time>
      </trkpt>
      <trkpt lat="-36.7526920" lon="-72.9733920">
        <ele>240.8</ele>
        <time>2024-01-01T10:11:51Z</time>
      </trkpt>
      <trkpt lat="-36.7526060" lon="-72.9733960">
        <ele>239.4</ele>
        <time>2024-01-01T10:11:54Z</time>
      </trkpt>
      <trkpt lat="-36.7526240" lon="-72.9736740">
        <ele>236.7</ele>
        <time>2024-01-01T10:12:06Z</time>
      </trkpt>
      <trkpt lat="-36.7524340" lon="-72.9737290">
        <ele>232.6</ele>
        <time>2024-01-01T10:12:15Z</time>
      </trkpt>
      <trkpt lat="-36.7523640" lon="-72.9740260">
        <ele>227.9</ele>
        <time>2024-01-01T10:12:27Z</time>
      </trkpt>
      <trkpt lat="-36.7524020" lon="-72.9744120">
        <ele>215.9</ele>
        <time>2024-01-01T10:12:39Z</time>
      </trkpt>
      <trkpt lat="-36.7521890" lon="-72.9746190">
        <ele>211.0</ele>
        <time>2024-01-01T10:12:48Z</time>
      </trkpt>
      <trkpt lat="-36.7522030" lon="-72.9746920">
        <ele>210.1</ele>
        <time>2024-01-01T10:12:51Z</time>
      </trkpt>
      <trkpt lat="-36.7520280" lon="-72.9747880">
        <ele>205.3</ele>
        <time>2024-01-01T10:13:00Z</time>
      </trkpt>
      <trkpt lat="-36.7517170" lon="-72.9747800">
        <ele>197.8</ele>
        <time>2024-01-01T10:13:15Z</time>
      </trkpt>
      <trkpt lat="-36.7516500" lon="-72.9750480">
        <ele>192.0</ele>
        <time>2024-01-01T10:13:27Z</time>
      </trkpt>
      <trkpt lat="-36.7515650" lon="-72.9750090">
        <ele>184.5</ele>
        <time>2024-01-01T10:13:33Z</time>
      </trkpt>
      <trkpt lat="-36.7514100" lon="-72.9754370">
        <ele>173.8</ele>
        <time>2024-01-01T10:13:48Z</time>
      </trkpt>
      <trkpt lat="-36.7510670" lon="-72.9754930">
        <ele>166.9</ele>
        <time>2024-01-01T10:14:06Z</time>
      </trkpt>
      <trkpt lat="-36.7508020" lon="-72.9758190">
        <ele>164.6</ele>
        <time>2024-01-01T10:14:24Z</time>
      </trkpt>
      <trkpt lat="-36.7507940" lon="-72.9759460">
        <ele>162.0</ele>
        <time>2024-01-01T10:14:30Z</time>
      </trkpt>
      <trkpt lat="-36.7508820" lon="-72.9760190">
        <ele>158.6</ele>
        <time>2024-01-01T10:14:36Z</time>
      </trkpt>
      <trkpt lat="-36.7508000" lon="-72.9762630">
        <ele>151.6</ele>
        <time>2024-01-01T10:14:48Z</time>
      </trkpt>
      <trkpt lat="-36.7508210" lon="-72.9765650">
        <ele>143.8</ele>
        <time>2024-01-01T10:15:00Z</time>
      </trkpt>
      <trkpt lat="-36.7506060" lon="-72.9772440">
        <ele>135.2</ele>
        <time>2024-01-01T10:15:27Z</time>
      </trkpt>
      <trkpt lat="-36.7498490" lon="-72.9774080">
        <ele>127.3</ele>
        <time>2024-01-01T10:16:03Z</time>
      </trkpt>
      <trkpt lat="-36.7493160" lon="-72.9776970">
        <ele>118.6</ele>
        <time>2024-01-01T10:16:30Z</time>
      </trkpt>
      <trkpt lat="-36.7490380" lon="-72.9781980">
        <ele>110.3</ele>
        <time>2024-01-01T10:16:54Z</time>
      </trkpt>
      <trkpt lat="-36.7486790" lon="-72.9785690">
        <ele>102.4</ele>
        <time>2024-01-01T10:17:15Z</time>
      </trkpt>
      <trkpt lat="-36.7485990" lon="-72.9787930">
        <ele>98.8</ele>
        <time>2024-01-01T10:17:24Z</time>
      </trkpt>
      <trkpt lat="-36.7478570" lon="-72.9790250">
        <ele>78.8</ele>
        <time>2024-01-01T10:18:00Z</time>
      </trkpt>
      <trkpt lat="-36.7477240" lon="-72.9789300">
        <ele>69.7</ele>
        <time>2024-01-01T10:18:09Z</time>
      </trkpt>
      <trkpt lat="-36.7474220" lon="-72.9789180">
        <ele>55.0</ele>
        <time>2024-01-01T10:18:27Z</time>
      </trkpt>
      <trkpt lat="-36.7473760" lon="-72.9790150">
        <ele>50.7</ele>
        <time>2024-01-01T10:18:33Z</time>
      </trkpt>
      <trkpt lat="-36.7473260" lon="-72.9789680">
        <ele>47.0</ele>
        <time>2024-01-01T10:18:36Z</time>
      </trkpt>
      <trkpt lat="-36.7474210" lon="-72.9790980">
        <ele>42.8</ele>
        <time>2024-01-01T10:18:42Z</time>
      </trkpt>
      <trkpt lat="-36.7473080" lon="-72.9791180">
        <ele>42.4</ele>
        <time>2024-01-01T10:18:48Z</time>
      </trkpt>
      <trkpt lat="-36.7469980" lon="-72.9488930">
        <ele>364.3</ele>
        <time>2024-01-01T10:18:51Z</time>
      </trkpt>
      <trkpt lat="-36.7474480" lon="-72.9498620">
        <ele>361.9</ele>
        <time>2024-01-01T10:19:30Z</time>
      </trkpt>
      <trkpt lat="-36.7477630" lon="-72.9510570">
        <ele>358.9</ele>
        <time>2024-01-01T10:20:03Z</time>
      </trkpt>
      <trkpt lat="-36.7475900" lon="-72.9522910">
        <ele>347.2</ele>
        <time>2024-01-01T10:20:27Z</time>
      </trkpt>
      <trkpt lat="-36.7478810" lon="-72.9533360">
        <ele>338.2</ele>
        <time>2024-01-01T10:20:48Z</time>
      </trkpt>
      <trkpt lat="-36.7478770" lon="-72.9537840">
        <ele>336.1</ele>
        <time>2024-01-01T10:20:57Z</time>
      </trkpt>
      <trkpt lat="-36.7476280" lon="-72.9547480">
        <ele>326.5</ele>
        <time>2024-01-01T10:21:12Z</time>
      </trkpt>
      <trkpt lat="-36.7477650" lon="-72.9555830">
        <ele>314.0</ele>
        <time>2024-01-01T10:21:39Z</time>
      </trkpt>
      <trkpt lat="-36.7479890" lon="-72.9561500">
        <ele>355.3</ele>
        <time>2024-01-01T10:21:57Z</time>
      </trkpt>
      <trkpt lat="-36.7478610" lon="-72.9570280">
        <ele>367.3</ele>
        <time>2024-01-01T10:22:21Z</time>
      </trkpt>
      <trkpt lat="-36.7478570" lon="-72.9577900">
        <ele>345.6</ele>
        <time>2024-01-01T10:22:42Z</time>
      </trkpt>
      <trkpt lat="-36.7477640" lon="-72.9580320">
        <ele>334.1</ele>
        <time>2024-01-01T10:22:51Z</time>
      </trkpt>
      <trkpt lat="-36.7473280" lon="-72.9582300">
        <ele>319.9</ele>
        <time>2024-01-01T10:23:09Z</time>
      </trkpt>
      <trkpt lat="-36.7471920" lon="-72.9584510">
        <ele>313.3</ele>
        <time>2024-01-01T10:23:18Z</time>
      </trkpt>
      <trkpt lat="-36.7470050" lon="-72.9589620">
        <ele>294.1</ele>
        <time>2024-01-01T10:23:39Z</time>
      </trkpt>
      <trkpt lat="-36.7470060" lon="-72.9593770">
        <ele>278.1</ele>
        <time>2024-01-01T10:23:54Z</time>
      </trkpt>
      <trkpt lat="-36.7460990" lon="-72.9612650">
        <ele>249.0</ele>
        <time>2024-01-01T10:24:39Z</time>
      </trkpt>
      <trkpt lat="-36.7458400" lon="-72.9623110">
        <ele>249.1</ele>
        <time>2024-01-01T10:25:21Z</time>
      </trkpt>
      <trkpt lat="-36.7456080" lon="-72.9626460">
        <ele>244.2</ele>
        <time>2024-01-01T10:25:33Z</time>
      </trkpt>
      <trkpt lat="-36.7456640" lon="-72.9631390">
        <ele>228.3</ele>
        <time>2024-01-01T10:25:54Z</time>
      </trkpt>
      <trkpt lat="-36.7455090" lon="-72.9636510">
        <ele>203.8</ele>
        <time>2024-01-01T10:26:12Z</time>
      </trkpt>
      <trkpt lat="-36.7455450" lon="-72.9638780">
        <ele>196.2</ele>
        <time>2024-01-01T10:26:18Z</time>
      </trkpt>
      <trkpt lat="-36.7456500" lon="-72.9639720">
        <ele>189.4</ele>
        <time>2024-01-01T10:26:24Z</time>
      </trkpt>
      <trkpt lat="-36.7455060" lon="-72.9643030">
        <ele>186.6</ele>
        <time>2024-01-01T10:26:36Z</time>
      </trkpt>
      <trkpt lat="-36.7455280" lon="-72.9646260">
        <ele>182.2</ele>
        <time>2024-01-01T10:26:48Z</time>
      </trkpt>
      <trkpt lat="-36.7454610" lon="-72.9647740">
        <ele>175.5</ele>
        <time>2024-01-01T10:26:51Z</time>
      </trkpt>
      <trkpt lat="-36.7456230" lon="-72.9649090">
        <ele>167.6</ele>
        <time>2024-01-01T10:26:57Z</time>
      </trkpt>
      <trkpt lat="-36.7460860" lon="-72.9648040">
        <ele>159.8</ele>
        <time>2024-01-01T10:27:12Z</time>
      </trkpt>
      <trkpt lat="-36.7463660" lon="-72.9649600">
        <ele>155.1</ele>
        <time>2024-01-01T10:27:24Z</time>
      </trkpt>
      <trkpt lat="-36.7465010" lon="-72.9651650">
        <ele>151.9</ele>
        <time>2024-01-01T10:27:33Z</time>
      </trkpt>
      <trkpt lat="-36.7465020" lon="-72.9654310">
        <ele>147.9</ele>
        <time>2024-01-01T10:27:42Z</time>
      </trkpt>
      <trkpt lat="-36.7466390" lon="-72.9657320">
        <ele>143.6</ele>
        <time>2024-01-01T10:27:57Z</time>
      </trkpt>
      <trkpt lat="-36.7469280" lon="-72.9659100">
        <ele>140.3</ele>
        <time>2024-01-01T10:28:12Z</time>
      </trkpt>
      <trkpt lat="-36.7471950" lon="-72.9662860">
        <ele>136.7</ele>
        <time>2024-01-01T10:28:30Z</time>
      </trkpt>
      <trkpt lat="-36.7472130" lon="-72.9664770">
        <ele>132.5</ele>
        <time>2024-01-01T10:28:39Z</time>
      </trkpt>
      <trkpt lat="-36.7471290" lon="-72.9666530">
        <ele>127.0</ele>
        <time>2024-01-01T10:28:45Z</time>
      </trkpt>
    </trkseg>
  </trk>
</gpx>