<?xml version='1.0' encoding='UTF-8'?>
<gpx xmlns="http://www.topografix.com/GPX/1/1" xmlns:xsi="http://www.w3.org/2001/XMLSchema-instance" version="1.1" creator="Bosque Abierto MTB - Guardianes del Bosque" xsi:schemaLocation="http://www.topografix.com/GPX/1/1 http://www.topografix.com/GPX/1/1/gpx.xsd">
  <metadata>
    <name>Pro Bike Dh Curepto Negro</name>
    <desc>Ruta MTB Bosque Abierto - ARAUCO Renovables</desc>
    <author>
      <name>Guardianes del Bosque MTB</name>
    </author>
    <time>2024-01-01T10:00:00Z</time>
  </metadata>
  <trk>
    <name>Pro Bike Dh Curepto Negro</name>
    <type>cycling</type>
    <trkseg>
      <trkpt lat="-35.1049641" lon="-72.0198093">
        <ele>38.0</ele>
        <time>2024-01-01T10:00:00Z</time>
      </trkpt>
      <trkpt lat="-35.1214213" lon="-72.0079775">
        <ele>45.4</ele>
        <time>2024-01-01T10:00:03Z</time>
      </trkpt>
      <trkpt lat="-35.1049301" lon="-72.0192909">
        <ele>52.8</ele>
        <time>2024-01-01T10:00:06Z</time>
      </trkpt>
      <trkpt lat="-35.1052736" lon="-72.0184138">
        <ele>67.5</ele>
        <time>2024-01-01T10:00:12Z</time>
      </trkpt>
      <trkpt lat="-35.1055737" lon="-72.0180454">
        <ele>74.9</ele>
        <time>2024-01-01T10:00:15Z</time>
      </trkpt>
      <trkpt lat="-35.1059180" lon="-72.0177899">
        <ele>82.3</ele>
        <time>2024-01-01T10:00:18Z</time>
      </trkpt>
      <trkpt lat="-35.1065256" lon="-72.0177734">
        <ele>97.1</ele>
        <time>2024-01-01T10:00:24Z</time>
      </trkpt>
      <trkpt lat="-35.1073373" lon="-72.0175885">
        <ele>104.5</ele>
        <time>2024-01-01T10:00:27Z</time>
      </trkpt>
      <trkpt lat="-35.1081708" lon="-72.0165541">
        <ele>111.8</ele>
        <time>2024-01-01T10:00:30Z</time>
      </trkpt>
      <trkpt lat="-35.1086819" lon="-72.0162582">
        <ele>119.2</ele>
        <time>2024-01-01T10:00:33Z</time>
      </trkpt>
      <trkpt lat="-35.1096923" lon="-72.0168890">
        <ele>126.6</ele>
        <time>2024-01-01T10:00:36Z</time>
      </trkpt>
      <trkpt lat="-35.1106537" lon="-72.0171233">
        <ele>134.0</ele>
        <time>2024-01-01T10:00:39Z</time>
      </trkpt>
      <trkpt lat="-35.1115411" lon="-72.0170830">
        <ele>145.2</ele>
        <time>2024-01-01T10:00:42Z</time>
      </trkpt>
      <trkpt lat="-35.1121674" lon="-72.0172087">
        <ele>156.3</ele>
        <time>2024-01-01T10:00:45Z</time>
      </trkpt>
      <trkpt lat="-35.1127869" lon="-72.0174899">
        <ele>167.5</ele>
        <time>2024-01-01T10:00:48Z</time>
      </trkpt>
      <trkpt lat="-35.1136625" lon="-72.0174186">
        <ele>178.6</ele>
        <time>2024-01-01T10:00:51Z</time>
      </trkpt>
      <trkpt lat="-35.1149324" lon="-72.0170497">
        <ele>200.9</ele>
        <time>2024-01-01T10:00:57Z</time>
      </trkpt>
      <trkpt lat="-35.1160027" lon="-72.0163780">
        <ele>212.1</ele>
        <time>2024-01-01T10:01:00Z</time>
      </trkpt>
      <trkpt lat="-35.1175603" lon="-72.0151041">
        <ele>223.2</ele>
        <time>2024-01-01T10:01:03Z</time>
      </trkpt>
      <trkpt lat="-35.1183084" lon="-72.0143528">
        <ele>234.4</ele>
        <time>2024-01-01T10:01:06Z</time>
      </trkpt>
      <trkpt lat="-35.1190565" lon="-72.0138239">
        <ele>245.5</ele>
        <time>2024-01-01T10:01:09Z</time>
      </trkpt>
      <trkpt lat="-35.1199314" lon="-72.0128889">
        <ele>256.7</ele>
        <time>2024-01-01T10:01:12Z</time>
      </trkpt>
      <trkpt lat="-35.1204798" lon="-72.0121226">
        <ele>267.8</ele>
        <time>2024-01-01T10:01:15Z</time>
      </trkpt>
      <trkpt lat="-35.1210536" lon="-72.0116770">
        <ele>279.0</ele>
        <time>2024-01-01T10:01:18Z</time>
      </trkpt>
      <trkpt lat="-35.1214552" lon="-72.0111872">
        <ele>261.2</ele>
        <time>2024-01-01T10:01:21Z</time>
      </trkpt>
      <trkpt lat="-35.1214121" lon="-72.0105981">
        <ele>243.3</ele>
        <time>2024-01-01T10:01:24Z</time>
      </trkpt>
      <trkpt lat="-35.1216215" lon="-72.0100800">
        <ele>225.5</ele>
        <time>2024-01-01T10:01:27Z</time>
      </trkpt>
      <trkpt lat="-35.1221550" lon="-72.0092968">
        <ele>189.8</ele>
        <time>2024-01-01T10:01:33Z</time>
      </trkpt>
      <trkpt lat="-35.1222559" lon="-72.0086249">
        <ele>171.9</ele>
        <time>2024-01-01T10:01:36Z</time>
      </trkpt>
      <trkpt lat="-35.1215097" lon="-72.0081998">
        <ele>136.2</ele>
        <time>2024-01-01T10:01:42Z</time>
      </trkpt>
      <trkpt lat="-35.1213847" lon="-72.0080497">
        <ele>118.4</ele>
        <time>2024-01-01T10:01:45Z</time>
      </trkpt>
      <trkpt lat="-35.3772547" lon="-72.3209135">
        <ele>100.5</ele>
        <time>2024-01-01T10:01:48Z</time>
      </trkpt>
      <trkpt lat="-35.3762447" lon="-72.3243932">
        <ele>82.7</ele>
        <time>2024-01-01T10:01:51Z</time>
      </trkpt>
      <trkpt lat="-35.3761100" lon="-72.3251390">
        <ele>64.8</ele>
        <time>2024-01-01T10:01:54Z</time>
      </trkpt>
      <trkpt lat="-35.3752524" lon="-72.3283056">
        <ele>42.1</ele>
        <time>2024-01-01T10:02:03Z</time>
      </trkpt>
      <trkpt lat="-35.3752398" lon="-72.3310808">
        <ele>37.2</ele>
        <time>2024-01-01T10:02:09Z</time>
      </trkpt>
      <trkpt lat="-35.3745861" lon="-72.3331958">
        <ele>29.8</ele>
        <time>2024-01-01T10:02:18Z</time>
      </trkpt>
      <trkpt lat="-35.3741488" lon="-72.3338499">
        <ele>27.3</ele>
        <time>2024-01-01T10:02:21Z</time>
      </trkpt>
      <trkpt lat="-35.3739547" lon="-72.3351555">
        <ele>24.8</ele>
        <time>2024-01-01T10:02:24Z</time>
      </trkpt>
      <trkpt lat="-35.3730768" lon="-72.3364484">
        <ele>22.4</ele>
        <time>2024-01-01T10:02:27Z</time>
      </trkpt>
      <trkpt lat="-35.3725939" lon="-72.3369944">
        <ele>19.9</ele>
        <time>2024-01-01T10:02:30Z</time>
      </trkpt>
      <trkpt lat="-35.3724041" lon="-72.3386201">
        <ele>15.0</ele>
        <time>2024-01-01T10:02:36Z</time>
      </trkpt>
      <trkpt lat="-35.3719394" lon="-72.3400647">
        <ele>20.5</ele>
        <time>2024-01-01T10:02:39Z</time>
      </trkpt>
      <trkpt lat="-35.3717829" lon="-72.3409026">
        <ele>25.9</ele>
        <time>2024-01-01T10:02:42Z</time>
      </trkpt>
      <trkpt lat="-35.3714741" lon="-72.3416972">
        <ele>31.4</ele>
        <time>2024-01-01T10:02:45Z</time>
      </trkpt>
      <trkpt lat="-35.3715620" lon="-72.3445833">
        <ele>36.8</ele>
        <time>2024-01-01T10:02:48Z</time>
      </trkpt>
      <trkpt lat="-35.3718576" lon="-72.3472436">
        <ele>53.2</ele>
        <time>2024-01-01T10:02:57Z</time>
      </trkpt>
      <trkpt lat="-35.3720247" lon="-72.3471515">
        <ele>58.7</ele>
        <time>2024-01-01T10:03:00Z</time>
      </trkpt>
      <trkpt lat="-35.3725822" lon="-72.3461237">
        <ele>69.6</ele>
        <time>2024-01-01T10:03:06Z</time>
      </trkpt>
      <trkpt lat="-35.3729664" lon="-72.3448445">
        <ele>80.5</ele>
        <time>2024-01-01T10:03:12Z</time>
      </trkpt>
      <trkpt lat="-35.3731608" lon="-72.3448366">
        <ele>86.0</ele>
        <time>2024-01-01T10:03:15Z</time>
      </trkpt>
      <trkpt lat="-35.3733259" lon="-72.3450274">
        <ele>86.8</ele>
        <time>2024-01-01T10:03:18Z</time>
      </trkpt>
      <trkpt lat="-35.3734193" lon="-72.3454236">
        <ele>87.7</ele>
        <time>2024-01-01T10:03:21Z</time>
      </trkpt>
      <trkpt lat="-35.3730226" lon="-72.3472419">
        <ele>93.6</ele>
        <time>2024-01-01T10:03:42Z</time>
      </trkpt>
      <trkpt lat="-35.3733715" lon="-72.3475552">
        <ele>95.3</ele>
        <time>2024-01-01T10:03:48Z</time>
      </trkpt>
      <trkpt lat="-35.3739941" lon="-72.3475807">
        <ele>101.3</ele>
        <time>2024-01-01T10:03:57Z</time>
      </trkpt>
      <trkpt lat="-35.3741600" lon="-72.3477613">
        <ele>105.6</ele>
        <time>2024-01-01T10:04:00Z</time>
      </trkpt>
      <trkpt lat="-35.3740074" lon="-72.3479237">
        <ele>109.9</ele>
        <time>2024-01-01T10:04:03Z</time>
      </trkpt>
      <trkpt lat="-35.3739275" lon="-72.3482762">
        <ele>114.2</ele>
        <time>2024-01-01T10:04:06Z</time>
      </trkpt>
      <trkpt lat="-35.3739751" lon="-72.3485590">
        <ele>118.5</ele>
        <time>2024-01-01T10:04:09Z</time>
      </trkpt>
      <trkpt lat="-35.3743999" lon="-72.3489446">
        <ele>127.2</ele>
        <time>2024-01-01T10:04:15Z</time>
      </trkpt>
      <trkpt lat="-35.3745692" lon="-72.3492775">
        <ele>131.5</ele>
        <time>2024-01-01T10:04:18Z</time>
      </trkpt>
      <trkpt lat="-35.3746279" lon="-72.3496197">
        <ele>135.8</ele>
        <time>2024-01-01T10:04:21Z</time>
      </trkpt>
      <trkpt lat="-35.3744955" lon="-72.3500067">
        <ele>140.1</ele>
        <time>2024-01-01T10:04:24Z</time>
      </trkpt>
      <trkpt lat="-35.3745915" lon="-72.3502644">
        <ele>144.4</ele>
        <time>2024-01-01T10:04:27Z</time>
      </trkpt>
      <trkpt lat="-35.3752004" lon="-72.3509239">
        <ele>153.0</ele>
        <time>2024-01-01T10:04:33Z</time>
      </trkpt>
      <trkpt lat="-35.3754205" lon="-72.3522276">
        <ele>158.7</ele>
        <time>2024-01-01T10:04:39Z</time>
      </trkpt>
      <trkpt lat="-35.3755896" lon="-72.3524717">
        <ele>161.5</ele>
        <time>2024-01-01T10:04:42Z</time>
      </trkpt>
      <trkpt lat="-35.3759164" lon="-72.3526180">
        <ele>164.4</ele>
        <time>2024-01-01T10:04:45Z</time>
      </trkpt>
      <trkpt lat="-35.3756261" lon="-72.3521569">
        <ele>167.2</ele>
        <time>2024-01-01T10:04:48Z</time>
      </trkpt>
      <trkpt lat="-35.3758154" lon="-72.3516519">
        <ele>172.9</ele>
        <time>2024-01-01T10:04:54Z</time>
      </trkpt>
      <trkpt lat="-35.3756845" lon="-72.3512472">
        <ele>175.8</ele>
        <time>2024-01-01T10:04:57Z</time>
      </trkpt>
      <trkpt lat="-35.3757698" lon="-72.3508701">
        <ele>178.6</ele>
        <time>2024-01-01T10:05:00Z</time>
      </trkpt>
      <trkpt lat="-35.3754704" lon="-72.3504478">
        <ele>181.5</ele>
        <time>2024-01-01T10:05:03Z</time>
      </trkpt>
      <trkpt lat="-35.3755729" lon="-72.3490293">
        <ele>187.2</ele>
        <time>2024-01-01T10:05:09Z</time>
      </trkpt>
      <trkpt lat="-35.3756743" lon="-72.3487387">
        <ele>190.0</ele>
        <time>2024-01-01T10:05:12Z</time>
      </trkpt>
      <trkpt lat="-35.3758772" lon="-72.3485951">
        <ele>190.8</ele>
        <time>2024-01-01T10:05:15Z</time>
      </trkpt>
      <trkpt lat="-35.3758845" lon="-72.3484425">
        <ele>191.5</ele>
        <time>2024-01-01T10:05:18Z</time>
      </trkpt>
      <trkpt lat="-35.3755711" lon="-72.3480194">
        <ele>193.1</ele>
        <time>2024-01-01T10:05:24Z</time>
      </trkpt>
      <trkpt lat="-35.3756345" lon="-72.3476293">
        <ele>193.8</ele>
        <time>2024-01-01T10:05:27Z</time>
      </trkpt>
      <trkpt lat="-35.3754964" lon="-72.3469548">
        <ele>194.6</ele>
        <time>2024-01-01T10:05:30Z</time>
      </trkpt>
      <trkpt lat="-35.3754899" lon="-72.3466771">
        <ele>195.4</ele>
        <time>2024-01-01T10:05:33Z</time>
      </trkpt>
      <trkpt lat="-35.3757475" lon="-72.3463246">
        <ele>196.2</ele>
        <time>2024-01-01T10:05:36Z</time>
      </trkpt>
      <trkpt lat="-35.3757790" lon="-72.3459611">
        <ele>196.9</ele>
        <time>2024-01-01T10:05:39Z</time>
      </trkpt>
      <trkpt lat="-35.3759784" lon="-72.3458836">
        <ele>197.7</ele>
        <time>2024-01-01T10:05:42Z</time>
      </trkpt>
      <trkpt lat="-35.3766263" lon="-72.3460346">
        <ele>199.2</ele>
        <time>2024-01-01T10:05:48Z</time>
      </trkpt>
      <trkpt lat="-35.3771874" lon="-72.3460134">
        <ele>198.6</ele>
        <time>2024-01-01T10:05:54Z</time>
      </trkpt>
      <trkpt lat="-35.3776259" lon="-72.3462629">
        <ele>197.2</ele>
        <time>2024-01-01T10:05:57Z</time>
      </trkpt>
      <trkpt lat="-35.3778821" lon="-72.3462528">
        <ele>195.8</ele>
        <time>2024-01-01T10:06:00Z</time>
      </trkpt>
      <trkpt lat="-35.3791848" lon="-72.3457446">
        <ele>190.3</ele>
        <time>2024-01-01T10:06:12Z</time>
      </trkpt>
      <trkpt lat="-35.3794565" lon="-72.3457065">
        <ele>188.9</ele>
        <time>2024-01-01T10:06:15Z</time>
      </trkpt>
      <trkpt lat="-35.3798102" lon="-72.3454965">
        <ele>187.5</ele>
        <time>2024-01-01T10:06:18Z</time>
      </trkpt>
      <trkpt lat="-35.3799649" lon="-72.3454871">
        <ele>186.2</ele>
        <time>2024-01-01T10:06:21Z</time>
      </trkpt>
      <trkpt lat="-35.3803199" lon="-72.3457289">
        <ele>184.8</ele>
        <time>2024-01-01T10:06:24Z</time>
      </trkpt>
      <trkpt lat="-35.3806360" lon="-72.3457230">
        <ele>183.4</ele>
        <time>2024-01-01T10:06:27Z</time>
      </trkpt>
      <trkpt lat="-35.3817574" lon="-72.3453062">
        <ele>196.2</ele>
        <time>2024-01-01T10:06:36Z</time>
      </trkpt>
      <trkpt lat="-35.3825173" lon="-72.3443847">
        <ele>217.4</ele>
        <time>2024-01-01T10:06:45Z</time>
      </trkpt>
      <trkpt lat="-35.3830735" lon="-72.3441499">
        <ele>231.5</ele>
        <time>2024-01-01T10:06:51Z</time>
      </trkpt>
      <trkpt lat="-35.3835720" lon="-72.3435870">
        <ele>252.8</ele>
        <time>2024-01-01T10:07:00Z</time>
      </trkpt>
      <trkpt lat="-35.3837133" lon="-72.3435714">
        <ele>259.8</ele>
        <time>2024-01-01T10:07:03Z</time>
      </trkpt>
      <trkpt lat="-35.3838423" lon="-72.3437846">
        <ele>266.9</ele>
        <time>2024-01-01T10:07:06Z</time>
      </trkpt>
      <trkpt lat="-35.3838854" lon="-72.3442677">
        <ele>275.8</ele>
        <time>2024-01-01T10:07:12Z</time>
      </trkpt>
      <trkpt lat="-35.3842841" lon="-72.3445726">
        <ele>279.5</ele>
        <time>2024-01-01T10:07:18Z</time>
      </trkpt>
      <trkpt lat="-35.3844061" lon="-72.3448009">
        <ele>281.4</ele>
        <time>2024-01-01T10:07:21Z</time>
      </trkpt>
      <trkpt lat="-35.3843354" lon="-72.3454579">
        <ele>283.2</ele>
        <time>2024-01-01T10:07:24Z</time>
      </trkpt>
      <trkpt lat="-35.3840451" lon="-72.3457274">
        <ele>285.1</ele>
        <time>2024-01-01T10:07:27Z</time>
      </trkpt>
      <trkpt lat="-35.3839626" lon="-72.3461034">
        <ele>286.9</ele>
        <time>2024-01-01T10:07:30Z</time>
      </trkpt>
      <trkpt lat="-35.3840909" lon="-72.3463320">
        <ele>288.8</ele>
        <time>2024-01-01T10:07:33Z</time>
      </trkpt>
      <trkpt lat="-35.3845035" lon="-72.3465916">
        <ele>290.6</ele>
        <time>2024-01-01T10:07:36Z</time>
      </trkpt>
      <trkpt lat="-35.3845875" lon="-72.3467663">
        <ele>292.5</ele>
        <time>2024-01-01T10:07:39Z</time>
      </trkpt>
      <trkpt lat="-35.3846089" lon="-72.3475952">
        <ele>294.3</ele>
        <time>2024-01-01T10:07:42Z</time>
      </trkpt>
      <trkpt lat="-35.3855544" lon="-72.3478210">
        <ele>299.6</ele>
        <time>2024-01-01T10:07:51Z</time>
      </trkpt>
      <trkpt lat="-35.3861784" lon="-72.3489005">
        <ele>301.2</ele>
        <time>2024-01-01T10:07:54Z</time>
      </trkpt>
      <trkpt lat="-35.3864063" lon="-72.3491284">
        <ele>302.8</ele>
        <time>2024-01-01T10:07:57Z</time>
      </trkpt>
      <trkpt lat="-35.3883600" lon="-72.3494953">
        <ele>306.1</ele>
        <time>2024-01-01T10:08:03Z</time>
      </trkpt>
      <trkpt lat="-35.3900611" lon="-72.3497915">
        <ele>310.9</ele>
        <time>2024-01-01T10:08:12Z</time>
      </trkpt>
      <trkpt lat="-35.3907539" lon="-72.3497720">
        <ele>314.2</ele>
        <time>2024-01-01T10:08:18Z</time>
      </trkpt>
      <trkpt lat="-35.3912365" lon="-72.3494983">
        <ele>315.8</ele>
        <time>2024-01-01T10:08:21Z</time>
      </trkpt>
      <trkpt lat="-35.3920597" lon="-72.3488539">
        <ele>319.0</ele>
        <time>2024-01-01T10:08:27Z</time>
      </trkpt>
      <trkpt lat="-35.3926487" lon="-72.3486982">
        <ele>322.2</ele>
        <time>2024-01-01T10:08:33Z</time>
      </trkpt>
      <trkpt lat="-35.3930485" lon="-72.3484265">
        <ele>323.8</ele>
        <time>2024-01-01T10:08:36Z</time>
      </trkpt>
      <trkpt lat="-35.3946850" lon="-72.3464275">
        <ele>331.9</ele>
        <time>2024-01-01T10:08:51Z</time>
      </trkpt>
      <trkpt lat="-35.3951612" lon="-72.3459978">
        <ele>333.5</ele>
        <time>2024-01-01T10:08:54Z</time>
      </trkpt>
      <trkpt lat="-35.3961289" lon="-72.3456602">
        <ele>338.4</ele>
        <time>2024-01-01T10:09:03Z</time>
      </trkpt>
      <trkpt lat="-35.3965891" lon="-72.3456966">
        <ele>340.0</ele>
        <time>2024-01-01T10:09:06Z</time>
      </trkpt>
      <trkpt lat="-35.3968987" lon="-72.3453059">
        <ele>342.2</ele>
        <time>2024-01-01T10:09:09Z</time>
      </trkpt>
      <trkpt lat="-35.3972898" lon="-72.3451495">
        <ele>344.3</ele>
        <time>2024-01-01T10:09:12Z</time>
      </trkpt>
      <trkpt lat="-35.3986692" lon="-72.3458572">
        <ele>348.6</ele>
        <time>2024-01-01T10:09:18Z</time>
      </trkpt>
      <trkpt lat="-35.3994349" lon="-72.3465212">
        <ele>352.9</ele>
        <time>2024-01-01T10:09:24Z</time>
      </trkpt>
      <trkpt lat="-35.3991051" lon="-72.3453583">
        <ele>355.1</ele>
        <time>2024-01-01T10:09:27Z</time>
      </trkpt>
      <trkpt lat="-35.3986023" lon="-72.3444305">
        <ele>357.2</ele>
        <time>2024-01-01T10:09:30Z</time>
      </trkpt>
      <trkpt lat="-35.3985507" lon="-72.3440104">
        <ele>359.4</ele>
        <time>2024-01-01T10:09:33Z</time>
      </trkpt>
      <trkpt lat="-35.3983528" lon="-72.3434178">
        <ele>361.5</ele>
        <time>2024-01-01T10:09:36Z</time>
      </trkpt>
      <trkpt lat="-35.3982732" lon="-72.3426620">
        <ele>363.7</ele>
        <time>2024-01-01T10:09:39Z</time>
      </trkpt>
      <trkpt lat="-35.3990524" lon="-72.3401913">
        <ele>368.8</ele>
        <time>2024-01-01T10:09:48Z</time>
      </trkpt>
      <trkpt lat="-35.3993466" lon="-72.3379829">
        <ele>371.1</ele>
        <time>2024-01-01T10:09:57Z</time>
      </trkpt>
      <trkpt lat="-35.3994828" lon="-72.3354032">
        <ele>372.6</ele>
        <time>2024-01-01T10:10:03Z</time>
      </trkpt>
      <trkpt lat="-35.3992517" lon="-72.3338980">
        <ele>374.9</ele>
        <time>2024-01-01T10:10:12Z</time>
      </trkpt>
      <trkpt lat="-35.3986831" lon="-72.3334750">
        <ele>376.5</ele>
        <time>2024-01-01T10:10:18Z</time>
      </trkpt>
      <trkpt lat="-35.3984171" lon="-72.3328445">
        <ele>378.0</ele>
        <time>2024-01-01T10:10:24Z</time>
      </trkpt>
      <trkpt lat="-35.3974985" lon="-72.3324371">
        <ele>369.2</ele>
        <time>2024-01-01T10:10:33Z</time>
      </trkpt>
      <trkpt lat="-35.3968853" lon="-72.3322586">
        <ele>366.3</ele>
        <time>2024-01-01T10:10:36Z</time>
      </trkpt>
      <trkpt lat="-35.3957945" lon="-72.3326358">
        <ele>360.5</ele>
        <time>2024-01-01T10:10:42Z</time>
      </trkpt>
      <trkpt lat="-35.3954670" lon="-72.3326185">
        <ele>357.5</ele>
        <time>2024-01-01T10:10:45Z</time>
      </trkpt>
      <trkpt lat="-35.3946639" lon="-72.3316271">
        <ele>348.8</ele>
        <time>2024-01-01T10:10:54Z</time>
      </trkpt>
      <trkpt lat="-35.3938226" lon="-72.3310433">
        <ele>342.9</ele>
        <time>2024-01-01T10:11:00Z</time>
      </trkpt>
      <trkpt lat="-35.3971731" lon="-72.3450582">
        <ele>340.0</ele>
        <time>2024-01-01T10:11:03Z</time>
      </trkpt>
      <trkpt lat="-35.3966108" lon="-72.3444992">
        <ele>339.2</ele>
        <time>2024-01-01T10:11:06Z</time>
      </trkpt>
      <trkpt lat="-35.3961718" lon="-72.3443797">
        <ele>338.3</ele>
        <time>2024-01-01T10:11:09Z</time>
      </trkpt>
      <trkpt lat="-35.3950253" lon="-72.3427539">
        <ele>336.6</ele>
        <time>2024-01-01T10:11:15Z</time>
      </trkpt>
      <trkpt lat="-35.3943678" lon="-72.3423892">
        <ele>335.8</ele>
        <time>2024-01-01T10:11:18Z</time>
      </trkpt>
      <trkpt lat="-35.3938625" lon="-72.3419906">
        <ele>334.9</ele>
        <time>2024-01-01T10:11:21Z</time>
      </trkpt>
      <trkpt lat="-35.3936597" lon="-72.3409664">
        <ele>334.1</ele>
        <time>2024-01-01T10:11:24Z</time>
      </trkpt>
      <trkpt lat="-35.3938570" lon="-72.3400857">
        <ele>333.2</ele>
        <time>2024-01-01T10:11:27Z</time>
      </trkpt>
      <trkpt lat="-35.3938740" lon="-72.3379665">
        <ele>330.7</ele>
        <time>2024-01-01T10:11:36Z</time>
      </trkpt>
      <trkpt lat="-35.3949102" lon="-72.3378323">
        <ele>329.0</ele>
        <time>2024-01-01T10:11:42Z</time>
      </trkpt>
      <trkpt lat="-35.3950046" lon="-72.3368590">
        <ele>332.3</ele>
        <time>2024-01-01T10:11:45Z</time>
      </trkpt>
      <trkpt lat="-35.3949039" lon="-72.3353317">
        <ele>338.9</ele>
        <time>2024-01-01T10:11:51Z</time>
      </trkpt>
      <trkpt lat="-35.3945238" lon="-72.3350833">
        <ele>342.2</ele>
        <time>2024-01-01T10:11:54Z</time>
      </trkpt>
      <trkpt lat="-35.3946374" lon="-72.3346786">
        <ele>345.5</ele>
        <time>2024-01-01T10:11:57Z</time>
      </trkpt>
      <trkpt lat="-35.3953066" lon="-72.3341823">
        <ele>352.2</ele>
        <time>2024-01-01T10:12:03Z</time>
      </trkpt>
      <trkpt lat="-35.3956306" lon="-72.3342903">
        <ele>355.5</ele>
        <time>2024-01-01T10:12:06Z</time>
      </trkpt>
      <trkpt lat="-35.3968861" lon="-72.3338254">
        <ele>362.1</ele>
        <time>2024-01-01T10:12:12Z</time>
      </trkpt>
      <trkpt lat="-35.3978926" lon="-72.3326756">
        <ele>372.0</ele>
        <time>2024-01-01T10:12:21Z</time>
      </trkpt>
      <trkpt lat="-35.3940056" lon="-72.3311151">
        <ele>370.2</ele>
        <time>2024-01-01T10:12:24Z</time>
      </trkpt>
      <trkpt lat="-35.3944124" lon="-72.3301418">
        <ele>368.3</ele>
        <time>2024-01-01T10:12:27Z</time>
      </trkpt>
      <trkpt lat="-35.3959162" lon="-72.3285039">
        <ele>362.8</ele>
        <time>2024-01-01T10:12:36Z</time>
      </trkpt>
      <trkpt lat="-35.3962041" lon="-72.3271201">
        <ele>359.1</ele>
        <time>2024-01-01T10:12:42Z</time>
      </trkpt>
      <trkpt lat="-35.3965483" lon="-72.3266418">
        <ele>357.2</ele>
        <time>2024-01-01T10:12:45Z</time>
      </trkpt>
      <trkpt lat="-35.3969789" lon="-72.3257017">
        <ele>355.4</ele>
        <time>2024-01-01T10:12:48Z</time>
      </trkpt>
      <trkpt lat="-35.3960297" lon="-72.3250024">
        <ele>353.5</ele>
        <time>2024-01-01T10:12:51Z</time>
      </trkpt>
      <trkpt lat="-35.3942702" lon="-72.3238804">
        <ele>349.8</ele>
        <time>2024-01-01T10:12:57Z</time>
      </trkpt>
      <trkpt lat="-35.3935805" lon="-72.3238431">
        <ele>348.0</ele>
        <time>2024-01-01T10:13:00Z</time>
      </trkpt>
      <trkpt lat="-35.3932021" lon="-72.3239629">
        <ele>342.6</ele>
        <time>2024-01-01T10:13:03Z</time>
      </trkpt>
      <trkpt lat="-35.3924347" lon="-72.3237296">
        <ele>337.2</ele>
        <time>2024-01-01T10:13:06Z</time>
      </trkpt>
      <trkpt lat="-35.3916920" lon="-72.3233269">
        <ele>331.8</ele>
        <time>2024-01-01T10:13:09Z</time>
      </trkpt>
      <trkpt lat="-35.3917761" lon="-72.3229181">
        <ele>326.5</ele>
        <time>2024-01-01T10:13:12Z</time>
      </trkpt>
      <trkpt lat="-35.3924216" lon="-72.3226436">
        <ele>321.1</ele>
        <time>2024-01-01T10:13:15Z</time>
      </trkpt>
      <trkpt lat="-35.3922603" lon="-72.3221959">
        <ele>315.7</ele>
        <time>2024-01-01T10:13:18Z</time>
      </trkpt>
      <trkpt lat="-35.3916669" lon="-72.3217755">
        <ele>310.3</ele>
        <time>2024-01-01T10:13:21Z</time>
      </trkpt>
      <trkpt lat="-35.3916343" lon="-72.3211959">
        <ele>304.9</ele>
        <time>2024-01-01T10:13:24Z</time>
      </trkpt>
      <trkpt lat="-35.3913283" lon="-72.3207978">
        <ele>299.5</ele>
        <time>2024-01-01T10:13:27Z</time>
      </trkpt>
      <trkpt lat="-35.3913430" lon="-72.3202685">
        <ele>294.2</ele>
        <time>2024-01-01T10:13:30Z</time>
      </trkpt>
      <trkpt lat="-35.3906505" lon="-72.3185686">
        <ele>283.4</ele>
        <time>2024-01-01T10:13:36Z</time>
      </trkpt>
      <trkpt lat="-35.3901673" lon="-72.3184889">
        <ele>278.0</ele>
        <time>2024-01-01T10:13:39Z</time>
      </trkpt>
      <trkpt lat="-35.3895385" lon="-72.3178586">
        <ele>275.0</ele>
        <time>2024-01-01T10:13:42Z</time>
      </trkpt>
      <trkpt lat="-35.3895402" lon="-72.3172512">
        <ele>272.0</ele>
        <time>2024-01-01T10:13:45Z</time>
      </trkpt>
      <trkpt lat="-35.3897657" lon="-72.3166805">
        <ele>269.0</ele>
        <time>2024-01-01T10:13:48Z</time>
      </trkpt>
      <trkpt lat="-35.3902340" lon="-72.3163627">
        <ele>266.0</ele>
        <time>2024-01-01T10:13:51Z</time>
      </trkpt>
      <trkpt lat="-35.3906719" lon="-72.3163790">
        <ele>263.0</ele>
        <time>2024-01-01T10:13:54Z</time>
      </trkpt>
      <trkpt lat="-35.3911148" lon="-72.3165413">
        <ele>260.0</ele>
        <time>2024-01-01T10:13:57Z</time>
      </trkpt>
      <trkpt lat="-35.3909153" lon="-72.3169052">
        <ele>257.0</ele>
        <time>2024-01-01T10:14:00Z</time>
      </trkpt>
      <trkpt lat="-35.3908994" lon="-72.3173550">
        <ele>254.0</ele>
        <time>2024-01-01T10:14:03Z</time>
      </trkpt>
      <trkpt lat="-35.3912904" lon="-72.3173444">
        <ele>251.0</ele>
        <time>2024-01-01T10:14:06Z</time>
      </trkpt>
      <trkpt lat="-35.3912501" lon="-72.3164192">
        <ele>245.0</ele>
        <time>2024-01-01T10:14:12Z</time>
      </trkpt>
      <trkpt lat="-35.3911264" lon="-72.3160030">
        <ele>242.0</ele>
        <time>2024-01-01T10:14:15Z</time>
      </trkpt>
      <trkpt lat="-35.3907481" lon="-72.3158377">
        <ele>239.0</ele>
        <time>2024-01-01T10:14:18Z</time>
      </trkpt>
      <trkpt lat="-35.3906095" lon="-72.3154122">
        <ele>235.6</ele>
        <time>2024-01-01T10:14:21Z</time>
      </trkpt>
      <trkpt lat="-35.3900221" lon="-72.3153501">
        <ele>232.2</ele>
        <time>2024-01-01T10:14:24Z</time>
      </trkpt>
      <trkpt lat="-35.3898876" lon="-72.3149460">
        <ele>228.8</ele>
        <time>2024-01-01T10:14:27Z</time>
      </trkpt>
      <trkpt lat="-35.3892015" lon="-72.3150150">
        <ele>225.5</ele>
        <time>2024-01-01T10:14:30Z</time>
      </trkpt>
      <trkpt lat="-35.3886586" lon="-72.3148187">
        <ele>222.1</ele>
        <time>2024-01-01T10:14:33Z</time>
      </trkpt>
      <trkpt lat="-35.3881065" lon="-72.3149211">
        <ele>218.7</ele>
        <time>2024-01-01T10:14:36Z</time>
      </trkpt>
      <trkpt lat="-35.3876717" lon="-72.3145173">
        <ele>215.3</ele>
        <time>2024-01-01T10:14:39Z</time>
      </trkpt>
      <trkpt lat="-35.3872901" lon="-72.3142950">
        <ele>211.9</ele>
        <time>2024-01-01T10:14:42Z</time>
      </trkpt>
      <trkpt lat="-35.3866340" lon="-72.3143288">
        <ele>208.5</ele>
        <time>2024-01-01T10:14:45Z</time>
      </trkpt>
      <trkpt lat="-35.3865735" lon="-72.3149580">
        <ele>205.2</ele>
        <time>2024-01-01T10:14:48Z</time>
      </trkpt>
      <trkpt lat="-35.3861220" lon="-72.3155151">
        <ele>201.8</ele>
        <time>2024-01-01T10:14:51Z</time>
      </trkpt>
      <trkpt lat="-35.3861509" lon="-72.3162121">
        <ele>198.4</ele>
        <time>2024-01-01T10:14:54Z</time>
      </trkpt>
      <trkpt lat="-35.3863862" lon="-72.3169152">
        <ele>195.0</ele>
        <time>2024-01-01T10:14:57Z</time>
      </trkpt>
      <trkpt lat="-35.3862745" lon="-72.3173680">
        <ele>186.5</ele>
        <time>2024-01-01T10:15:00Z</time>
      </trkpt>
      <trkpt lat="-35.3857711" lon="-72.3176686">
        <ele>178.1</ele>
        <time>2024-01-01T10:15:03Z</time>
      </trkpt>
      <trkpt lat="-35.3852665" lon="-72.3177214">
        <ele>169.6</ele>
        <time>2024-01-01T10:15:06Z</time>
      </trkpt>
      <trkpt lat="-35.3850121" lon="-72.3175469">
        <ele>161.2</ele>
        <time>2024-01-01T10:15:09Z</time>
      </trkpt>
      <trkpt lat="-35.3846460" lon="-72.3179610">
        <ele>152.7</ele>
        <time>2024-01-01T10:15:12Z</time>
      </trkpt>
      <trkpt lat="-35.3840413" lon="-72.3179165">
        <ele>144.2</ele>
        <time>2024-01-01T10:15:15Z</time>
      </trkpt>
      <trkpt lat="-35.3833798" lon="-72.3175966">
        <ele>135.8</ele>
        <time>2024-01-01T10:15:18Z</time>
      </trkpt>
      <trkpt lat="-35.3830779" lon="-72.3177147">
        <ele>127.3</ele>
        <time>2024-01-01T10:15:21Z</time>
      </trkpt>
      <trkpt lat="-35.3825923" lon="-72.3171697">
        <ele>118.8</ele>
        <time>2024-01-01T10:15:24Z</time>
      </trkpt>
      <trkpt lat="-35.3817859" lon="-72.3173984">
        <ele>110.4</ele>
        <time>2024-01-01T10:15:27Z</time>
      </trkpt>
      <trkpt lat="-35.3808655" lon="-72.3179355">
        <ele>101.9</ele>
        <time>2024-01-01T10:15:30Z</time>
      </trkpt>
      <trkpt lat="-35.3803665" lon="-72.3184332">
        <ele>93.5</ele>
        <time>2024-01-01T10:15:33Z</time>
      </trkpt>
      <trkpt lat="-35.3803693" lon="-72.3181758">
        <ele>85.0</ele>
        <time>2024-01-01T10:15:36Z</time>
      </trkpt>
      <trkpt lat="-35.3806596" lon="-72.3176058">
        <ele>80.6</ele>
        <time>2024-01-01T10:15:39Z</time>
      </trkpt>
      <trkpt lat="-35.3804405" lon="-72.3175056">
        <ele>76.2</ele>
        <time>2024-01-01T10:15:42Z</time>
      </trkpt>
      <trkpt lat="-35.3801294" lon="-72.3181322">
        <ele>71.8</ele>
        <time>2024-01-01T10:15:45Z</time>
      </trkpt>
      <trkpt lat="-35.3798823" lon="-72.3184113">
        <ele>67.5</ele>
        <time>2024-01-01T10:15:48Z</time>
      </trkpt>
      <trkpt lat="-35.3798277" lon="-72.3180348">
        <ele>63.1</ele>
        <time>2024-01-01T10:15:51Z</time>
      </trkpt>
      <trkpt lat="-35.3799940" lon="-72.3175089">
        <ele>58.7</ele>
        <time>2024-01-01T10:15:54Z</time>
      </trkpt>
      <trkpt lat="-35.3805461" lon="-72.3163334">
        <ele>49.9</ele>
        <time>2024-01-01T10:16:00Z</time>
      </trkpt>
      <trkpt lat="-35.3804664" lon="-72.3155330">
        <ele>41.2</ele>
        <time>2024-01-01T10:16:06Z</time>
      </trkpt>
      <trkpt lat="-35.3809850" lon="-72.3143893">
        <ele>32.4</ele>
        <time>2024-01-01T10:16:12Z</time>
      </trkpt>
      <trkpt lat="-35.3807331" lon="-72.3138202">
        <ele>28.0</ele>
        <time>2024-01-01T10:16:15Z</time>
      </trkpt>
      <trkpt lat="-35.3806802" lon="-72.3133694">
        <ele>27.8</ele>
        <time>2024-01-01T10:16:18Z</time>
      </trkpt>
      <trkpt lat="-35.3804164" lon="-72.3132184">
        <ele>27.5</ele>
        <time>2024-01-01T10:16:21Z</time>
      </trkpt>
      <trkpt lat="-35.3800085" lon="-72.3135029">
        <ele>27.3</ele>
        <time>2024-01-01T10:16:24Z</time>
      </trkpt>
      <trkpt lat="-35.3797763" lon="-72.3133401">
        <ele>27.1</ele>
        <time>2024-01-01T10:16:27Z</time>
      </trkpt>
      <trkpt lat="-35.3792105" lon="-72.3139673">
        <ele>26.8</ele>
        <time>2024-01-01T10:16:30Z</time>
      </trkpt>
      <trkpt lat="-35.3782253" lon="-72.3176006">
        <ele>26.2</ele>
        <time>2024-01-01T10:16:39Z</time>
      </trkpt>
      <trkpt lat="-35.3778243" lon="-72.3187110">
        <ele>25.9</ele>
        <time>2024-01-01T10:16:42Z</time>
      </trkpt>
      <trkpt lat="-35.3773315" lon="-72.3206538">
        <ele>25.5</ele>
        <time>2024-01-01T10:16:48Z</time>
      </trkpt>
      <trkpt lat="-35.3934436" lon="-72.3313163">
        <ele>25.2</ele>
        <time>2024-01-01T10:16:51Z</time>
      </trkpt>
      <trkpt lat="-35.3779071" lon="-72.3204831">
        <ele>25.0</ele>
        <time>2024-01-01T10:16:54Z</time>
      </trkpt>
      <trkpt lat="-35.3933548" lon="-72.3310836">
        <ele>76.8</ele>
        <time>2024-01-01T10:17:00Z</time>
      </trkpt>
      <trkpt lat="-35.3931701" lon="-72.3314170">
        <ele>180.5</ele>
        <time>2024-01-01T10:17:12Z</time>
      </trkpt>
      <trkpt lat="-35.3924372" lon="-72.3315731">
        <ele>357.4</ele>
        <time>2024-01-01T10:17:39Z</time>
      </trkpt>
      <trkpt lat="-35.3915819" lon="-72.3313587">
        <ele>345.8</ele>
        <time>2024-01-01T10:17:54Z</time>
      </trkpt>
      <trkpt lat="-35.3910080" lon="-72.3314322">
        <ele>332.0</ele>
        <time>2024-01-01T10:18:12Z</time>
      </trkpt>
      <trkpt lat="-35.3908481" lon="-72.3313737">
        <ele>331.8</ele>
        <time>2024-01-01T10:18:15Z</time>
      </trkpt>
      <trkpt lat="-35.3905714" lon="-72.3310496">
        <ele>331.2</ele>
        <time>2024-01-01T10:18:27Z</time>
      </trkpt>
      <trkpt lat="-35.3897159" lon="-72.3307582">
        <ele>329.8</ele>
        <time>2024-01-01T10:18:54Z</time>
      </trkpt>
      <trkpt lat="-35.3888243" lon="-72.3300517">
        <ele>327.2</ele>
        <time>2024-01-01T10:19:27Z</time>
      </trkpt>
      <trkpt lat="-35.3885795" lon="-72.3295571">
        <ele>321.9</ele>
        <time>2024-01-01T10:19:39Z</time>
      </trkpt>
      <trkpt lat="-35.3879250" lon="-72.3289150">
        <ele>310.1</ele>
        <time>2024-01-01T10:20:00Z</time>
      </trkpt>
      <trkpt lat="-35.3873775" lon="-72.3275944">
        <ele>280.8</ele>
        <time>2024-01-01T10:20:36Z</time>
      </trkpt>
      <trkpt lat="-35.3871993" lon="-72.3275141">
        <ele>275.4</ele>
        <time>2024-01-01T10:20:42Z</time>
      </trkpt>
      <trkpt lat="-35.3868477" lon="-72.3275886">
        <ele>268.0</ele>
        <time>2024-01-01T10:20:51Z</time>
      </trkpt>
      <trkpt lat="-35.3864865" lon="-72.3275545">
        <ele>260.0</ele>
        <time>2024-01-01T10:21:03Z</time>
      </trkpt>
      <trkpt lat="-35.3864343" lon="-72.3274354">
        <ele>258.0</ele>
        <time>2024-01-01T10:21:06Z</time>
      </trkpt>
      <trkpt lat="-35.3866815" lon="-72.3269223">
        <ele>250.0</ele>
        <time>2024-01-01T10:21:18Z</time>
      </trkpt>
      <trkpt lat="-35.3867090" lon="-72.3265909">
        <ele>244.0</ele>
        <time>2024-01-01T10:21:27Z</time>
      </trkpt>
      <trkpt lat="-35.3856978" lon="-72.3259385">
        <ele>244.0</ele>
        <time>2024-01-01T10:22:03Z</time>
      </trkpt>
      <trkpt lat="-35.3855625" lon="-72.3256143">
        <ele>239.7</ele>
        <time>2024-01-01T10:22:12Z</time>
      </trkpt>
      <trkpt lat="-35.3853111" lon="-72.3252932">
        <ele>231.1</ele>
        <time>2024-01-01T10:22:24Z</time>
      </trkpt>
      <trkpt lat="-35.3849986" lon="-72.3252003">
        <ele>222.5</ele>
        <time>2024-01-01T10:22:36Z</time>
      </trkpt>
      <trkpt lat="-35.3842984" lon="-72.3253943">
        <ele>205.4</ele>
        <time>2024-01-01T10:22:54Z</time>
      </trkpt>
      <trkpt lat="-35.3842607" lon="-72.3249576">
        <ele>184.2</ele>
        <time>2024-01-01T10:23:12Z</time>
      </trkpt>
      <trkpt lat="-35.3832767" lon="-72.3250047">
        <ele>157.1</ele>
        <time>2024-01-01T10:23:48Z</time>
      </trkpt>
      <trkpt lat="-35.3823843" lon="-72.3246208">
        <ele>149.0</ele>
        <time>2024-01-01T10:24:18Z</time>
      </trkpt>
      <trkpt lat="-35.3818291" lon="-72.3246748">
        <ele>149.0</ele>
        <time>2024-01-01T10:24:39Z</time>
      </trkpt>
      <trkpt lat="-35.3814624" lon="-72.3245864">
        <ele>149.0</ele>
        <time>2024-01-01T10:24:54Z</time>
      </trkpt>
      <trkpt lat="-35.3813725" lon="-72.3243433">
        <ele>149.0</ele>
        <time>2024-01-01T10:25:03Z</time>
      </trkpt>
      <trkpt lat="-35.3813878" lon="-72.3238990">
        <ele>149.0</ele>
        <time>2024-01-01T10:25:15Z</time>
      </trkpt>
      <trkpt lat="-35.3813069" lon="-72.3236085">
        <ele>149.0</ele>
        <time>2024-01-01T10:25:30Z</time>
      </trkpt>
      <trkpt lat="-35.3813318" lon="-72.3234742">
        <ele>149.0</ele>
        <time>2024-01-01T10:25:33Z</time>
      </trkpt>
      <trkpt lat="-35.3816331" lon="-72.3231701">
        <ele>149.0</ele>
        <time>2024-01-01T10:25:51Z</time>
      </trkpt>
      <trkpt lat="-35.3816619" lon="-72.3229694">
        <ele>149.0</ele>
        <time>2024-01-01T10:25:57Z</time>
      </trkpt>
      <trkpt lat="-35.3810744" lon="-72.3229009">
        <ele>130.5</ele>
        <time>2024-01-01T10:26:12Z</time>
      </trkpt>
      <trkpt lat="-35.3804847" lon="-72.3222125">
        <ele>89.0</ele>
        <time>2024-01-01T10:26:39Z</time>
      </trkpt>
      <trkpt lat="-35.3804035" lon="-72.3218727">
        <ele>89.0</ele>
        <time>2024-01-01T10:26:57Z</time>
      </trkpt>
      <trkpt lat="-35.3798591" lon="-72.3218445">
        <ele>89.0</ele>
        <time>2024-01-01T10:27:30Z</time>
      </trkpt>
      <trkpt lat="-35.3797177" lon="-72.3215594">
        <ele>89.0</ele>
        <time>2024-01-01T10:27:45Z</time>
      </trkpt>
      <trkpt lat="-35.3790730" lon="-72.3207665">
        <ele>39.8</ele>
        <time>2024-01-01T10:28:27Z</time>
      </trkpt>
      <trkpt lat="-35.3788267" lon="-72.3206578">
        <ele>29.9</ele>
        <time>2024-01-01T10:28:33Z</time>
      </trkpt>
      <trkpt lat="-35.3779066" lon="-72.3205018">
        <ele>39.8</ele>
        <time>2024-01-01T10:29:00Z</time>
      </trkpt>
      <trkpt lat="-35.3895044" lon="-72.3153021">
        <ele>45.3</ele>
        <time>2024-01-01T10:29:09Z</time>
      </trkpt>
      <trkpt lat="-35.3857092" lon="-72.3261465">
        <ele>47.2</ele>
        <time>2024-01-01T10:29:12Z</time>
      </trkpt>
      <trkpt lat="-35.3753662" lon="-72.3297939">
        <ele>49.0</ele>
        <time>2024-01-01T10:29:15Z</time>
      </trkpt>
      <trkpt lat="-35.3754948" lon="-72.3292817">
        <ele>50.7</ele>
        <time>2024-01-01T10:29:18Z</time>
      </trkpt>
      <trkpt lat="-35.3754765" lon="-72.3288296">
        <ele>52.4</ele>
        <time>2024-01-01T10:29:21Z</time>
      </trkpt>
      <trkpt lat="-35.3756358" lon="-72.3283714">
        <ele>55.8</ele>
        <time>2024-01-01T10:29:27Z</time>
      </trkpt>
      <trkpt lat="-35.3763055" lon="-72.3280873">
        <ele>59.2</ele>
        <time>2024-01-01T10:29:33Z</time>
      </trkpt>
      <trkpt lat="-35.3764849" lon="-72.3280876">
        <ele>60.8</ele>
        <time>2024-01-01T10:29:36Z</time>
      </trkpt>
      <trkpt lat="-35.3767763" lon="-72.3283501">
        <ele>62.5</ele>
        <time>2024-01-01T10:29:39Z</time>
      </trkpt>
      <trkpt lat="-35.3771298" lon="-72.3284133">
        <ele>64.2</ele>
        <time>2024-01-01T10:29:42Z</time>
      </trkpt>
      <trkpt lat="-35.3775409" lon="-72.3278730">
        <ele>65.9</ele>
        <time>2024-01-01T10:29:45Z</time>
      </trkpt>
      <trkpt lat="-35.3777662" lon="-72.3269860">
        <ele>69.3</ele>
        <time>2024-01-01T10:29:51Z</time>
      </trkpt>
      <trkpt lat="-35.3782670" lon="-72.3261005">
        <ele>72.4</ele>
        <time>2024-01-01T10:29:57Z</time>
      </trkpt>
      <trkpt lat="-35.3786241" lon="-72.3257781">
        <ele>73.8</ele>
        <time>2024-01-01T10:30:00Z</time>
      </trkpt>
      <trkpt lat="-35.3789981" lon="-72.3257212">
        <ele>75.2</ele>
        <time>2024-01-01T10:30:03Z</time>
      </trkpt>
      <trkpt lat="-35.3794648" lon="-72.3258186">
        <ele>76.5</ele>
        <time>2024-01-01T10:30:06Z</time>
      </trkpt>
      <trkpt lat="-35.3796676" lon="-72.3256556">
        <ele>77.9</ele>
        <time>2024-01-01T10:30:09Z</time>
      </trkpt>
      <trkpt lat="-35.3791773" lon="-72.3245247">
        <ele>80.7</ele>
        <time>2024-01-01T10:30:15Z</time>
      </trkpt>
      <trkpt lat="-35.3792563" lon="-72.3240664">
        <ele>82.1</ele>
        <time>2024-01-01T10:30:18Z</time>
      </trkpt>
      <trkpt lat="-35.3803542" lon="-72.3227114">
        <ele>87.6</ele>
        <time>2024-01-01T10:30:30Z</time>
      </trkpt>
      <trkpt lat="-35.3813546" lon="-72.3228227">
        <ele>90.8</ele>
        <time>2024-01-01T10:30:36Z</time>
      </trkpt>
      <trkpt lat="-35.3816983" lon="-72.3226180">
        <ele>92.5</ele>
        <time>2024-01-01T10:30:39Z</time>
      </trkpt>
      <trkpt lat="-35.3822265" lon="-72.3225383">
        <ele>94.3</ele>
        <time>2024-01-01T10:30:42Z</time>
      </trkpt>
      <trkpt lat="-35.3825255" lon="-72.3223822">
        <ele>96.1</ele>
        <time>2024-01-01T10:30:45Z</time>
      </trkpt>
      <trkpt lat="-35.3828280" lon="-72.3227202">
        <ele>97.8</ele>
        <time>2024-01-01T10:30:48Z</time>
      </trkpt>
      <trkpt lat="-35.3828089" lon="-72.3232573">
        <ele>99.6</ele>
        <time>2024-01-01T10:30:51Z</time>
      </trkpt>
      <trkpt lat="-35.3826970" lon="-72.3237286">
        <ele>101.4</ele>
        <time>2024-01-01T10:30:54Z</time>
      </trkpt>
      <trkpt lat="-35.3816842" lon="-72.3236555">
        <ele>104.9</ele>
        <time>2024-01-01T10:31:00Z</time>
      </trkpt>
      <trkpt lat="-35.3810776" lon="-72.3240212">
        <ele>106.7</ele>
        <time>2024-01-01T10:31:03Z</time>
      </trkpt>
      <trkpt lat="-35.3807598" lon="-72.3248735">
        <ele>110.2</ele>
        <time>2024-01-01T10:31:09Z</time>
      </trkpt>
      <trkpt lat="-35.3808452" lon="-72.3252809">
        <ele>112.0</ele>
        <time>2024-01-01T10:31:12Z</time>
      </trkpt>
      <trkpt lat="-35.3811913" lon="-72.3253946">
        <ele>117.9</ele>
        <time>2024-01-01T10:31:15Z</time>
      </trkpt>
      <trkpt lat="-35.3817175" lon="-72.3252060">
        <ele>123.8</ele>
        <time>2024-01-01T10:31:18Z</time>
      </trkpt>
      <trkpt lat="-35.3820253" lon="-72.3254803">
        <ele>129.8</ele>
        <time>2024-01-01T10:31:21Z</time>
      </trkpt>
      <trkpt lat="-35.3815744" lon="-72.3265387">
        <ele>141.6</ele>
        <time>2024-01-01T10:31:27Z</time>
      </trkpt>
      <trkpt lat="-35.3820249" lon="-72.3269594">
        <ele>153.5</ele>
        <time>2024-01-01T10:31:33Z</time>
      </trkpt>
      <trkpt lat="-35.3819632" lon="-72.3276514">
        <ele>159.4</ele>
        <time>2024-01-01T10:31:36Z</time>
      </trkpt>
      <trkpt lat="-35.3816915" lon="-72.3277393">
        <ele>165.3</ele>
        <time>2024-01-01T10:31:39Z</time>
      </trkpt>
      <trkpt lat="-35.3814958" lon="-72.3276510">
        <ele>171.2</ele>
        <time>2024-01-01T10:31:42Z</time>
      </trkpt>
      <trkpt lat="-35.3815627" lon="-72.3280785">
        <ele>177.2</ele>
        <time>2024-01-01T10:31:45Z</time>
      </trkpt>
      <trkpt lat="-35.3819759" lon="-72.3287388">
        <ele>189.0</ele>
        <time>2024-01-01T10:31:51Z</time>
      </trkpt>
      <trkpt lat="-35.3825648" lon="-72.3290869">
        <ele>199.8</ele>
        <time>2024-01-01T10:31:54Z</time>
      </trkpt>
      <trkpt lat="-35.3830471" lon="-72.3289380">
        <ele>210.7</ele>
        <time>2024-01-01T10:31:57Z</time>
      </trkpt>
      <trkpt lat="-35.3835334" lon="-72.3289032">
        <ele>221.5</ele>
        <time>2024-01-01T10:32:00Z</time>
      </trkpt>
      <trkpt lat="-35.3837995" lon="-72.3294096">
        <ele>232.4</ele>
        <time>2024-01-01T10:32:03Z</time>
      </trkpt>
      <trkpt lat="-35.3841463" lon="-72.3297309">
        <ele>243.2</ele>
        <time>2024-01-01T10:32:06Z</time>
      </trkpt>
      <trkpt lat="-35.3848399" lon="-72.3301069">
        <ele>254.1</ele>
        <time>2024-01-01T10:32:09Z</time>
      </trkpt>
      <trkpt lat="-35.3853001" lon="-72.3305252">
        <ele>264.9</ele>
        <time>2024-01-01T10:32:12Z</time>
      </trkpt>
      <trkpt lat="-35.3862425" lon="-72.3306116">
        <ele>286.6</ele>
        <time>2024-01-01T10:32:18Z</time>
      </trkpt>
      <trkpt lat="-35.3871831" lon="-72.3305368">
        <ele>297.5</ele>
        <time>2024-01-01T10:32:21Z</time>
      </trkpt>
      <trkpt lat="-35.3881104" lon="-72.3301267">
        <ele>308.3</ele>
        <time>2024-01-01T10:32:24Z</time>
      </trkpt>
      <trkpt lat="-35.3889036" lon="-72.3304787">
        <ele>319.2</ele>
        <time>2024-01-01T10:32:27Z</time>
      </trkpt>
      <trkpt lat="-35.3896683" lon="-72.3311540">
        <ele>330.0</ele>
        <time>2024-01-01T10:32:30Z</time>
      </trkpt>
      <trkpt lat="-35.3911048" lon="-72.3316843">
        <ele>291.5</ele>
        <time>2024-01-01T10:32:36Z</time>
      </trkpt>
      <trkpt lat="-35.3916325" lon="-72.3315913">
        <ele>272.3</ele>
        <time>2024-01-01T10:32:39Z</time>
      </trkpt>
      <trkpt lat="-35.3919387" lon="-72.3312067">
        <ele>253.1</ele>
        <time>2024-01-01T10:32:42Z</time>
      </trkpt>
      <trkpt lat="-35.3929608" lon="-72.3308563">
        <ele>214.6</ele>
        <time>2024-01-01T10:32:48Z</time>
      </trkpt>
      <trkpt lat="-35.3794954" lon="-72.3257086">
        <ele>195.4</ele>
        <time>2024-01-01T10:32:51Z</time>
      </trkpt>
      <trkpt lat="-35.3792858" lon="-72.3251987">
        <ele>176.2</ele>
        <time>2024-01-01T10:32:54Z</time>
      </trkpt>
      <trkpt lat="-35.3790039" lon="-72.3248909">
        <ele>156.9</ele>
        <time>2024-01-01T10:32:57Z</time>
      </trkpt>
      <trkpt lat="-35.3786606" lon="-72.3247989">
        <ele>137.7</ele>
        <time>2024-01-01T10:33:00Z</time>
      </trkpt>
      <trkpt lat="-35.3778159" lon="-72.3247493">
        <ele>99.2</ele>
        <time>2024-01-01T10:33:06Z</time>
      </trkpt>
      <trkpt lat="-35.3778063" lon="-72.3244609">
        <ele>80.0</ele>
        <time>2024-01-01T10:33:09Z</time>
      </trkpt>
      <trkpt lat="-35.3780287" lon="-72.3241761">
        <ele>80.7</ele>
        <time>2024-01-01T10:33:12Z</time>
      </trkpt>
      <trkpt lat="-35.3779260" lon="-72.3235566">
        <ele>81.4</ele>
        <time>2024-01-01T10:33:15Z</time>
      </trkpt>
      <trkpt lat="-35.3777118" lon="-72.3229877">
        <ele>82.1</ele>
        <time>2024-01-01T10:33:18Z</time>
      </trkpt>
      <trkpt lat="-35.3777978" lon="-72.3223341">
        <ele>82.8</ele>
        <time>2024-01-01T10:33:21Z</time>
      </trkpt>
      <trkpt lat="-35.3781511" lon="-72.3220206">
        <ele>83.5</ele>
        <time>2024-01-01T10:33:24Z</time>
      </trkpt>
      <trkpt lat="-35.3784379" lon="-72.3220448">
        <ele>84.2</ele>
        <time>2024-01-01T10:33:27Z</time>
      </trkpt>
      <trkpt lat="-35.3787580" lon="-72.3221675">
        <ele>84.8</ele>
        <time>2024-01-01T10:33:30Z</time>
      </trkpt>
      <trkpt lat="-35.3788423" lon="-72.3226348">
        <ele>85.5</ele>
        <time>2024-01-01T10:33:33Z</time>
      </trkpt>
      <trkpt lat="-35.3790895" lon="-72.3226962">
        <ele>86.2</ele>
        <time>2024-01-01T10:33:36Z</time>
      </trkpt>
      <trkpt lat="-35.3795375" lon="-72.3217022">
        <ele>87.6</ele>
        <time>2024-01-01T10:33:42Z</time>
      </trkpt>
      <trkpt lat="-35.3799894" lon="-72.3211708">
        <ele>89.0</ele>
        <time>2024-01-01T10:33:48Z</time>
      </trkpt>
      <trkpt lat="-35.3820665" lon="-72.3447349">
        <ele>81.9</ele>
        <time>2024-01-01T10:33:51Z</time>
      </trkpt>
      <trkpt lat="-35.3821604" lon="-72.3288069">
        <ele>74.8</ele>
        <time>2024-01-01T10:33:54Z</time>
      </trkpt>
      <trkpt lat="-35.3772547" lon="-72.3209135">
        <ele>67.8</ele>
        <time>2024-01-01T10:33:57Z</time>
      </trkpt>
      <trkpt lat="-35.3762447" lon="-72.3243932">
        <ele>60.7</ele>
        <time>2024-01-01T10:34:00Z</time>
      </trkpt>
      <trkpt lat="-35.3761100" lon="-72.3251390">
        <ele>53.6</ele>
        <time>2024-01-01T10:34:03Z</time>
      </trkpt>
      <trkpt lat="-35.3752524" lon="-72.3283056">
        <ele>32.4</ele>
        <time>2024-01-01T10:34:12Z</time>
      </trkpt>
      <trkpt lat="-35.3752398" lon="-72.3310808">
        <ele>18.2</ele>
        <time>2024-01-01T10:34:18Z</time>
      </trkpt>
      <trkpt lat="-35.3745861" lon="-72.3331958">
        <ele>-3.0</ele>
        <time>2024-01-01T10:34:27Z</time>
      </trkpt>
      <trkpt lat="-35.3741488" lon="-72.3338499">
        <ele>-0.8</ele>
        <time>2024-01-01T10:34:30Z</time>
      </trkpt>
      <trkpt lat="-35.3739547" lon="-72.3351555">
        <ele>1.5</ele>
        <time>2024-01-01T10:34:33Z</time>
      </trkpt>
      <trkpt lat="-35.3730768" lon="-72.3364484">
        <ele>3.7</ele>
        <time>2024-01-01T10:34:36Z</time>
      </trkpt>
      <trkpt lat="-35.3725939" lon="-72.3369944">
        <ele>5.9</ele>
        <time>2024-01-01T10:34:39Z</time>
      </trkpt>
      <trkpt lat="-35.3724041" lon="-72.3386201">
        <ele>10.4</ele>
        <time>2024-01-01T10:34:45Z</time>
      </trkpt>
      <trkpt lat="-35.3719394" lon="-72.3400647">
        <ele>12.6</ele>
        <time>2024-01-01T10:34:48Z</time>
      </trkpt>
      <trkpt lat="-35.3717829" lon="-72.3409026">
        <ele>14.8</ele>
        <time>2024-01-01T10:34:51Z</time>
      </trkpt>
      <trkpt lat="-35.3714741" lon="-72.3416972">
        <ele>17.1</ele>
        <time>2024-01-01T10:34:54Z</time>
      </trkpt>
      <trkpt lat="-35.3715620" lon="-72.3445833">
        <ele>19.3</ele>
        <time>2024-01-01T10:34:57Z</time>
      </trkpt>
      <trkpt lat="-35.3718576" lon="-72.3472436">
        <ele>26.0</ele>
        <time>2024-01-01T10:35:06Z</time>
      </trkpt>
      <trkpt lat="-35.3720247" lon="-72.3471515">
        <ele>31.5</ele>
        <time>2024-01-01T10:35:09Z</time>
      </trkpt>
      <trkpt lat="-35.3725822" lon="-72.3461237">
        <ele>42.4</ele>
        <time>2024-01-01T10:35:15Z</time>
      </trkpt>
      <trkpt lat="-35.3729664" lon="-72.3448445">
        <ele>53.3</ele>
        <time>2024-01-01T10:35:21Z</time>
      </trkpt>
      <trkpt lat="-35.3731608" lon="-72.3448366">
        <ele>58.8</ele>
        <time>2024-01-01T10:35:24Z</time>
      </trkpt>
      <trkpt lat="-35.3733259" lon="-72.3450274">
        <ele>64.2</ele>
        <time>2024-01-01T10:35:27Z</time>
      </trkpt>
      <trkpt lat="-35.3734193" lon="-72.3454236">
        <ele>69.7</ele>
        <time>2024-01-01T10:35:30Z</time>
      </trkpt>
      <trkpt lat="-35.3730226" lon="-72.3472419">
        <ele>94.4</ele>
        <time>2024-01-01T10:35:51Z</time>
      </trkpt>
      <trkpt lat="-35.3733715" lon="-72.3475552">
        <ele>91.8</ele>
        <time>2024-01-01T10:35:57Z</time>
      </trkpt>
      <trkpt lat="-35.3739941" lon="-72.3475807">
        <ele>87.8</ele>
        <time>2024-01-01T10:36:06Z</time>
      </trkpt>
      <trkpt lat="-35.3741600" lon="-72.3477613">
        <ele>86.5</ele>
        <time>2024-01-01T10:36:09Z</time>
      </trkpt>
      <trkpt lat="-35.3740074" lon="-72.3479237">
        <ele>85.2</ele>
        <time>2024-01-01T10:36:12Z</time>
      </trkpt>
      <trkpt lat="-35.3739275" lon="-72.3482762">
        <ele>83.9</ele>
        <time>2024-01-01T10:36:15Z</time>
      </trkpt>
      <trkpt lat="-35.3739751" lon="-72.3485590">
        <ele>82.6</ele>
        <time>2024-01-01T10:36:18Z</time>
      </trkpt>
      <trkpt lat="-35.3743999" lon="-72.3489446">
        <ele>80.0</ele>
        <time>2024-01-01T10:36:24Z</time>
      </trkpt>
      <trkpt lat="-35.3745692" lon="-72.3492775">
        <ele>85.6</ele>
        <time>2024-01-01T10:36:27Z</time>
      </trkpt>
      <trkpt lat="-35.3746279" lon="-72.3496197">
        <ele>91.2</ele>
        <time>2024-01-01T10:36:30Z</time>
      </trkpt>
      <trkpt lat="-35.3744955" lon="-72.3500067">
        <ele>96.8</ele>
        <time>2024-01-01T10:36:33Z</time>
      </trkpt>
      <trkpt lat="-35.3745915" lon="-72.3502644">
        <ele>102.5</ele>
        <time>2024-01-01T10:36:36Z</time>
      </trkpt>
      <trkpt lat="-35.3752004" lon="-72.3509239">
        <ele>113.7</ele>
        <time>2024-01-01T10:36:42Z</time>
      </trkpt>
      <trkpt lat="-35.3754205" lon="-72.3522276">
        <ele>124.9</ele>
        <time>2024-01-01T10:36:48Z</time>
      </trkpt>
      <trkpt lat="-35.3755896" lon="-72.3524717">
        <ele>130.5</ele>
        <time>2024-01-01T10:36:51Z</time>
      </trkpt>
      <trkpt lat="-35.3759164" lon="-72.3526180">
        <ele>136.2</ele>
        <time>2024-01-01T10:36:54Z</time>
      </trkpt>
      <trkpt lat="-35.3756261" lon="-72.3521569">
        <ele>141.8</ele>
        <time>2024-01-01T10:36:57Z</time>
      </trkpt>
      <trkpt lat="-35.3758154" lon="-72.3516519">
        <ele>153.0</ele>
        <time>2024-01-01T10:37:03Z</time>
      </trkpt>
      <trkpt lat="-35.3756845" lon="-72.3512472">
        <ele>156.6</ele>
        <time>2024-01-01T10:37:06Z</time>
      </trkpt>
      <trkpt lat="-35.3757698" lon="-72.3508701">
        <ele>160.2</ele>
        <time>2024-01-01T10:37:09Z</time>
      </trkpt>
      <trkpt lat="-35.3754704" lon="-72.3504478">
        <ele>163.8</ele>
        <time>2024-01-01T10:37:12Z</time>
      </trkpt>
      <trkpt lat="-35.3755729" lon="-72.3490293">
        <ele>171.1</ele>
        <time>2024-01-01T10:37:18Z</time>
      </trkpt>
      <trkpt lat="-35.3756743" lon="-72.3487387">
        <ele>174.7</ele>
        <time>2024-01-01T10:37:21Z</time>
      </trkpt>
      <trkpt lat="-35.3758772" lon="-72.3485951">
        <ele>178.3</ele>
        <time>2024-01-01T10:37:24Z</time>
      </trkpt>
      <trkpt lat="-35.3758845" lon="-72.3484425">
        <ele>181.9</ele>
        <time>2024-01-01T10:37:27Z</time>
      </trkpt>
      <trkpt lat="-35.3755711" lon="-72.3480194">
        <ele>189.2</ele>
        <time>2024-01-01T10:37:33Z</time>
      </trkpt>
      <trkpt lat="-35.3756345" lon="-72.3476293">
        <ele>192.8</ele>
        <time>2024-01-01T10:37:36Z</time>
      </trkpt>
      <trkpt lat="-35.3754964" lon="-72.3469548">
        <ele>196.4</ele>
        <time>2024-01-01T10:37:39Z</time>
      </trkpt>
      <trkpt lat="-35.3754899" lon="-72.3466771">
        <ele>200.0</ele>
        <time>2024-01-01T10:37:42Z</time>
      </trkpt>
      <trkpt lat="-35.3757475" lon="-72.3463246">
        <ele>198.6</ele>
        <time>2024-01-01T10:37:45Z</time>
      </trkpt>
      <trkpt lat="-35.3757790" lon="-72.3459611">
        <ele>197.2</ele>
        <time>2024-01-01T10:37:48Z</time>
      </trkpt>
      <trkpt lat="-35.3759784" lon="-72.3458836">
        <ele>195.8</ele>
        <time>2024-01-01T10:37:51Z</time>
      </trkpt>
      <trkpt lat="-35.3766263" lon="-72.3460346">
        <ele>193.1</ele>
        <time>2024-01-01T10:37:57Z</time>
      </trkpt>
      <trkpt lat="-35.3771874" lon="-72.3460134">
        <ele>190.3</ele>
        <time>2024-01-01T10:38:03Z</time>
      </trkpt>
      <trkpt lat="-35.3776259" lon="-72.3462629">
        <ele>188.9</ele>
        <time>2024-01-01T10:38:06Z</time>
      </trkpt>
      <trkpt lat="-35.3778821" lon="-72.3462528">
        <ele>187.5</ele>
        <time>2024-01-01T10:38:09Z</time>
      </trkpt>
      <trkpt lat="-35.3791848" lon="-72.3457446">
        <ele>182.0</ele>
        <time>2024-01-01T10:38:21Z</time>
      </trkpt>
      <trkpt lat="-35.3794565" lon="-72.3457065">
        <ele>186.3</ele>
        <time>2024-01-01T10:38:24Z</time>
      </trkpt>
      <trkpt lat="-35.3798102" lon="-72.3454965">
        <ele>190.6</ele>
        <time>2024-01-01T10:38:27Z</time>
      </trkpt>
      <trkpt lat="-35.3799649" lon="-72.3454871">
        <ele>194.9</ele>
        <time>2024-01-01T10:38:30Z</time>
      </trkpt>
      <trkpt lat="-35.3803199" lon="-72.3457289">
        <ele>199.2</ele>
        <time>2024-01-01T10:38:33Z</time>
      </trkpt>
      <trkpt lat="-35.3806360" lon="-72.3457230">
        <ele>203.5</ele>
        <time>2024-01-01T10:38:36Z</time>
      </trkpt>
      <trkpt lat="-35.3817574" lon="-72.3453062">
        <ele>216.5</ele>
        <time>2024-01-01T10:38:45Z</time>
      </trkpt>
      <trkpt lat="-35.3825173" lon="-72.3443847">
        <ele>229.4</ele>
        <time>2024-01-01T10:38:54Z</time>
      </trkpt>
      <trkpt lat="-35.3830735" lon="-72.3441499">
        <ele>238.0</ele>
        <time>2024-01-01T10:39:00Z</time>
      </trkpt>
      <trkpt lat="-35.3835720" lon="-72.3435870">
        <ele>251.8</ele>
        <time>2024-01-01T10:39:09Z</time>
      </trkpt>
      <trkpt lat="-35.3837133" lon="-72.3435714">
        <ele>256.5</ele>
        <time>2024-01-01T10:39:12Z</time>
      </trkpt>
      <trkpt lat="-35.3838423" lon="-72.3437846">
        <ele>261.1</ele>
        <time>2024-01-01T10:39:15Z</time>
      </trkpt>
      <trkpt lat="-35.3838854" lon="-72.3442677">
        <ele>270.3</ele>
        <time>2024-01-01T10:39:21Z</time>
      </trkpt>
      <trkpt lat="-35.3842841" lon="-72.3445726">
        <ele>279.5</ele>
        <time>2024-01-01T10:39:27Z</time>
      </trkpt>
      <trkpt lat="-35.3844061" lon="-72.3448009">
        <ele>284.2</ele>
        <time>2024-01-01T10:39:30Z</time>
      </trkpt>
      <trkpt lat="-35.3843354" lon="-72.3454579">
        <ele>288.8</ele>
        <time>2024-01-01T10:39:33Z</time>
      </trkpt>
      <trkpt lat="-35.3840451" lon="-72.3457274">
        <ele>293.4</ele>
        <time>2024-01-01T10:39:36Z</time>
      </trkpt>
      <trkpt lat="-35.3839626" lon="-72.3461034">
        <ele>298.0</ele>
        <time>2024-01-01T10:39:39Z</time>
      </trkpt>
      <trkpt lat="-35.3840909" lon="-72.3463320">
        <ele>298.1</ele>
        <time>2024-01-01T10:39:42Z</time>
      </trkpt>
      <trkpt lat="-35.3845035" lon="-72.3465916">
        <ele>298.2</ele>
        <time>2024-01-01T10:39:45Z</time>
      </trkpt>
      <trkpt lat="-35.3845875" lon="-72.3467663">
        <ele>298.2</ele>
        <time>2024-01-01T10:39:48Z</time>
      </trkpt>
      <trkpt lat="-35.3846089" lon="-72.3475952">
        <ele>298.3</ele>
        <time>2024-01-01T10:39:51Z</time>
      </trkpt>
      <trkpt lat="-35.3855544" lon="-72.3478210">
        <ele>298.5</ele>
        <time>2024-01-01T10:40:00Z</time>
      </trkpt>
      <trkpt lat="-35.3861784" lon="-72.3489005">
        <ele>298.6</ele>
        <time>2024-01-01T10:40:03Z</time>
      </trkpt>
      <trkpt lat="-35.3864063" lon="-72.3491284">
        <ele>298.7</ele>
        <time>2024-01-01T10:40:06Z</time>
      </trkpt>
      <trkpt lat="-35.3883600" lon="-72.3494953">
        <ele>298.8</ele>
        <time>2024-01-01T10:40:12Z</time>
      </trkpt>
      <trkpt lat="-35.3900611" lon="-72.3497915">
        <ele>300.8</ele>
        <time>2024-01-01T10:40:21Z</time>
      </trkpt>
      <trkpt lat="-35.3907539" lon="-72.3497720">
        <ele>304.3</ele>
        <time>2024-01-01T10:40:27Z</time>
      </trkpt>
      <trkpt lat="-35.3912365" lon="-72.3494983">
        <ele>306.1</ele>
        <time>2024-01-01T10:40:30Z</time>
      </trkpt>
      <trkpt lat="-35.3920597" lon="-72.3488539">
        <ele>309.6</ele>
        <time>2024-01-01T10:40:36Z</time>
      </trkpt>
      <trkpt lat="-35.3926487" lon="-72.3486982">
        <ele>313.2</ele>
        <time>2024-01-01T10:40:42Z</time>
      </trkpt>
      <trkpt lat="-35.3930485" lon="-72.3484265">
        <ele>314.9</ele>
        <time>2024-01-01T10:40:45Z</time>
      </trkpt>
      <trkpt lat="-35.3946850" lon="-72.3464275">
        <ele>323.8</ele>
        <time>2024-01-01T10:41:00Z</time>
      </trkpt>
      <trkpt lat="-35.3951612" lon="-72.3459978">
        <ele>325.7</ele>
        <time>2024-01-01T10:41:03Z</time>
      </trkpt>
      <trkpt lat="-35.3961289" lon="-72.3456602">
        <ele>331.2</ele>
        <time>2024-01-01T10:41:12Z</time>
      </trkpt>
      <trkpt lat="-35.3965891" lon="-72.3456966">
        <ele>333.1</ele>
        <time>2024-01-01T10:41:15Z</time>
      </trkpt>
      <trkpt lat="-35.3968987" lon="-72.3453059">
        <ele>334.9</ele>
        <time>2024-01-01T10:41:18Z</time>
      </trkpt>
      <trkpt lat="-35.3972898" lon="-72.3451495">
        <ele>336.8</ele>
        <time>2024-01-01T10:41:21Z</time>
      </trkpt>
      <trkpt lat="-35.3986692" lon="-72.3458572">
        <ele>340.5</ele>
        <time>2024-01-01T10:41:27Z</time>
      </trkpt>
      <trkpt lat="-35.3994349" lon="-72.3465212">
        <ele>344.2</ele>
        <time>2024-01-01T10:41:33Z</time>
      </trkpt>
      <trkpt lat="-35.3991051" lon="-72.3453583">
        <ele>346.0</ele>
        <time>2024-01-01T10:41:36Z</time>
      </trkpt>
      <trkpt lat="-35.3986023" lon="-72.3444305">
        <ele>347.8</ele>
        <time>2024-01-01T10:41:39Z</time>
      </trkpt>
      <trkpt lat="-35.3985507" lon="-72.3440104">
        <ele>349.7</ele>
        <time>2024-01-01T10:41:42Z</time>
      </trkpt>
      <trkpt lat="-35.3983528" lon="-72.3434178">
        <ele>351.5</ele>
        <time>2024-01-01T10:41:45Z</time>
      </trkpt>
      <trkpt lat="-35.3982732" lon="-72.3426620">
        <ele>353.4</ele>
        <time>2024-01-01T10:41:48Z</time>
      </trkpt>
      <trkpt lat="-35.3990524" lon="-72.3401913">
        <ele>358.9</ele>
        <time>2024-01-01T10:41:57Z</time>
      </trkpt>
      <trkpt lat="-35.3993466" lon="-72.3379829">
        <ele>364.5</ele>
        <time>2024-01-01T10:42:06Z</time>
      </trkpt>
      <trkpt lat="-35.3994828" lon="-72.3354032">
        <ele>368.2</ele>
        <time>2024-01-01T10:42:12Z</time>
      </trkpt>
      <trkpt lat="-35.3992517" lon="-72.3338980">
        <ele>368.2</ele>
        <time>2024-01-01T10:42:21Z</time>
      </trkpt>
      <trkpt lat="-35.3986831" lon="-72.3334750">
        <ele>366.3</ele>
        <time>2024-01-01T10:42:27Z</time>
      </trkpt>
      <trkpt lat="-35.3984171" lon="-72.3328445">
        <ele>364.5</ele>
        <time>2024-01-01T10:42:33Z</time>
      </trkpt>
      <trkpt lat="-35.3974985" lon="-72.3324371">
        <ele>361.7</ele>
        <time>2024-01-01T10:42:42Z</time>
      </trkpt>
      <trkpt lat="-35.3968853" lon="-72.3322586">
        <ele>360.8</ele>
        <time>2024-01-01T10:42:45Z</time>
      </trkpt>
      <trkpt lat="-35.3957945" lon="-72.3326358">
        <ele>358.9</ele>
        <time>2024-01-01T10:42:51Z</time>
      </trkpt>
      <trkpt lat="-35.3954670" lon="-72.3326185">
        <ele>358.0</ele>
        <time>2024-01-01T10:42:54Z</time>
      </trkpt>
      <trkpt lat="-35.3946639" lon="-72.3316271">
        <ele>348.5</ele>
        <time>2024-01-01T10:43:03Z</time>
      </trkpt>
      <trkpt lat="-35.3938226" lon="-72.3310433">
        <ele>342.2</ele>
        <time>2024-01-01T10:43:09Z</time>
      </trkpt>
      <trkpt lat="-35.3971731" lon="-72.3450582">
        <ele>339.1</ele>
        <time>2024-01-01T10:43:12Z</time>
      </trkpt>
      <trkpt lat="-35.3966108" lon="-72.3444992">
        <ele>335.9</ele>
        <time>2024-01-01T10:43:15Z</time>
      </trkpt>
      <trkpt lat="-35.3961718" lon="-72.3443797">
        <ele>332.8</ele>
        <time>2024-01-01T10:43:18Z</time>
      </trkpt>
      <trkpt lat="-35.3950253" lon="-72.3427539">
        <ele>326.5</ele>
        <time>2024-01-01T10:43:24Z</time>
      </trkpt>
      <trkpt lat="-35.3943678" lon="-72.3423892">
        <ele>323.3</ele>
        <time>2024-01-01T10:43:27Z</time>
      </trkpt>
      <trkpt lat="-35.3938625" lon="-72.3419906">
        <ele>320.2</ele>
        <time>2024-01-01T10:43:30Z</time>
      </trkpt>
      <trkpt lat="-35.3936597" lon="-72.3409664">
        <ele>317.0</ele>
        <time>2024-01-01T10:43:33Z</time>
      </trkpt>
      <trkpt lat="-35.3938570" lon="-72.3400857">
        <ele>320.2</ele>
        <time>2024-01-01T10:43:36Z</time>
      </trkpt>
      <trkpt lat="-35.3938740" lon="-72.3379665">
        <ele>329.6</ele>
        <time>2024-01-01T10:43:45Z</time>
      </trkpt>
      <trkpt lat="-35.3949102" lon="-72.3378323">
        <ele>335.9</ele>
        <time>2024-01-01T10:43:51Z</time>
      </trkpt>
      <trkpt lat="-35.3950046" lon="-72.3368590">
        <ele>339.1</ele>
        <time>2024-01-01T10:43:54Z</time>
      </trkpt>
      <trkpt lat="-35.3949039" lon="-72.3353317">
        <ele>345.4</ele>
        <time>2024-01-01T10:44:00Z</time>
      </trkpt>
      <trkpt lat="-35.3945238" lon="-72.3350833">
        <ele>348.5</ele>
        <time>2024-01-01T10:44:03Z</time>
      </trkpt>
      <trkpt lat="-35.3946374" lon="-72.3346786">
        <ele>351.7</ele>
        <time>2024-01-01T10:44:06Z</time>
      </trkpt>
      <trkpt lat="-35.3953066" lon="-72.3341823">
        <ele>358.0</ele>
        <time>2024-01-01T10:44:12Z</time>
      </trkpt>
      <trkpt lat="-35.3956306" lon="-72.3342903">
        <ele>359.2</ele>
        <time>2024-01-01T10:44:15Z</time>
      </trkpt>
      <trkpt lat="-35.3968861" lon="-72.3338254">
        <ele>361.7</ele>
        <time>2024-01-01T10:44:21Z</time>
      </trkpt>
      <trkpt lat="-35.3978926" lon="-72.3326756">
        <ele>365.4</ele>
        <time>2024-01-01T10:44:30Z</time>
      </trkpt>
      <trkpt lat="-35.3940056" lon="-72.3311151">
        <ele>366.6</ele>
        <time>2024-01-01T10:44:33Z</time>
      </trkpt>
      <trkpt lat="-35.3944124" lon="-72.3301418">
        <ele>367.8</ele>
        <time>2024-01-01T10:44:36Z</time>
      </trkpt>
      <trkpt lat="-35.3959162" lon="-72.3285039">
        <ele>371.5</ele>
        <time>2024-01-01T10:44:45Z</time>
      </trkpt>
      <trkpt lat="-35.3962041" lon="-72.3271201">
        <ele>374.0</ele>
        <time>2024-01-01T10:44:51Z</time>
      </trkpt>
      <trkpt lat="-35.3965483" lon="-72.3266418">
        <ele>371.6</ele>
        <time>2024-01-01T10:44:54Z</time>
      </trkpt>
      <trkpt lat="-35.3969789" lon="-72.3257017">
        <ele>369.2</ele>
        <time>2024-01-01T10:44:57Z</time>
      </trkpt>
      <trkpt lat="-35.3960297" lon="-72.3250024">
        <ele>366.8</ele>
        <time>2024-01-01T10:45:00Z</time>
      </trkpt>
      <trkpt lat="-35.3942702" lon="-72.3238804">
        <ele>362.1</ele>
        <time>2024-01-01T10:45:06Z</time>
      </trkpt>
      <trkpt lat="-35.3935805" lon="-72.3238431">
        <ele>359.7</ele>
        <time>2024-01-01T10:45:09Z</time>
      </trkpt>
      <trkpt lat="-35.3932021" lon="-72.3239629">
        <ele>357.3</ele>
        <time>2024-01-01T10:45:12Z</time>
      </trkpt>
      <trkpt lat="-35.3924347" lon="-72.3237296">
        <ele>354.9</ele>
        <time>2024-01-01T10:45:15Z</time>
      </trkpt>
      <trkpt lat="-35.3916920" lon="-72.3233269">
        <ele>352.5</ele>
        <time>2024-01-01T10:45:18Z</time>
      </trkpt>
      <trkpt lat="-35.3917761" lon="-72.3229181">
        <ele>350.2</ele>
        <time>2024-01-01T10:45:21Z</time>
      </trkpt>
      <trkpt lat="-35.3924216" lon="-72.3226436">
        <ele>347.8</ele>
        <time>2024-01-01T10:45:24Z</time>
      </trkpt>
      <trkpt lat="-35.3922603" lon="-72.3221959">
        <ele>345.4</ele>
        <time>2024-01-01T10:45:27Z</time>
      </trkpt>
      <trkpt lat="-35.3916669" lon="-72.3217755">
        <ele>343.0</ele>
        <time>2024-01-01T10:45:30Z</time>
      </trkpt>
      <trkpt lat="-35.3916343" lon="-72.3211959">
        <ele>338.0</ele>
        <time>2024-01-01T10:45:33Z</time>
      </trkpt>
      <trkpt lat="-35.3913283" lon="-72.3207978">
        <ele>333.0</ele>
        <time>2024-01-01T10:45:36Z</time>
      </trkpt>
      <trkpt lat="-35.3913430" lon="-72.3202685">
        <ele>328.0</ele>
        <time>2024-01-01T10:45:39Z</time>
      </trkpt>
      <trkpt lat="-35.3906505" lon="-72.3185686">
        <ele>318.0</ele>
        <time>2024-01-01T10:45:45Z</time>
      </trkpt>
      <trkpt lat="-35.3901673" lon="-72.3184889">
        <ele>313.0</ele>
        <time>2024-01-01T10:45:48Z</time>
      </trkpt>
      <trkpt lat="-35.3895385" lon="-72.3178586">
        <ele>308.0</ele>
        <time>2024-01-01T10:45:51Z</time>
      </trkpt>
      <trkpt lat="-35.3895402" lon="-72.3172512">
        <ele>303.0</ele>
        <time>2024-01-01T10:45:54Z</time>
      </trkpt>
      <trkpt lat="-35.3897657" lon="-72.3166805">
        <ele>298.0</ele>
        <time>2024-01-01T10:45:57Z</time>
      </trkpt>
      <trkpt lat="-35.3902340" lon="-72.3163627">
        <ele>293.0</ele>
        <time>2024-01-01T10:46:00Z</time>
      </trkpt>
      <trkpt lat="-35.3906719" lon="-72.3163790">
        <ele>288.0</ele>
        <time>2024-01-01T10:46:03Z</time>
      </trkpt>
      <trkpt lat="-35.3911148" lon="-72.3165413">
        <ele>283.0</ele>
        <time>2024-01-01T10:46:06Z</time>
      </trkpt>
      <trkpt lat="-35.3909153" lon="-72.3169052">
        <ele>278.0</ele>
        <time>2024-01-01T10:46:09Z</time>
      </trkpt>
      <trkpt lat="-35.3908994" lon="-72.3173550">
        <ele>268.8</ele>
        <time>2024-01-01T10:46:12Z</time>
      </trkpt>
      <trkpt lat="-35.3912904" lon="-72.3173444">
        <ele>259.7</ele>
        <time>2024-01-01T10:46:15Z</time>
      </trkpt>
      <trkpt lat="-35.3912501" lon="-72.3164192">
        <ele>241.4</ele>
        <time>2024-01-01T10:46:21Z</time>
      </trkpt>
      <trkpt lat="-35.3911264" lon="-72.3160030">
        <ele>232.2</ele>
        <time>2024-01-01T10:46:24Z</time>
      </trkpt>
      <trkpt lat="-35.3907481" lon="-72.3158377">
        <ele>223.1</ele>
        <time>2024-01-01T10:46:27Z</time>
      </trkpt>
      <trkpt lat="-35.3906095" lon="-72.3154122">
        <ele>213.9</ele>
        <time>2024-01-01T10:46:30Z</time>
      </trkpt>
      <trkpt lat="-35.3900221" lon="-72.3153501">
        <ele>204.8</ele>
        <time>2024-01-01T10:46:33Z</time>
      </trkpt>
      <trkpt lat="-35.3898876" lon="-72.3149460">
        <ele>195.6</ele>
        <time>2024-01-01T10:46:36Z</time>
      </trkpt>
      <trkpt lat="-35.3892015" lon="-72.3150150">
        <ele>186.5</ele>
        <time>2024-01-01T10:46:39Z</time>
      </trkpt>
      <trkpt lat="-35.3886586" lon="-72.3148187">
        <ele>177.3</ele>
        <time>2024-01-01T10:46:42Z</time>
      </trkpt>
      <trkpt lat="-35.3881065" lon="-72.3149211">
        <ele>168.2</ele>
        <time>2024-01-01T10:46:45Z</time>
      </trkpt>
      <trkpt lat="-35.3876717" lon="-72.3145173">
        <ele>159.0</ele>
        <time>2024-01-01T10:46:48Z</time>
      </trkpt>
      <trkpt lat="-35.3872901" lon="-72.3142950">
        <ele>158.1</ele>
        <time>2024-01-01T10:46:51Z</time>
      </trkpt>
      <trkpt lat="-35.3866340" lon="-72.3143288">
        <ele>157.2</ele>
        <time>2024-01-01T10:46:54Z</time>
      </trkpt>
      <trkpt lat="-35.3865735" lon="-72.3149580">
        <ele>156.2</ele>
        <time>2024-01-01T10:46:57Z</time>
      </trkpt>
      <trkpt lat="-35.3861220" lon="-72.3155151">
        <ele>155.3</ele>
        <time>2024-01-01T10:47:00Z</time>
      </trkpt>
      <trkpt lat="-35.3861509" lon="-72.3162121">
        <ele>154.4</ele>
        <time>2024-01-01T10:47:03Z</time>
      </trkpt>
      <trkpt lat="-35.3863862" lon="-72.3169152">
        <ele>153.5</ele>
        <time>2024-01-01T10:47:06Z</time>
      </trkpt>
      <trkpt lat="-35.3862745" lon="-72.3173680">
        <ele>152.5</ele>
        <time>2024-01-01T10:47:09Z</time>
      </trkpt>
      <trkpt lat="-35.3857711" lon="-72.3176686">
        <ele>151.6</ele>
        <time>2024-01-01T10:47:12Z</time>
      </trkpt>
      <trkpt lat="-35.3852665" lon="-72.3177214">
        <ele>150.7</ele>
        <time>2024-01-01T10:47:15Z</time>
      </trkpt>
      <trkpt lat="-35.3850121" lon="-72.3175469">
        <ele>149.8</ele>
        <time>2024-01-01T10:47:18Z</time>
      </trkpt>
      <trkpt lat="-35.3846460" lon="-72.3179610">
        <ele>148.8</ele>
        <time>2024-01-01T10:47:21Z</time>
      </trkpt>
      <trkpt lat="-35.3840413" lon="-72.3179165">
        <ele>147.9</ele>
        <time>2024-01-01T10:47:24Z</time>
      </trkpt>
      <trkpt lat="-35.3833798" lon="-72.3175966">
        <ele>147.0</ele>
        <time>2024-01-01T10:47:27Z</time>
      </trkpt>
      <trkpt lat="-35.3830779" lon="-72.3177147">
        <ele>142.2</ele>
        <time>2024-01-01T10:47:30Z</time>
      </trkpt>
      <trkpt lat="-35.3825923" lon="-72.3171697">
        <ele>137.5</ele>
        <time>2024-01-01T10:47:33Z</time>
      </trkpt>
      <trkpt lat="-35.3817859" lon="-72.3173984">
        <ele>132.7</ele>
        <time>2024-01-01T10:47:36Z</time>
      </trkpt>
      <trkpt lat="-35.3808655" lon="-72.3179355">
        <ele>127.9</ele>
        <time>2024-01-01T10:47:39Z</time>
      </trkpt>
      <trkpt lat="-35.3803665" lon="-72.3184332">
        <ele>123.2</ele>
        <time>2024-01-01T10:47:42Z</time>
      </trkpt>
      <trkpt lat="-35.3803693" lon="-72.3181758">
        <ele>118.4</ele>
        <time>2024-01-01T10:47:45Z</time>
      </trkpt>
      <trkpt lat="-35.3806596" lon="-72.3176058">
        <ele>113.6</ele>
        <time>2024-01-01T10:47:48Z</time>
      </trkpt>
      <trkpt lat="-35.3804405" lon="-72.3175056">
        <ele>108.8</ele>
        <time>2024-01-01T10:47:51Z</time>
      </trkpt>
      <trkpt lat="-35.3801294" lon="-72.3181322">
        <ele>104.1</ele>
        <time>2024-01-01T10:47:54Z</time>
      </trkpt>
      <trkpt lat="-35.3798823" lon="-72.3184113">
        <ele>99.3</ele>
        <time>2024-01-01T10:47:57Z</time>
      </trkpt>
      <trkpt lat="-35.3798277" lon="-72.3180348">
        <ele>94.5</ele>
        <time>2024-01-01T10:48:00Z</time>
      </trkpt>
      <trkpt lat="-35.3799940" lon="-72.3175089">
        <ele>89.8</ele>
        <time>2024-01-01T10:48:03Z</time>
      </trkpt>
      <trkpt lat="-35.3805461" lon="-72.3163334">
        <ele>80.1</ele>
        <time>2024-01-01T10:48:09Z</time>
      </trkpt>
      <trkpt lat="-35.3804664" lon="-72.3155330">
        <ele>70.2</ele>
        <time>2024-01-01T10:48:15Z</time>
      </trkpt>
      <trkpt lat="-35.3809850" lon="-72.3143893">
        <ele>60.4</ele>
        <time>2024-01-01T10:48:21Z</time>
      </trkpt>
      <trkpt lat="-35.3807331" lon="-72.3138202">
        <ele>55.5</ele>
        <time>2024-01-01T10:48:24Z</time>
      </trkpt>
      <trkpt lat="-35.3806802" lon="-72.3133694">
        <ele>50.5</ele>
        <time>2024-01-01T10:48:27Z</time>
      </trkpt>
      <trkpt lat="-35.3804164" lon="-72.3132184">
        <ele>45.6</ele>
        <time>2024-01-01T10:48:30Z</time>
      </trkpt>
      <trkpt lat="-35.3800085" lon="-72.3135029">
        <ele>40.7</ele>
        <time>2024-01-01T10:48:33Z</time>
      </trkpt>
      <trkpt lat="-35.3797763" lon="-72.3133401">
        <ele>35.8</ele>
        <time>2024-01-01T10:48:36Z</time>
      </trkpt>
      <trkpt lat="-35.3792105" lon="-72.3139673">
        <ele>30.8</ele>
        <time>2024-01-01T10:48:39Z</time>
      </trkpt>
      <trkpt lat="-35.3782253" lon="-72.3176006">
        <ele>47.2</ele>
        <time>2024-01-01T10:48:48Z</time>
      </trkpt>
      <trkpt lat="-35.3775059" lon="-72.3198730">
        <ele>99.7</ele>
        <time>2024-01-01T10:48:54Z</time>
      </trkpt>
      <trkpt lat="-35.3773315" lon="-72.3206538">
        <ele>125.9</ele>
        <time>2024-01-01T10:48:57Z</time>
      </trkpt>
      <trkpt lat="-35.3934436" lon="-72.3313163">
        <ele>152.2</ele>
        <time>2024-01-01T10:49:00Z</time>
      </trkpt>
      <trkpt lat="-35.3779071" lon="-72.3204831">
        <ele>178.4</ele>
        <time>2024-01-01T10:49:03Z</time>
      </trkpt>
      <trkpt lat="-35.3933548" lon="-72.3310836">
        <ele>230.8</ele>
        <time>2024-01-01T10:49:09Z</time>
      </trkpt>
      <trkpt lat="-35.3931701" lon="-72.3314170">
        <ele>335.8</ele>
        <time>2024-01-01T10:49:21Z</time>
      </trkpt>
      <trkpt lat="-35.3924372" lon="-72.3315731">
        <ele>343.5</ele>
        <time>2024-01-01T10:49:48Z</time>
      </trkpt>
      <trkpt lat="-35.3915819" lon="-72.3313587">
        <ele>332.0</ele>
        <time>2024-01-01T10:50:03Z</time>
      </trkpt>
      <trkpt lat="-35.3910080" lon="-72.3314322">
        <ele>331.1</ele>
        <time>2024-01-01T10:50:21Z</time>
      </trkpt>
      <trkpt lat="-35.3908481" lon="-72.3313737">
        <ele>330.9</ele>
        <time>2024-01-01T10:50:24Z</time>
      </trkpt>
      <trkpt lat="-35.3905714" lon="-72.3310496">
        <ele>330.3</ele>
        <time>2024-01-01T10:50:36Z</time>
      </trkpt>
      <trkpt lat="-35.3897159" lon="-72.3307582">
        <ele>328.4</ele>
        <time>2024-01-01T10:51:03Z</time>
      </trkpt>
      <trkpt lat="-35.3888243" lon="-72.3300517">
        <ele>327.0</ele>
        <time>2024-01-01T10:51:36Z</time>
      </trkpt>
      <trkpt lat="-35.3885795" lon="-72.3295571">
        <ele>327.0</ele>
        <time>2024-01-01T10:51:48Z</time>
      </trkpt>
      <trkpt lat="-35.3879250" lon="-72.3289150">
        <ele>321.9</ele>
        <time>2024-01-01T10:52:09Z</time>
      </trkpt>
      <trkpt lat="-35.3873775" lon="-72.3275944">
        <ele>299.6</ele>
        <time>2024-01-01T10:52:45Z</time>
      </trkpt>
      <trkpt lat="-35.3871993" lon="-72.3275141">
        <ele>294.2</ele>
        <time>2024-01-01T10:52:51Z</time>
      </trkpt>
      <trkpt lat="-35.3868477" lon="-72.3275886">
        <ele>286.2</ele>
        <time>2024-01-01T10:53:00Z</time>
      </trkpt>
      <trkpt lat="-35.3864865" lon="-72.3275545">
        <ele>275.4</ele>
        <time>2024-01-01T10:53:12Z</time>
      </trkpt>
      <trkpt lat="-35.3864343" lon="-72.3274354">
        <ele>272.7</ele>
        <time>2024-01-01T10:53:15Z</time>
      </trkpt>
      <trkpt lat="-35.3866815" lon="-72.3269223">
        <ele>264.0</ele>
        <time>2024-01-01T10:53:27Z</time>
      </trkpt>
      <trkpt lat="-35.3867090" lon="-72.3265909">
        <ele>258.0</ele>
        <time>2024-01-01T10:53:36Z</time>
      </trkpt>
      <trkpt lat="-35.3856978" lon="-72.3259385">
        <ele>233.2</ele>
        <time>2024-01-01T10:54:12Z</time>
      </trkpt>
      <trkpt lat="-35.3855625" lon="-72.3256143">
        <ele>226.8</ele>
        <time>2024-01-01T10:54:21Z</time>
      </trkpt>
      <trkpt lat="-35.3853111" lon="-72.3252932">
        <ele>218.2</ele>
        <time>2024-01-01T10:54:33Z</time>
      </trkpt>
      <trkpt lat="-35.3849986" lon="-72.3252003">
        <ele>216.0</ele>
        <time>2024-01-01T10:54:45Z</time>
      </trkpt>
      <trkpt lat="-35.3842984" lon="-72.3253943">
        <ele>216.0</ele>
        <time>2024-01-01T10:55:03Z</time>
      </trkpt>
      <trkpt lat="-35.3842607" lon="-72.3249576">
        <ele>210.8</ele>
        <time>2024-01-01T10:55:21Z</time>
      </trkpt>
      <trkpt lat="-35.3832767" lon="-72.3250047">
        <ele>179.5</ele>
        <time>2024-01-01T10:55:57Z</time>
      </trkpt>
      <trkpt lat="-35.3823843" lon="-72.3246208">
        <ele>154.1</ele>
        <time>2024-01-01T10:56:27Z</time>
      </trkpt>
      <trkpt lat="-35.3818291" lon="-72.3246748">
        <ele>149.0</ele>
        <time>2024-01-01T10:56:48Z</time>
      </trkpt>
      <trkpt lat="-35.3814624" lon="-72.3245864">
        <ele>149.0</ele>
        <time>2024-01-01T10:57:03Z</time>
      </trkpt>
      <trkpt lat="-35.3813725" lon="-72.3243433">
        <ele>149.0</ele>
        <time>2024-01-01T10:57:12Z</time>
      </trkpt>
      <trkpt lat="-35.3813878" lon="-72.3238990">
        <ele>149.0</ele>
        <time>2024-01-01T10:57:24Z</time>
      </trkpt>
      <trkpt lat="-35.3813069" lon="-72.3236085">
        <ele>149.0</ele>
        <time>2024-01-01T10:57:39Z</time>
      </trkpt>
      <trkpt lat="-35.3813318" lon="-72.3234742">
        <ele>149.0</ele>
        <time>2024-01-01T10:57:42Z</time>
      </trkpt>
      <trkpt lat="-35.3816331" lon="-72.3231701">
        <ele>135.2</ele>
        <time>2024-01-01T10:58:00Z</time>
      </trkpt>
      <trkpt lat="-35.3816619" lon="-72.3229694">
        <ele>125.9</ele>
        <time>2024-01-01T10:58:06Z</time>
      </trkpt>
      <trkpt lat="-35.3810744" lon="-72.3229009">
        <ele>102.8</ele>
        <time>2024-01-01T10:58:21Z</time>
      </trkpt>
      <trkpt lat="-35.3804847" lon="-72.3222125">
        <ele>89.0</ele>
        <time>2024-01-01T10:58:48Z</time>
      </trkpt>
      <trkpt lat="-35.3804035" lon="-72.3218727">
        <ele>89.0</ele>
        <time>2024-01-01T10:59:06Z</time>
      </trkpt>
      <trkpt lat="-35.3798591" lon="-72.3218445">
        <ele>89.0</ele>
        <time>2024-01-01T10:59:39Z</time>
      </trkpt>
      <trkpt lat="-35.3797177" lon="-72.3215594">
        <ele>89.0</ele>
        <time>2024-01-01T10:59:54Z</time>
      </trkpt>
      <trkpt lat="-35.3790730" lon="-72.3207665">
        <ele>74.2</ele>
        <time>2024-01-01T11:00:36Z</time>
      </trkpt>
      <trkpt lat="-35.3788267" lon="-72.3206578">
        <ele>64.4</ele>
        <time>2024-01-01T11:00:42Z</time>
      </trkpt>
      <trkpt lat="-35.3779066" lon="-72.3205018">
        <ele>27.5</ele>
        <time>2024-01-01T11:01:09Z</time>
      </trkpt>
      <trkpt lat="-35.3895044" lon="-72.3153021">
        <ele>34.8</ele>
        <time>2024-01-01T11:01:18Z</time>
      </trkpt>
      <trkpt lat="-35.3857092" lon="-72.3261465">
        <ele>37.3</ele>
        <time>2024-01-01T11:01:21Z</time>
      </trkpt>
      <trkpt lat="-35.3753662" lon="-72.3297939">
        <ele>39.8</ele>
        <time>2024-01-01T11:01:24Z</time>
      </trkpt>
      <trkpt lat="-35.3754948" lon="-72.3292817">
        <ele>42.2</ele>
        <time>2024-01-01T11:01:27Z</time>
      </trkpt>
      <trkpt lat="-35.3754765" lon="-72.3288296">
        <ele>44.7</ele>
        <time>2024-01-01T11:01:30Z</time>
      </trkpt>
      <trkpt lat="-35.3756358" lon="-72.3283714">
        <ele>49.6</ele>
        <time>2024-01-01T11:01:36Z</time>
      </trkpt>
      <trkpt lat="-35.3763055" lon="-72.3280873">
        <ele>54.5</ele>
        <time>2024-01-01T11:01:42Z</time>
      </trkpt>
      <trkpt lat="-35.3764849" lon="-72.3280876">
        <ele>57.0</ele>
        <time>2024-01-01T11:01:45Z</time>
      </trkpt>
      <trkpt lat="-35.3767763" lon="-72.3283501">
        <ele>62.2</ele>
        <time>2024-01-01T11:01:48Z</time>
      </trkpt>
      <trkpt lat="-35.3771298" lon="-72.3284133">
        <ele>67.3</ele>
        <time>2024-01-01T11:01:51Z</time>
      </trkpt>
      <trkpt lat="-35.3775409" lon="-72.3278730">
        <ele>72.5</ele>
        <time>2024-01-01T11:01:54Z</time>
      </trkpt>
      <trkpt lat="-35.3777662" lon="-72.3269860">
        <ele>82.8</ele>
        <time>2024-01-01T11:02:00Z</time>
      </trkpt>
      <trkpt lat="-35.3782670" lon="-72.3261005">
        <ele>93.1</ele>
        <time>2024-01-01T11:02:06Z</time>
      </trkpt>
      <trkpt lat="-35.3786241" lon="-72.3257781">
        <ele>98.2</ele>
        <time>2024-01-01T11:02:09Z</time>
      </trkpt>
      <trkpt lat="-35.3789981" lon="-72.3257212">
        <ele>103.4</ele>
        <time>2024-01-01T11:02:12Z</time>
      </trkpt>
      <trkpt lat="-35.3794648" lon="-72.3258186">
        <ele>108.5</ele>
        <time>2024-01-01T11:02:15Z</time>
      </trkpt>
      <trkpt lat="-35.3796676" lon="-72.3256556">
        <ele>113.7</ele>
        <time>2024-01-01T11:02:18Z</time>
      </trkpt>
      <trkpt lat="-35.3791773" lon="-72.3245247">
        <ele>124.0</ele>
        <time>2024-01-01T11:02:24Z</time>
      </trkpt>
      <trkpt lat="-35.3792563" lon="-72.3240664">
        <ele>125.9</ele>
        <time>2024-01-01T11:02:27Z</time>
      </trkpt>
      <trkpt lat="-35.3803542" lon="-72.3227114">
        <ele>133.6</ele>
        <time>2024-01-01T11:02:39Z</time>
      </trkpt>
      <trkpt lat="-35.3813546" lon="-72.3228227">
        <ele>137.5</ele>
        <time>2024-01-01T11:02:45Z</time>
      </trkpt>
      <trkpt lat="-35.3816983" lon="-72.3226180">
        <ele>139.4</ele>
        <time>2024-01-01T11:02:48Z</time>
      </trkpt>
      <trkpt lat="-35.3822265" lon="-72.3225383">
        <ele>141.3</ele>
        <time>2024-01-01T11:02:51Z</time>
      </trkpt>
      <trkpt lat="-35.3825255" lon="-72.3223822">
        <ele>143.2</ele>
        <time>2024-01-01T11:02:54Z</time>
      </trkpt>
      <trkpt lat="-35.3828280" lon="-72.3227202">
        <ele>145.2</ele>
        <time>2024-01-01T11:02:57Z</time>
      </trkpt>
      <trkpt lat="-35.3828089" lon="-72.3232573">
        <ele>147.1</ele>
        <time>2024-01-01T11:03:00Z</time>
      </trkpt>
      <trkpt lat="-35.3826970" lon="-72.3237286">
        <ele>149.0</ele>
        <time>2024-01-01T11:03:03Z</time>
      </trkpt>
      <trkpt lat="-35.3816842" lon="-72.3236555">
        <ele>154.1</ele>
        <time>2024-01-01T11:03:09Z</time>
      </trkpt>
      <trkpt lat="-35.3810776" lon="-72.3240212">
        <ele>156.6</ele>
        <time>2024-01-01T11:03:12Z</time>
      </trkpt>
      <trkpt lat="-35.3807598" lon="-72.3248735">
        <ele>161.7</ele>
        <time>2024-01-01T11:03:18Z</time>
      </trkpt>
      <trkpt lat="-35.3808452" lon="-72.3252809">
        <ele>164.2</ele>
        <time>2024-01-01T11:03:21Z</time>
      </trkpt>
      <trkpt lat="-35.3811913" lon="-72.3253946">
        <ele>166.8</ele>
        <time>2024-01-01T11:03:24Z</time>
      </trkpt>
      <trkpt lat="-35.3817175" lon="-72.3252060">
        <ele>169.3</ele>
        <time>2024-01-01T11:03:27Z</time>
      </trkpt>
      <trkpt lat="-35.3820253" lon="-72.3254803">
        <ele>171.8</ele>
        <time>2024-01-01T11:03:30Z</time>
      </trkpt>
      <trkpt lat="-35.3815744" lon="-72.3265387">
        <ele>176.9</ele>
        <time>2024-01-01T11:03:36Z</time>
      </trkpt>
      <trkpt lat="-35.3820249" lon="-72.3269594">
        <ele>182.0</ele>
        <time>2024-01-01T11:03:42Z</time>
      </trkpt>
      <trkpt lat="-35.3819632" lon="-72.3276514">
        <ele>188.4</ele>
        <time>2024-01-01T11:03:45Z</time>
      </trkpt>
      <trkpt lat="-35.3816915" lon="-72.3277393">
        <ele>194.8</ele>
        <time>2024-01-01T11:03:48Z</time>
      </trkpt>
      <trkpt lat="-35.3814958" lon="-72.3276510">
        <ele>201.2</ele>
        <time>2024-01-01T11:03:51Z</time>
      </trkpt>
      <trkpt lat="-35.3815627" lon="-72.3280785">
        <ele>207.5</ele>
        <time>2024-01-01T11:03:54Z</time>
      </trkpt>
      <trkpt lat="-35.3819759" lon="-72.3287388">
        <ele>220.3</ele>
        <time>2024-01-01T11:04:00Z</time>
      </trkpt>
      <trkpt lat="-35.3825648" lon="-72.3290869">
        <ele>226.7</ele>
        <time>2024-01-01T11:04:03Z</time>
      </trkpt>
      <trkpt lat="-35.3830471" lon="-72.3289380">
        <ele>233.1</ele>
        <time>2024-01-01T11:04:06Z</time>
      </trkpt>
      <trkpt lat="-35.3835334" lon="-72.3289032">
        <ele>239.5</ele>
        <time>2024-01-01T11:04:09Z</time>
      </trkpt>
      <trkpt lat="-35.3837995" lon="-72.3294096">
        <ele>245.8</ele>
        <time>2024-01-01T11:04:12Z</time>
      </trkpt>
      <trkpt lat="-35.3841463" lon="-72.3297309">
        <ele>252.2</ele>
        <time>2024-01-01T11:04:15Z</time>
      </trkpt>
      <trkpt lat="-35.3848399" lon="-72.3301069">
        <ele>258.6</ele>
        <time>2024-01-01T11:04:18Z</time>
      </trkpt>
      <trkpt lat="-35.3853001" lon="-72.3305252">
        <ele>265.0</ele>
        <time>2024-01-01T11:04:21Z</time>
      </trkpt>
      <trkpt lat="-35.3862425" lon="-72.3306116">
        <ele>241.5</ele>
        <time>2024-01-01T11:04:27Z</time>
      </trkpt>
      <trkpt lat="-35.3871831" lon="-72.3305368">
        <ele>229.7</ele>
        <time>2024-01-01T11:04:30Z</time>
      </trkpt>
      <trkpt lat="-35.3881104" lon="-72.3301267">
        <ele>217.9</ele>
        <time>2024-01-01T11:04:33Z</time>
      </trkpt>
      <trkpt lat="-35.3889036" lon="-72.3304787">
        <ele>206.2</ele>
        <time>2024-01-01T11:04:36Z</time>
      </trkpt>
      <trkpt lat="-35.3896683" lon="-72.3311540">
        <ele>194.4</ele>
        <time>2024-01-01T11:04:39Z</time>
      </trkpt>
      <trkpt lat="-35.3911048" lon="-72.3316843">
        <ele>170.8</ele>
        <time>2024-01-01T11:04:45Z</time>
      </trkpt>
      <trkpt lat="-35.3916325" lon="-72.3315913">
        <ele>159.1</ele>
        <time>2024-01-01T11:04:48Z</time>
      </trkpt>
      <trkpt lat="-35.3919387" lon="-72.3312067">
        <ele>147.3</ele>
        <time>2024-01-01T11:04:51Z</time>
      </trkpt>
      <trkpt lat="-35.3929608" lon="-72.3308563">
        <ele>123.8</ele>
        <time>2024-01-01T11:04:57Z</time>
      </trkpt>
      <trkpt lat="-35.3794954" lon="-72.3257086">
        <ele>112.0</ele>
        <time>2024-01-01T11:05:00Z</time>
      </trkpt>
      <trkpt lat="-35.3792858" lon="-72.3251987">
        <ele>108.4</ele>
        <time>2024-01-01T11:05:03Z</time>
      </trkpt>
      <trkpt lat="-35.3790039" lon="-72.3248909">
        <ele>104.8</ele>
        <time>2024-01-01T11:05:06Z</time>
      </trkpt>
      <trkpt lat="-35.3786606" lon="-72.3247989">
        <ele>101.2</ele>
        <time>2024-01-01T11:05:09Z</time>
      </trkpt>
      <trkpt lat="-35.3778159" lon="-72.3247493">
        <ele>93.9</ele>
        <time>2024-01-01T11:05:15Z</time>
      </trkpt>
      <trkpt lat="-35.3778063" lon="-72.3244609">
        <ele>90.3</ele>
        <time>2024-01-01T11:05:18Z</time>
      </trkpt>
      <trkpt lat="-35.3780287" lon="-72.3241761">
        <ele>86.7</ele>
        <time>2024-01-01T11:05:21Z</time>
      </trkpt>
      <trkpt lat="-35.3779260" lon="-72.3235566">
        <ele>83.1</ele>
        <time>2024-01-01T11:05:24Z</time>
      </trkpt>
      <trkpt lat="-35.3777118" lon="-72.3229877">
        <ele>79.5</ele>
        <time>2024-01-01T11:05:27Z</time>
      </trkpt>
      <trkpt lat="-35.3777978" lon="-72.3223341">
        <ele>75.8</ele>
        <time>2024-01-01T11:05:30Z</time>
      </trkpt>
      <trkpt lat="-35.3781511" lon="-72.3220206">
        <ele>72.2</ele>
        <time>2024-01-01T11:05:33Z</time>
      </trkpt>
      <trkpt lat="-35.3784379" lon="-72.3220448">
        <ele>68.6</ele>
        <time>2024-01-01T11:05:36Z</time>
      </trkpt>
      <trkpt lat="-35.3787580" lon="-72.3221675">
        <ele>65.0</ele>
        <time>2024-01-01T11:05:39Z</time>
      </trkpt>
      <trkpt lat="-35.3788423" lon="-72.3226348">
        <ele>65.0</ele>
        <time>2024-01-01T11:05:42Z</time>
      </trkpt>
      <trkpt lat="-35.3790895" lon="-72.3226962">
        <ele>65.0</ele>
        <time>2024-01-01T11:05:45Z</time>
      </trkpt>
      <trkpt lat="-35.3795375" lon="-72.3217022">
        <ele>65.0</ele>
        <time>2024-01-01T11:05:51Z</time>
      </trkpt>
      <trkpt lat="-35.3799894" lon="-72.3211708">
        <ele>65.0</ele>
        <time>2024-01-01T11:05:57Z</time>
      </trkpt>
      <trkpt lat="-35.3820665" lon="-72.3447349">
        <ele>65.0</ele>
        <time>2024-01-01T11:06:00Z</time>
      </trkpt>
      <trkpt lat="-35.3821604" lon="-72.3288069">
        <ele>65.0</ele>
        <time>2024-01-01T11:06:03Z</time>
      </trkpt>
    </trkseg>
  </trk>
</gpx>