<?xml version='1.0' encoding='UTF-8'?>
<gpx xmlns="http://www.topografix.com/GPX/1/1" xmlns:xsi="http://www.w3.org/2001/XMLSchema-instance" version="1.1" creator="Bosque Abierto MTB - Guardianes del Bosque" xsi:schemaLocation="http://www.topografix.com/GPX/1/1 http://www.topografix.com/GPX/1/1/gpx.xsd">
  <metadata>
    <name>Pumones Fast Racing Negro</name>
    <desc>Ruta MTB Bosque Abierto - ARAUCO Renovables</desc>
    <author>
      <name>Guardianes del Bosque MTB</name>
    </author>
    <time>2024-01-01T10:00:00Z</time>
  </metadata>
  <trk>
    <name>Pumones Fast Racing Negro</name>
    <type>cycling</type>
    <trkseg>
      <trkpt lat="-35.3772547" lon="-72.3209135">
        <ele>65.0</ele>
        <time>2024-01-01T10:00:00Z</time>
      </trkpt>
      <trkpt lat="-35.3762447" lon="-72.3243932">
        <ele>62.3</ele>
        <time>2024-01-01T10:00:03Z</time>
      </trkpt>
      <trkpt lat="-35.3761100" lon="-72.3251390">
        <ele>59.7</ele>
        <time>2024-01-01T10:00:06Z</time>
      </trkpt>
      <trkpt lat="-35.3752524" lon="-72.3283056">
        <ele>51.7</ele>
        <time>2024-01-01T10:00:15Z</time>
      </trkpt>
      <trkpt lat="-35.3752398" lon="-72.3310808">
        <ele>45.8</ele>
        <time>2024-01-01T10:00:21Z</time>
      </trkpt>
      <trkpt lat="-35.3745861" lon="-72.3331958">
        <ele>36.3</ele>
        <time>2024-01-01T10:00:30Z</time>
      </trkpt>
      <trkpt lat="-35.3741488" lon="-72.3338499">
        <ele>33.2</ele>
        <time>2024-01-01T10:00:33Z</time>
      </trkpt>
      <trkpt lat="-35.3739547" lon="-72.3351555">
        <ele>30.0</ele>
        <time>2024-01-01T10:00:36Z</time>
      </trkpt>
      <trkpt lat="-35.3730768" lon="-72.3364484">
        <ele>32.0</ele>
        <time>2024-01-01T10:00:39Z</time>
      </trkpt>
      <trkpt lat="-35.3725939" lon="-72.3369944">
        <ele>34.0</ele>
        <time>2024-01-01T10:00:42Z</time>
      </trkpt>
      <trkpt lat="-35.3724041" lon="-72.3386201">
        <ele>38.0</ele>
        <time>2024-01-01T10:00:48Z</time>
      </trkpt>
      <trkpt lat="-35.3719394" lon="-72.3400647">
        <ele>40.0</ele>
        <time>2024-01-01T10:00:51Z</time>
      </trkpt>
      <trkpt lat="-35.3717829" lon="-72.3409026">
        <ele>42.0</ele>
        <time>2024-01-01T10:00:54Z</time>
      </trkpt>
      <trkpt lat="-35.3714741" lon="-72.3416972">
        <ele>39.3</ele>
        <time>2024-01-01T10:00:57Z</time>
      </trkpt>
      <trkpt lat="-35.3715620" lon="-72.3445833">
        <ele>36.7</ele>
        <time>2024-01-01T10:01:00Z</time>
      </trkpt>
      <trkpt lat="-35.3718576" lon="-72.3472436">
        <ele>28.7</ele>
        <time>2024-01-01T10:01:09Z</time>
      </trkpt>
      <trkpt lat="-35.3720247" lon="-72.3471515">
        <ele>26.0</ele>
        <time>2024-01-01T10:01:12Z</time>
      </trkpt>
      <trkpt lat="-35.3725822" lon="-72.3461237">
        <ele>46.0</ele>
        <time>2024-01-01T10:01:18Z</time>
      </trkpt>
      <trkpt lat="-35.3729664" lon="-72.3448445">
        <ele>66.0</ele>
        <time>2024-01-01T10:01:24Z</time>
      </trkpt>
      <trkpt lat="-35.3731608" lon="-72.3448366">
        <ele>76.0</ele>
        <time>2024-01-01T10:01:27Z</time>
      </trkpt>
      <trkpt lat="-35.3733259" lon="-72.3450274">
        <ele>86.0</ele>
        <time>2024-01-01T10:01:30Z</time>
      </trkpt>
      <trkpt lat="-35.3734193" lon="-72.3454236">
        <ele>87.8</ele>
        <time>2024-01-01T10:01:33Z</time>
      </trkpt>
      <trkpt lat="-35.3730226" lon="-72.3472419">
        <ele>97.0</ele>
        <time>2024-01-01T10:01:54Z</time>
      </trkpt>
      <trkpt lat="-35.3733715" lon="-72.3475552">
        <ele>97.0</ele>
        <time>2024-01-01T10:02:00Z</time>
      </trkpt>
      <trkpt lat="-35.3739941" lon="-72.3475807">
        <ele>94.2</ele>
        <time>2024-01-01T10:02:09Z</time>
      </trkpt>
      <trkpt lat="-35.3741600" lon="-72.3477613">
        <ele>91.3</ele>
        <time>2024-01-01T10:02:12Z</time>
      </trkpt>
      <trkpt lat="-35.3740074" lon="-72.3479237">
        <ele>88.5</ele>
        <time>2024-01-01T10:02:15Z</time>
      </trkpt>
      <trkpt lat="-35.3739275" lon="-72.3482762">
        <ele>85.7</ele>
        <time>2024-01-01T10:02:18Z</time>
      </trkpt>
      <trkpt lat="-35.3739751" lon="-72.3485590">
        <ele>82.8</ele>
        <time>2024-01-01T10:02:21Z</time>
      </trkpt>
      <trkpt lat="-35.3743999" lon="-72.3489446">
        <ele>77.5</ele>
        <time>2024-01-01T10:02:27Z</time>
      </trkpt>
      <trkpt lat="-35.3745692" lon="-72.3492775">
        <ele>75.0</ele>
        <time>2024-01-01T10:02:30Z</time>
      </trkpt>
      <trkpt lat="-35.3746279" lon="-72.3496197">
        <ele>72.5</ele>
        <time>2024-01-01T10:02:33Z</time>
      </trkpt>
      <trkpt lat="-35.3744955" lon="-72.3500067">
        <ele>70.0</ele>
        <time>2024-01-01T10:02:36Z</time>
      </trkpt>
      <trkpt lat="-35.3745915" lon="-72.3502644">
        <ele>67.5</ele>
        <time>2024-01-01T10:02:39Z</time>
      </trkpt>
      <trkpt lat="-35.3752004" lon="-72.3509239">
        <ele>69.3</ele>
        <time>2024-01-01T10:02:45Z</time>
      </trkpt>
      <trkpt lat="-35.3754205" lon="-72.3522276">
        <ele>78.0</ele>
        <time>2024-01-01T10:02:51Z</time>
      </trkpt>
      <trkpt lat="-35.3755896" lon="-72.3524717">
        <ele>82.3</ele>
        <time>2024-01-01T10:02:54Z</time>
      </trkpt>
      <trkpt lat="-35.3759164" lon="-72.3526180">
        <ele>86.7</ele>
        <time>2024-01-01T10:02:57Z</time>
      </trkpt>
      <trkpt lat="-35.3756261" lon="-72.3521569">
        <ele>91.0</ele>
        <time>2024-01-01T10:03:00Z</time>
      </trkpt>
      <trkpt lat="-35.3758154" lon="-72.3516519">
        <ele>124.0</ele>
        <time>2024-01-01T10:03:06Z</time>
      </trkpt>
      <trkpt lat="-35.3756845" lon="-72.3512472">
        <ele>140.5</ele>
        <time>2024-01-01T10:03:09Z</time>
      </trkpt>
      <trkpt lat="-35.3757698" lon="-72.3508701">
        <ele>157.0</ele>
        <time>2024-01-01T10:03:12Z</time>
      </trkpt>
      <trkpt lat="-35.3754704" lon="-72.3504478">
        <ele>173.5</ele>
        <time>2024-01-01T10:03:15Z</time>
      </trkpt>
      <trkpt lat="-35.3755729" lon="-72.3490293">
        <ele>190.0</ele>
        <time>2024-01-01T10:03:21Z</time>
      </trkpt>
      <trkpt lat="-35.3756743" lon="-72.3487387">
        <ele>190.0</ele>
        <time>2024-01-01T10:03:24Z</time>
      </trkpt>
      <trkpt lat="-35.3758772" lon="-72.3485951">
        <ele>190.0</ele>
        <time>2024-01-01T10:03:27Z</time>
      </trkpt>
      <trkpt lat="-35.3758845" lon="-72.3484425">
        <ele>190.0</ele>
        <time>2024-01-01T10:03:30Z</time>
      </trkpt>
      <trkpt lat="-35.3755711" lon="-72.3480194">
        <ele>190.0</ele>
        <time>2024-01-01T10:03:36Z</time>
      </trkpt>
      <trkpt lat="-35.3756345" lon="-72.3476293">
        <ele>191.7</ele>
        <time>2024-01-01T10:03:39Z</time>
      </trkpt>
      <trkpt lat="-35.3754964" lon="-72.3469548">
        <ele>193.3</ele>
        <time>2024-01-01T10:03:42Z</time>
      </trkpt>
      <trkpt lat="-35.3754899" lon="-72.3466771">
        <ele>195.0</ele>
        <time>2024-01-01T10:03:45Z</time>
      </trkpt>
      <trkpt lat="-35.3757475" lon="-72.3463246">
        <ele>196.7</ele>
        <time>2024-01-01T10:03:48Z</time>
      </trkpt>
      <trkpt lat="-35.3757790" lon="-72.3459611">
        <ele>198.3</ele>
        <time>2024-01-01T10:03:51Z</time>
      </trkpt>
      <trkpt lat="-35.3759784" lon="-72.3458836">
        <ele>200.0</ele>
        <time>2024-01-01T10:03:54Z</time>
      </trkpt>
      <trkpt lat="-35.3766263" lon="-72.3460346">
        <ele>211.7</ele>
        <time>2024-01-01T10:04:00Z</time>
      </trkpt>
      <trkpt lat="-35.3771874" lon="-72.3460134">
        <ele>223.3</ele>
        <time>2024-01-01T10:04:06Z</time>
      </trkpt>
      <trkpt lat="-35.3776259" lon="-72.3462629">
        <ele>229.2</ele>
        <time>2024-01-01T10:04:09Z</time>
      </trkpt>
      <trkpt lat="-35.3778821" lon="-72.3462528">
        <ele>235.0</ele>
        <time>2024-01-01T10:04:12Z</time>
      </trkpt>
      <trkpt lat="-35.3791848" lon="-72.3457446">
        <ele>199.7</ele>
        <time>2024-01-01T10:04:24Z</time>
      </trkpt>
      <trkpt lat="-35.3794565" lon="-72.3457065">
        <ele>190.8</ele>
        <time>2024-01-01T10:04:27Z</time>
      </trkpt>
      <trkpt lat="-35.3798102" lon="-72.3454965">
        <ele>182.0</ele>
        <time>2024-01-01T10:04:30Z</time>
      </trkpt>
      <trkpt lat="-35.3799649" lon="-72.3454871">
        <ele>191.3</ele>
        <time>2024-01-01T10:04:33Z</time>
      </trkpt>
      <trkpt lat="-35.3803199" lon="-72.3457289">
        <ele>200.7</ele>
        <time>2024-01-01T10:04:36Z</time>
      </trkpt>
      <trkpt lat="-35.3806360" lon="-72.3457230">
        <ele>210.0</ele>
        <time>2024-01-01T10:04:39Z</time>
      </trkpt>
      <trkpt lat="-35.3817574" lon="-72.3453062">
        <ele>238.0</ele>
        <time>2024-01-01T10:04:48Z</time>
      </trkpt>
      <trkpt lat="-35.3825173" lon="-72.3443847">
        <ele>238.0</ele>
        <time>2024-01-01T10:04:57Z</time>
      </trkpt>
      <trkpt lat="-35.3830735" lon="-72.3441499">
        <ele>238.0</ele>
        <time>2024-01-01T10:05:03Z</time>
      </trkpt>
      <trkpt lat="-35.3835720" lon="-72.3435870">
        <ele>250.0</ele>
        <time>2024-01-01T10:05:12Z</time>
      </trkpt>
      <trkpt lat="-35.3837133" lon="-72.3435714">
        <ele>256.0</ele>
        <time>2024-01-01T10:05:15Z</time>
      </trkpt>
      <trkpt lat="-35.3838423" lon="-72.3437846">
        <ele>262.0</ele>
        <time>2024-01-01T10:05:18Z</time>
      </trkpt>
      <trkpt lat="-35.3838854" lon="-72.3442677">
        <ele>274.0</ele>
        <time>2024-01-01T10:05:24Z</time>
      </trkpt>
      <trkpt lat="-35.3842841" lon="-72.3445726">
        <ele>282.0</ele>
        <time>2024-01-01T10:05:30Z</time>
      </trkpt>
      <trkpt lat="-35.3844061" lon="-72.3448009">
        <ele>286.0</ele>
        <time>2024-01-01T10:05:33Z</time>
      </trkpt>
      <trkpt lat="-35.3843354" lon="-72.3454579">
        <ele>290.0</ele>
        <time>2024-01-01T10:05:36Z</time>
      </trkpt>
      <trkpt lat="-35.3840451" lon="-72.3457274">
        <ele>294.0</ele>
        <time>2024-01-01T10:05:39Z</time>
      </trkpt>
      <trkpt lat="-35.3839626" lon="-72.3461034">
        <ele>298.0</ele>
        <time>2024-01-01T10:05:42Z</time>
      </trkpt>
      <trkpt lat="-35.3840909" lon="-72.3463320">
        <ele>298.0</ele>
        <time>2024-01-01T10:05:45Z</time>
      </trkpt>
      <trkpt lat="-35.3845035" lon="-72.3465916">
        <ele>298.0</ele>
        <time>2024-01-01T10:05:48Z</time>
      </trkpt>
      <trkpt lat="-35.3845875" lon="-72.3467663">
        <ele>298.0</ele>
        <time>2024-01-01T10:05:51Z</time>
      </trkpt>
      <trkpt lat="-35.3846089" lon="-72.3475952">
        <ele>298.0</ele>
        <time>2024-01-01T10:05:54Z</time>
      </trkpt>
      <trkpt lat="-35.3855544" lon="-72.3478210">
        <ele>298.2</ele>
        <time>2024-01-01T10:06:03Z</time>
      </trkpt>
      <trkpt lat="-35.3861784" lon="-72.3489005">
        <ele>298.3</ele>
        <time>2024-01-01T10:06:06Z</time>
      </trkpt>
      <trkpt lat="-35.3864063" lon="-72.3491284">
        <ele>298.5</ele>
        <time>2024-01-01T10:06:09Z</time>
      </trkpt>
      <trkpt lat="-35.3883600" lon="-72.3494953">
        <ele>298.8</ele>
        <time>2024-01-01T10:06:15Z</time>
      </trkpt>
      <trkpt lat="-35.3900611" lon="-72.3497915">
        <ele>300.7</ele>
        <time>2024-01-01T10:06:24Z</time>
      </trkpt>
      <trkpt lat="-35.3907539" lon="-72.3497720">
        <ele>302.3</ele>
        <time>2024-01-01T10:06:30Z</time>
      </trkpt>
      <trkpt lat="-35.3912365" lon="-72.3494983">
        <ele>303.2</ele>
        <time>2024-01-01T10:06:33Z</time>
      </trkpt>
      <trkpt lat="-35.3920597" lon="-72.3488539">
        <ele>305.3</ele>
        <time>2024-01-01T10:06:39Z</time>
      </trkpt>
      <trkpt lat="-35.3926487" lon="-72.3486982">
        <ele>308.0</ele>
        <time>2024-01-01T10:06:45Z</time>
      </trkpt>
      <trkpt lat="-35.3930485" lon="-72.3484265">
        <ele>309.3</ele>
        <time>2024-01-01T10:06:48Z</time>
      </trkpt>
      <trkpt lat="-35.3946850" lon="-72.3464275">
        <ele>326.0</ele>
        <time>2024-01-01T10:07:03Z</time>
      </trkpt>
      <trkpt lat="-35.3951612" lon="-72.3459978">
        <ele>330.7</ele>
        <time>2024-01-01T10:07:06Z</time>
      </trkpt>
      <trkpt lat="-35.3961289" lon="-72.3456602">
        <ele>339.3</ele>
        <time>2024-01-01T10:07:15Z</time>
      </trkpt>
      <trkpt lat="-35.3965891" lon="-72.3456966">
        <ele>338.7</ele>
        <time>2024-01-01T10:07:18Z</time>
      </trkpt>
      <trkpt lat="-35.3968987" lon="-72.3453059">
        <ele>338.0</ele>
        <time>2024-01-01T10:07:21Z</time>
      </trkpt>
      <trkpt lat="-35.3972898" lon="-72.3451495">
        <ele>337.3</ele>
        <time>2024-01-01T10:07:24Z</time>
      </trkpt>
      <trkpt lat="-35.3986692" lon="-72.3458572">
        <ele>336.0</ele>
        <time>2024-01-01T10:07:30Z</time>
      </trkpt>
      <trkpt lat="-35.3994349" lon="-72.3465212">
        <ele>343.3</ele>
        <time>2024-01-01T10:07:36Z</time>
      </trkpt>
      <trkpt lat="-35.3991051" lon="-72.3453583">
        <ele>347.0</ele>
        <time>2024-01-01T10:07:39Z</time>
      </trkpt>
      <trkpt lat="-35.3986023" lon="-72.3444305">
        <ele>350.7</ele>
        <time>2024-01-01T10:07:42Z</time>
      </trkpt>
      <trkpt lat="-35.3985507" lon="-72.3440104">
        <ele>354.3</ele>
        <time>2024-01-01T10:07:45Z</time>
      </trkpt>
      <trkpt lat="-35.3983528" lon="-72.3434178">
        <ele>358.0</ele>
        <time>2024-01-01T10:07:48Z</time>
      </trkpt>
      <trkpt lat="-35.3982732" lon="-72.3426620">
        <ele>360.5</ele>
        <time>2024-01-01T10:07:51Z</time>
      </trkpt>
      <trkpt lat="-35.3990524" lon="-72.3401913">
        <ele>368.0</ele>
        <time>2024-01-01T10:08:00Z</time>
      </trkpt>
      <trkpt lat="-35.3993466" lon="-72.3379829">
        <ele>372.5</ele>
        <time>2024-01-01T10:08:09Z</time>
      </trkpt>
      <trkpt lat="-35.3994828" lon="-72.3354032">
        <ele>371.5</ele>
        <time>2024-01-01T10:08:15Z</time>
      </trkpt>
      <trkpt lat="-35.3992517" lon="-72.3338980">
        <ele>370.0</ele>
        <time>2024-01-01T10:08:24Z</time>
      </trkpt>
      <trkpt lat="-35.3986831" lon="-72.3334750">
        <ele>370.7</ele>
        <time>2024-01-01T10:08:30Z</time>
      </trkpt>
      <trkpt lat="-35.3984171" lon="-72.3328445">
        <ele>371.3</ele>
        <time>2024-01-01T10:08:36Z</time>
      </trkpt>
      <trkpt lat="-35.3974985" lon="-72.3324371">
        <ele>369.7</ele>
        <time>2024-01-01T10:08:45Z</time>
      </trkpt>
      <trkpt lat="-35.3968853" lon="-72.3322586">
        <ele>367.3</ele>
        <time>2024-01-01T10:08:48Z</time>
      </trkpt>
      <trkpt lat="-35.3957945" lon="-72.3326358">
        <ele>362.7</ele>
        <time>2024-01-01T10:08:54Z</time>
      </trkpt>
      <trkpt lat="-35.3954670" lon="-72.3326185">
        <ele>360.3</ele>
        <time>2024-01-01T10:08:57Z</time>
      </trkpt>
      <trkpt lat="-35.3946639" lon="-72.3316271">
        <ele>352.0</ele>
        <time>2024-01-01T10:09:06Z</time>
      </trkpt>
      <trkpt lat="-35.3938226" lon="-72.3310433">
        <ele>346.0</ele>
        <time>2024-01-01T10:09:12Z</time>
      </trkpt>
      <trkpt lat="-35.3971731" lon="-72.3450582">
        <ele>343.0</ele>
        <time>2024-01-01T10:09:15Z</time>
      </trkpt>
      <trkpt lat="-35.3966108" lon="-72.3444992">
        <ele>340.0</ele>
        <time>2024-01-01T10:09:18Z</time>
      </trkpt>
      <trkpt lat="-35.3961718" lon="-72.3443797">
        <ele>336.2</ele>
        <time>2024-01-01T10:09:21Z</time>
      </trkpt>
      <trkpt lat="-35.3950253" lon="-72.3427539">
        <ele>328.5</ele>
        <time>2024-01-01T10:09:27Z</time>
      </trkpt>
      <trkpt lat="-35.3943678" lon="-72.3423892">
        <ele>324.7</ele>
        <time>2024-01-01T10:09:30Z</time>
      </trkpt>
      <trkpt lat="-35.3938625" lon="-72.3419906">
        <ele>320.8</ele>
        <time>2024-01-01T10:09:33Z</time>
      </trkpt>
      <trkpt lat="-35.3936597" lon="-72.3409664">
        <ele>317.0</ele>
        <time>2024-01-01T10:09:36Z</time>
      </trkpt>
      <trkpt lat="-35.3938570" lon="-72.3400857">
        <ele>319.0</ele>
        <time>2024-01-01T10:09:39Z</time>
      </trkpt>
      <trkpt lat="-35.3938740" lon="-72.3379665">
        <ele>325.0</ele>
        <time>2024-01-01T10:09:48Z</time>
      </trkpt>
      <trkpt lat="-35.3949102" lon="-72.3378323">
        <ele>329.0</ele>
        <time>2024-01-01T10:09:54Z</time>
      </trkpt>
      <trkpt lat="-35.3950046" lon="-72.3368590">
        <ele>333.8</ele>
        <time>2024-01-01T10:09:57Z</time>
      </trkpt>
      <trkpt lat="-35.3949039" lon="-72.3353317">
        <ele>343.5</ele>
        <time>2024-01-01T10:10:03Z</time>
      </trkpt>
      <trkpt lat="-35.3945238" lon="-72.3350833">
        <ele>348.3</ele>
        <time>2024-01-01T10:10:06Z</time>
      </trkpt>
      <trkpt lat="-35.3946374" lon="-72.3346786">
        <ele>353.2</ele>
        <time>2024-01-01T10:10:09Z</time>
      </trkpt>
      <trkpt lat="-35.3953066" lon="-72.3341823">
        <ele>360.3</ele>
        <time>2024-01-01T10:10:15Z</time>
      </trkpt>
      <trkpt lat="-35.3956306" lon="-72.3342903">
        <ele>362.7</ele>
        <time>2024-01-01T10:10:18Z</time>
      </trkpt>
      <trkpt lat="-35.3968861" lon="-72.3338254">
        <ele>367.3</ele>
        <time>2024-01-01T10:10:24Z</time>
      </trkpt>
      <trkpt lat="-35.3978926" lon="-72.3326756">
        <ele>372.3</ele>
        <time>2024-01-01T10:10:33Z</time>
      </trkpt>
      <trkpt lat="-35.3940056" lon="-72.3311151">
        <ele>372.7</ele>
        <time>2024-01-01T10:10:36Z</time>
      </trkpt>
      <trkpt lat="-35.3944124" lon="-72.3301418">
        <ele>373.0</ele>
        <time>2024-01-01T10:10:39Z</time>
      </trkpt>
      <trkpt lat="-35.3959162" lon="-72.3285039">
        <ele>374.0</ele>
        <time>2024-01-01T10:10:48Z</time>
      </trkpt>
      <trkpt lat="-35.3962041" lon="-72.3271201">
        <ele>372.3</ele>
        <time>2024-01-01T10:10:54Z</time>
      </trkpt>
      <trkpt lat="-35.3965483" lon="-72.3266418">
        <ele>371.5</ele>
        <time>2024-01-01T10:10:57Z</time>
      </trkpt>
      <trkpt lat="-35.3969789" lon="-72.3257017">
        <ele>370.7</ele>
        <time>2024-01-01T10:11:00Z</time>
      </trkpt>
      <trkpt lat="-35.3960297" lon="-72.3250024">
        <ele>369.8</ele>
        <time>2024-01-01T10:11:03Z</time>
      </trkpt>
      <trkpt lat="-35.3942702" lon="-72.3238804">
        <ele>365.5</ele>
        <time>2024-01-01T10:11:09Z</time>
      </trkpt>
      <trkpt lat="-35.3935805" lon="-72.3238431">
        <ele>362.0</ele>
        <time>2024-01-01T10:11:12Z</time>
      </trkpt>
      <trkpt lat="-35.3932021" lon="-72.3239629">
        <ele>358.5</ele>
        <time>2024-01-01T10:11:15Z</time>
      </trkpt>
      <trkpt lat="-35.3924347" lon="-72.3237296">
        <ele>355.0</ele>
        <time>2024-01-01T10:11:18Z</time>
      </trkpt>
      <trkpt lat="-35.3916920" lon="-72.3233269">
        <ele>351.5</ele>
        <time>2024-01-01T10:11:21Z</time>
      </trkpt>
      <trkpt lat="-35.3917761" lon="-72.3229181">
        <ele>348.0</ele>
        <time>2024-01-01T10:11:24Z</time>
      </trkpt>
      <trkpt lat="-35.3924216" lon="-72.3226436">
        <ele>337.5</ele>
        <time>2024-01-01T10:11:27Z</time>
      </trkpt>
      <trkpt lat="-35.3922603" lon="-72.3221959">
        <ele>327.0</ele>
        <time>2024-01-01T10:11:30Z</time>
      </trkpt>
      <trkpt lat="-35.3916669" lon="-72.3217755">
        <ele>316.5</ele>
        <time>2024-01-01T10:11:33Z</time>
      </trkpt>
      <trkpt lat="-35.3916343" lon="-72.3211959">
        <ele>306.0</ele>
        <time>2024-01-01T10:11:36Z</time>
      </trkpt>
      <trkpt lat="-35.3913283" lon="-72.3207978">
        <ele>295.5</ele>
        <time>2024-01-01T10:11:39Z</time>
      </trkpt>
      <trkpt lat="-35.3913430" lon="-72.3202685">
        <ele>285.0</ele>
        <time>2024-01-01T10:11:42Z</time>
      </trkpt>
      <trkpt lat="-35.3906505" lon="-72.3185686">
        <ele>282.7</ele>
        <time>2024-01-01T10:11:48Z</time>
      </trkpt>
      <trkpt lat="-35.3901673" lon="-72.3184889">
        <ele>281.5</ele>
        <time>2024-01-01T10:11:51Z</time>
      </trkpt>
      <trkpt lat="-35.3895385" lon="-72.3178586">
        <ele>280.3</ele>
        <time>2024-01-01T10:11:54Z</time>
      </trkpt>
      <trkpt lat="-35.3895402" lon="-72.3172512">
        <ele>279.2</ele>
        <time>2024-01-01T10:11:57Z</time>
      </trkpt>
      <trkpt lat="-35.3897657" lon="-72.3166805">
        <ele>278.0</ele>
        <time>2024-01-01T10:12:00Z</time>
      </trkpt>
      <trkpt lat="-35.3902340" lon="-72.3163627">
        <ele>278.0</ele>
        <time>2024-01-01T10:12:03Z</time>
      </trkpt>
      <trkpt lat="-35.3906719" lon="-72.3163790">
        <ele>278.0</ele>
        <time>2024-01-01T10:12:06Z</time>
      </trkpt>
      <trkpt lat="-35.3911148" lon="-72.3165413">
        <ele>278.0</ele>
        <time>2024-01-01T10:12:09Z</time>
      </trkpt>
      <trkpt lat="-35.3909153" lon="-72.3169052">
        <ele>278.0</ele>
        <time>2024-01-01T10:12:12Z</time>
      </trkpt>
      <trkpt lat="-35.3908994" lon="-72.3173550">
        <ele>278.0</ele>
        <time>2024-01-01T10:12:15Z</time>
      </trkpt>
      <trkpt lat="-35.3912904" lon="-72.3173444">
        <ele>278.0</ele>
        <time>2024-01-01T10:12:18Z</time>
      </trkpt>
      <trkpt lat="-35.3912501" lon="-72.3164192">
        <ele>265.0</ele>
        <time>2024-01-01T10:12:24Z</time>
      </trkpt>
      <trkpt lat="-35.3911264" lon="-72.3160030">
        <ele>258.5</ele>
        <time>2024-01-01T10:12:27Z</time>
      </trkpt>
      <trkpt lat="-35.3907481" lon="-72.3158377">
        <ele>252.0</ele>
        <time>2024-01-01T10:12:30Z</time>
      </trkpt>
      <trkpt lat="-35.3906095" lon="-72.3154122">
        <ele>245.5</ele>
        <time>2024-01-01T10:12:33Z</time>
      </trkpt>
      <trkpt lat="-35.3900221" lon="-72.3153501">
        <ele>239.0</ele>
        <time>2024-01-01T10:12:36Z</time>
      </trkpt>
      <trkpt lat="-35.3898876" lon="-72.3149460">
        <ele>225.8</ele>
        <time>2024-01-01T10:12:39Z</time>
      </trkpt>
      <trkpt lat="-35.3892015" lon="-72.3150150">
        <ele>212.7</ele>
        <time>2024-01-01T10:12:42Z</time>
      </trkpt>
      <trkpt lat="-35.3886586" lon="-72.3148187">
        <ele>199.5</ele>
        <time>2024-01-01T10:12:45Z</time>
      </trkpt>
      <trkpt lat="-35.3881065" lon="-72.3149211">
        <ele>186.3</ele>
        <time>2024-01-01T10:12:48Z</time>
      </trkpt>
      <trkpt lat="-35.3876717" lon="-72.3145173">
        <ele>173.2</ele>
        <time>2024-01-01T10:12:51Z</time>
      </trkpt>
      <trkpt lat="-35.3872901" lon="-72.3142950">
        <ele>160.0</ele>
        <time>2024-01-01T10:12:54Z</time>
      </trkpt>
      <trkpt lat="-35.3866340" lon="-72.3143288">
        <ele>165.8</ele>
        <time>2024-01-01T10:12:57Z</time>
      </trkpt>
      <trkpt lat="-35.3865735" lon="-72.3149580">
        <ele>171.7</ele>
        <time>2024-01-01T10:13:00Z</time>
      </trkpt>
      <trkpt lat="-35.3861220" lon="-72.3155151">
        <ele>177.5</ele>
        <time>2024-01-01T10:13:03Z</time>
      </trkpt>
      <trkpt lat="-35.3861509" lon="-72.3162121">
        <ele>183.3</ele>
        <time>2024-01-01T10:13:06Z</time>
      </trkpt>
      <trkpt lat="-35.3863862" lon="-72.3169152">
        <ele>189.2</ele>
        <time>2024-01-01T10:13:09Z</time>
      </trkpt>
      <trkpt lat="-35.3862745" lon="-72.3173680">
        <ele>195.0</ele>
        <time>2024-01-01T10:13:12Z</time>
      </trkpt>
      <trkpt lat="-35.3857711" lon="-72.3176686">
        <ele>187.0</ele>
        <time>2024-01-01T10:13:15Z</time>
      </trkpt>
      <trkpt lat="-35.3852665" lon="-72.3177214">
        <ele>179.0</ele>
        <time>2024-01-01T10:13:18Z</time>
      </trkpt>
      <trkpt lat="-35.3850121" lon="-72.3175469">
        <ele>171.0</ele>
        <time>2024-01-01T10:13:21Z</time>
      </trkpt>
      <trkpt lat="-35.3846460" lon="-72.3179610">
        <ele>163.0</ele>
        <time>2024-01-01T10:13:24Z</time>
      </trkpt>
      <trkpt lat="-35.3840413" lon="-72.3179165">
        <ele>155.0</ele>
        <time>2024-01-01T10:13:27Z</time>
      </trkpt>
      <trkpt lat="-35.3833798" lon="-72.3175966">
        <ele>147.0</ele>
        <time>2024-01-01T10:13:30Z</time>
      </trkpt>
      <trkpt lat="-35.3830779" lon="-72.3177147">
        <ele>136.7</ele>
        <time>2024-01-01T10:13:33Z</time>
      </trkpt>
      <trkpt lat="-35.3825923" lon="-72.3171697">
        <ele>126.3</ele>
        <time>2024-01-01T10:13:36Z</time>
      </trkpt>
      <trkpt lat="-35.3817859" lon="-72.3173984">
        <ele>116.0</ele>
        <time>2024-01-01T10:13:39Z</time>
      </trkpt>
      <trkpt lat="-35.3808655" lon="-72.3179355">
        <ele>105.7</ele>
        <time>2024-01-01T10:13:42Z</time>
      </trkpt>
      <trkpt lat="-35.3803665" lon="-72.3184332">
        <ele>95.3</ele>
        <time>2024-01-01T10:13:45Z</time>
      </trkpt>
      <trkpt lat="-35.3803693" lon="-72.3181758">
        <ele>85.0</ele>
        <time>2024-01-01T10:13:48Z</time>
      </trkpt>
      <trkpt lat="-35.3806596" lon="-72.3176058">
        <ele>85.0</ele>
        <time>2024-01-01T10:13:51Z</time>
      </trkpt>
      <trkpt lat="-35.3804405" lon="-72.3175056">
        <ele>85.0</ele>
        <time>2024-01-01T10:13:54Z</time>
      </trkpt>
      <trkpt lat="-35.3801294" lon="-72.3181322">
        <ele>85.0</ele>
        <time>2024-01-01T10:13:57Z</time>
      </trkpt>
      <trkpt lat="-35.3798823" lon="-72.3184113">
        <ele>85.0</ele>
        <time>2024-01-01T10:14:00Z</time>
      </trkpt>
      <trkpt lat="-35.3798277" lon="-72.3180348">
        <ele>85.0</ele>
        <time>2024-01-01T10:14:03Z</time>
      </trkpt>
      <trkpt lat="-35.3799940" lon="-72.3175089">
        <ele>85.0</ele>
        <time>2024-01-01T10:14:06Z</time>
      </trkpt>
      <trkpt lat="-35.3805461" lon="-72.3163334">
        <ele>66.0</ele>
        <time>2024-01-01T10:14:12Z</time>
      </trkpt>
      <trkpt lat="-35.3804664" lon="-72.3155330">
        <ele>47.0</ele>
        <time>2024-01-01T10:14:18Z</time>
      </trkpt>
      <trkpt lat="-35.3809850" lon="-72.3143893">
        <ele>28.0</ele>
        <time>2024-01-01T10:14:24Z</time>
      </trkpt>
      <trkpt lat="-35.3807331" lon="-72.3138202">
        <ele>28.0</ele>
        <time>2024-01-01T10:14:27Z</time>
      </trkpt>
      <trkpt lat="-35.3806802" lon="-72.3133694">
        <ele>28.0</ele>
        <time>2024-01-01T10:14:30Z</time>
      </trkpt>
      <trkpt lat="-35.3804164" lon="-72.3132184">
        <ele>28.0</ele>
        <time>2024-01-01T10:14:33Z</time>
      </trkpt>
      <trkpt lat="-35.3800085" lon="-72.3135029">
        <ele>28.0</ele>
        <time>2024-01-01T10:14:36Z</time>
      </trkpt>
      <trkpt lat="-35.3797763" lon="-72.3133401">
        <ele>28.0</ele>
        <time>2024-01-01T10:14:39Z</time>
      </trkpt>
      <trkpt lat="-35.3792105" lon="-72.3139673">
        <ele>28.0</ele>
        <time>2024-01-01T10:14:42Z</time>
      </trkpt>
      <trkpt lat="-35.3782253" lon="-72.3176006">
        <ele>26.5</ele>
        <time>2024-01-01T10:14:51Z</time>
      </trkpt>
      <trkpt lat="-35.3775059" lon="-72.3198730">
        <ele>25.5</ele>
        <time>2024-01-01T10:14:57Z</time>
      </trkpt>
      <trkpt lat="-35.3773315" lon="-72.3206538">
        <ele>25.0</ele>
        <time>2024-01-01T10:15:00Z</time>
      </trkpt>
      <trkpt lat="-35.3934436" lon="-72.3313163">
        <ele>81.5</ele>
        <time>2024-01-01T10:15:03Z</time>
      </trkpt>
      <trkpt lat="-35.3779071" lon="-72.3204831">
        <ele>138.0</ele>
        <time>2024-01-01T10:15:06Z</time>
      </trkpt>
      <trkpt lat="-35.3933548" lon="-72.3310836">
        <ele>251.0</ele>
        <time>2024-01-01T10:15:12Z</time>
      </trkpt>
      <trkpt lat="-35.3931701" lon="-72.3314170">
        <ele>363.3</ele>
        <time>2024-01-01T10:15:24Z</time>
      </trkpt>
      <trkpt lat="-35.3924372" lon="-72.3315731">
        <ele>362.0</ele>
        <time>2024-01-01T10:15:51Z</time>
      </trkpt>
      <trkpt lat="-35.3915819" lon="-72.3313587">
        <ele>342.0</ele>
        <time>2024-01-01T10:16:06Z</time>
      </trkpt>
      <trkpt lat="-35.3910080" lon="-72.3314322">
        <ele>332.0</ele>
        <time>2024-01-01T10:16:24Z</time>
      </trkpt>
      <trkpt lat="-35.3908481" lon="-72.3313737">
        <ele>332.0</ele>
        <time>2024-01-01T10:16:27Z</time>
      </trkpt>
      <trkpt lat="-35.3905714" lon="-72.3310496">
        <ele>331.0</ele>
        <time>2024-01-01T10:16:39Z</time>
      </trkpt>
      <trkpt lat="-35.3897159" lon="-72.3307582">
        <ele>330.0</ele>
        <time>2024-01-01T10:17:06Z</time>
      </trkpt>
      <trkpt lat="-35.3888243" lon="-72.3300517">
        <ele>327.0</ele>
        <time>2024-01-01T10:17:39Z</time>
      </trkpt>
      <trkpt lat="-35.3885795" lon="-72.3295571">
        <ele>327.0</ele>
        <time>2024-01-01T10:17:51Z</time>
      </trkpt>
      <trkpt lat="-35.3879250" lon="-72.3289150">
        <ele>312.3</ele>
        <time>2024-01-01T10:18:12Z</time>
      </trkpt>
      <trkpt lat="-35.3873775" lon="-72.3275944">
        <ele>281.7</ele>
        <time>2024-01-01T10:18:48Z</time>
      </trkpt>
      <trkpt lat="-35.3871993" lon="-72.3275141">
        <ele>270.0</ele>
        <time>2024-01-01T10:18:54Z</time>
      </trkpt>
      <trkpt lat="-35.3868477" lon="-72.3275886">
        <ele>270.0</ele>
        <time>2024-01-01T10:19:03Z</time>
      </trkpt>
      <trkpt lat="-35.3864865" lon="-72.3275545">
        <ele>265.7</ele>
        <time>2024-01-01T10:19:15Z</time>
      </trkpt>
      <trkpt lat="-35.3864343" lon="-72.3274354">
        <ele>261.3</ele>
        <time>2024-01-01T10:19:18Z</time>
      </trkpt>
      <trkpt lat="-35.3866815" lon="-72.3269223">
        <ele>244.0</ele>
        <time>2024-01-01T10:19:30Z</time>
      </trkpt>
      <trkpt lat="-35.3867090" lon="-72.3265909">
        <ele>244.0</ele>
        <time>2024-01-01T10:19:39Z</time>
      </trkpt>
      <trkpt lat="-35.3856978" lon="-72.3259385">
        <ele>244.0</ele>
        <time>2024-01-01T10:20:15Z</time>
      </trkpt>
      <trkpt lat="-35.3855625" lon="-72.3256143">
        <ele>244.0</ele>
        <time>2024-01-01T10:20:24Z</time>
      </trkpt>
      <trkpt lat="-35.3853111" lon="-72.3252932">
        <ele>225.3</ele>
        <time>2024-01-01T10:20:36Z</time>
      </trkpt>
      <trkpt lat="-35.3849986" lon="-72.3252003">
        <ele>216.0</ele>
        <time>2024-01-01T10:20:48Z</time>
      </trkpt>
      <trkpt lat="-35.3842984" lon="-72.3253943">
        <ele>216.0</ele>
        <time>2024-01-01T10:21:06Z</time>
      </trkpt>
      <trkpt lat="-35.3842607" lon="-72.3249576">
        <ele>200.7</ele>
        <time>2024-01-01T10:21:24Z</time>
      </trkpt>
      <trkpt lat="-35.3832767" lon="-72.3250047">
        <ele>193.7</ele>
        <time>2024-01-01T10:22:00Z</time>
      </trkpt>
      <trkpt lat="-35.3823843" lon="-72.3246208">
        <ele>149.0</ele>
        <time>2024-01-01T10:22:30Z</time>
      </trkpt>
      <trkpt lat="-35.3818291" lon="-72.3246748">
        <ele>149.0</ele>
        <time>2024-01-01T10:22:51Z</time>
      </trkpt>
      <trkpt lat="-35.3814624" lon="-72.3245864">
        <ele>149.0</ele>
        <time>2024-01-01T10:23:06Z</time>
      </trkpt>
      <trkpt lat="-35.3813725" lon="-72.3243433">
        <ele>149.0</ele>
        <time>2024-01-01T10:23:15Z</time>
      </trkpt>
      <trkpt lat="-35.3813878" lon="-72.3238990">
        <ele>149.0</ele>
        <time>2024-01-01T10:23:27Z</time>
      </trkpt>
      <trkpt lat="-35.3813069" lon="-72.3236085">
        <ele>149.0</ele>
        <time>2024-01-01T10:23:42Z</time>
      </trkpt>
      <trkpt lat="-35.3813318" lon="-72.3234742">
        <ele>149.0</ele>
        <time>2024-01-01T10:23:45Z</time>
      </trkpt>
      <trkpt lat="-35.3816331" lon="-72.3231701">
        <ele>149.0</ele>
        <time>2024-01-01T10:24:03Z</time>
      </trkpt>
      <trkpt lat="-35.3816619" lon="-72.3229694">
        <ele>149.0</ele>
        <time>2024-01-01T10:24:09Z</time>
      </trkpt>
      <trkpt lat="-35.3810744" lon="-72.3229009">
        <ele>129.0</ele>
        <time>2024-01-01T10:24:24Z</time>
      </trkpt>
      <trkpt lat="-35.3804847" lon="-72.3222125">
        <ele>89.0</ele>
        <time>2024-01-01T10:24:51Z</time>
      </trkpt>
      <trkpt lat="-35.3804035" lon="-72.3218727">
        <ele>89.0</ele>
        <time>2024-01-01T10:25:09Z</time>
      </trkpt>
      <trkpt lat="-35.3798591" lon="-72.3218445">
        <ele>89.0</ele>
        <time>2024-01-01T10:25:42Z</time>
      </trkpt>
      <trkpt lat="-35.3797177" lon="-72.3215594">
        <ele>89.0</ele>
        <time>2024-01-01T10:25:57Z</time>
      </trkpt>
      <trkpt lat="-35.3790730" lon="-72.3207665">
        <ele>35.7</ele>
        <time>2024-01-01T10:26:39Z</time>
      </trkpt>
      <trkpt lat="-35.3788267" lon="-72.3206578">
        <ele>25.0</ele>
        <time>2024-01-01T10:26:45Z</time>
      </trkpt>
      <trkpt lat="-35.3779066" lon="-72.3205018">
        <ele>25.0</ele>
        <time>2024-01-01T10:27:12Z</time>
      </trkpt>
      <trkpt lat="-35.3895044" lon="-72.3153021">
        <ele>30.3</ele>
        <time>2024-01-01T10:27:21Z</time>
      </trkpt>
      <trkpt lat="-35.3857092" lon="-72.3261465">
        <ele>35.7</ele>
        <time>2024-01-01T10:27:24Z</time>
      </trkpt>
      <trkpt lat="-35.3753662" lon="-72.3297939">
        <ele>41.0</ele>
        <time>2024-01-01T10:27:27Z</time>
      </trkpt>
      <trkpt lat="-35.3754948" lon="-72.3292817">
        <ele>46.3</ele>
        <time>2024-01-01T10:27:30Z</time>
      </trkpt>
      <trkpt lat="-35.3754765" lon="-72.3288296">
        <ele>51.7</ele>
        <time>2024-01-01T10:27:33Z</time>
      </trkpt>
      <trkpt lat="-35.3756358" lon="-72.3283714">
        <ele>59.3</ele>
        <time>2024-01-01T10:27:39Z</time>
      </trkpt>
      <trkpt lat="-35.3763055" lon="-72.3280873">
        <ele>64.0</ele>
        <time>2024-01-01T10:27:45Z</time>
      </trkpt>
      <trkpt lat="-35.3764849" lon="-72.3280876">
        <ele>66.3</ele>
        <time>2024-01-01T10:27:48Z</time>
      </trkpt>
      <trkpt lat="-35.3767763" lon="-72.3283501">
        <ele>68.7</ele>
        <time>2024-01-01T10:27:51Z</time>
      </trkpt>
      <trkpt lat="-35.3771298" lon="-72.3284133">
        <ele>71.0</ele>
        <time>2024-01-01T10:27:54Z</time>
      </trkpt>
      <trkpt lat="-35.3775409" lon="-72.3278730">
        <ele>71.0</ele>
        <time>2024-01-01T10:27:57Z</time>
      </trkpt>
      <trkpt lat="-35.3777662" lon="-72.3269860">
        <ele>71.0</ele>
        <time>2024-01-01T10:28:03Z</time>
      </trkpt>
      <trkpt lat="-35.3782670" lon="-72.3261005">
        <ele>71.0</ele>
        <time>2024-01-01T10:28:09Z</time>
      </trkpt>
      <trkpt lat="-35.3786241" lon="-72.3257781">
        <ele>71.0</ele>
        <time>2024-01-01T10:28:12Z</time>
      </trkpt>
      <trkpt lat="-35.3789981" lon="-72.3257212">
        <ele>79.8</ele>
        <time>2024-01-01T10:28:15Z</time>
      </trkpt>
      <trkpt lat="-35.3794648" lon="-72.3258186">
        <ele>88.7</ele>
        <time>2024-01-01T10:28:18Z</time>
      </trkpt>
      <trkpt lat="-35.3796676" lon="-72.3256556">
        <ele>97.5</ele>
        <time>2024-01-01T10:28:21Z</time>
      </trkpt>
      <trkpt lat="-35.3791773" lon="-72.3245247">
        <ele>115.2</ele>
        <time>2024-01-01T10:28:27Z</time>
      </trkpt>
      <trkpt lat="-35.3792563" lon="-72.3240664">
        <ele>124.0</ele>
        <time>2024-01-01T10:28:30Z</time>
      </trkpt>
      <trkpt lat="-35.3803542" lon="-72.3227114">
        <ele>107.3</ele>
        <time>2024-01-01T10:28:42Z</time>
      </trkpt>
      <trkpt lat="-35.3813546" lon="-72.3228227">
        <ele>99.0</ele>
        <time>2024-01-01T10:28:48Z</time>
      </trkpt>
      <trkpt lat="-35.3816983" lon="-72.3226180">
        <ele>107.3</ele>
        <time>2024-01-01T10:28:51Z</time>
      </trkpt>
      <trkpt lat="-35.3822265" lon="-72.3225383">
        <ele>115.7</ele>
        <time>2024-01-01T10:28:54Z</time>
      </trkpt>
      <trkpt lat="-35.3825255" lon="-72.3223822">
        <ele>124.0</ele>
        <time>2024-01-01T10:28:57Z</time>
      </trkpt>
      <trkpt lat="-35.3828280" lon="-72.3227202">
        <ele>132.3</ele>
        <time>2024-01-01T10:29:00Z</time>
      </trkpt>
      <trkpt lat="-35.3828089" lon="-72.3232573">
        <ele>140.7</ele>
        <time>2024-01-01T10:29:03Z</time>
      </trkpt>
      <trkpt lat="-35.3826970" lon="-72.3237286">
        <ele>149.0</ele>
        <time>2024-01-01T10:29:06Z</time>
      </trkpt>
      <trkpt lat="-35.3816842" lon="-72.3236555">
        <ele>136.7</ele>
        <time>2024-01-01T10:29:12Z</time>
      </trkpt>
      <trkpt lat="-35.3810776" lon="-72.3240212">
        <ele>130.5</ele>
        <time>2024-01-01T10:29:15Z</time>
      </trkpt>
      <trkpt lat="-35.3807598" lon="-72.3248735">
        <ele>118.2</ele>
        <time>2024-01-01T10:29:21Z</time>
      </trkpt>
      <trkpt lat="-35.3808452" lon="-72.3252809">
        <ele>112.0</ele>
        <time>2024-01-01T10:29:24Z</time>
      </trkpt>
      <trkpt lat="-35.3811913" lon="-72.3253946">
        <ele>123.7</ele>
        <time>2024-01-01T10:29:27Z</time>
      </trkpt>
      <trkpt lat="-35.3817175" lon="-72.3252060">
        <ele>135.3</ele>
        <time>2024-01-01T10:29:30Z</time>
      </trkpt>
      <trkpt lat="-35.3820253" lon="-72.3254803">
        <ele>147.0</ele>
        <time>2024-01-01T10:29:33Z</time>
      </trkpt>
      <trkpt lat="-35.3815744" lon="-72.3265387">
        <ele>170.3</ele>
        <time>2024-01-01T10:29:39Z</time>
      </trkpt>
      <trkpt lat="-35.3820249" lon="-72.3269594">
        <ele>183.2</ele>
        <time>2024-01-01T10:29:45Z</time>
      </trkpt>
      <trkpt lat="-35.3819632" lon="-72.3276514">
        <ele>184.3</ele>
        <time>2024-01-01T10:29:48Z</time>
      </trkpt>
      <trkpt lat="-35.3816915" lon="-72.3277393">
        <ele>185.5</ele>
        <time>2024-01-01T10:29:51Z</time>
      </trkpt>
      <trkpt lat="-35.3814958" lon="-72.3276510">
        <ele>186.7</ele>
        <time>2024-01-01T10:29:54Z</time>
      </trkpt>
      <trkpt lat="-35.3815627" lon="-72.3280785">
        <ele>187.8</ele>
        <time>2024-01-01T10:29:57Z</time>
      </trkpt>
      <trkpt lat="-35.3819759" lon="-72.3287388">
        <ele>201.7</ele>
        <time>2024-01-01T10:30:03Z</time>
      </trkpt>
      <trkpt lat="-35.3825648" lon="-72.3290869">
        <ele>214.3</ele>
        <time>2024-01-01T10:30:06Z</time>
      </trkpt>
      <trkpt lat="-35.3830471" lon="-72.3289380">
        <ele>227.0</ele>
        <time>2024-01-01T10:30:09Z</time>
      </trkpt>
      <trkpt lat="-35.3835334" lon="-72.3289032">
        <ele>239.7</ele>
        <time>2024-01-01T10:30:12Z</time>
      </trkpt>
      <trkpt lat="-35.3837995" lon="-72.3294096">
        <ele>252.3</ele>
        <time>2024-01-01T10:30:15Z</time>
      </trkpt>
      <trkpt lat="-35.3841463" lon="-72.3297309">
        <ele>265.0</ele>
        <time>2024-01-01T10:30:18Z</time>
      </trkpt>
      <trkpt lat="-35.3848399" lon="-72.3301069">
        <ele>275.3</ele>
        <time>2024-01-01T10:30:21Z</time>
      </trkpt>
      <trkpt lat="-35.3853001" lon="-72.3305252">
        <ele>285.7</ele>
        <time>2024-01-01T10:30:24Z</time>
      </trkpt>
      <trkpt lat="-35.3862425" lon="-72.3306116">
        <ele>306.3</ele>
        <time>2024-01-01T10:30:30Z</time>
      </trkpt>
      <trkpt lat="-35.3871831" lon="-72.3305368">
        <ele>316.7</ele>
        <time>2024-01-01T10:30:33Z</time>
      </trkpt>
      <trkpt lat="-35.3881104" lon="-72.3301267">
        <ele>327.0</ele>
        <time>2024-01-01T10:30:36Z</time>
      </trkpt>
      <trkpt lat="-35.3889036" lon="-72.3304787">
        <ele>333.2</ele>
        <time>2024-01-01T10:30:39Z</time>
      </trkpt>
      <trkpt lat="-35.3896683" lon="-72.3311540">
        <ele>339.3</ele>
        <time>2024-01-01T10:30:42Z</time>
      </trkpt>
      <trkpt lat="-35.3911048" lon="-72.3316843">
        <ele>351.7</ele>
        <time>2024-01-01T10:30:48Z</time>
      </trkpt>
      <trkpt lat="-35.3916325" lon="-72.3315913">
        <ele>357.8</ele>
        <time>2024-01-01T10:30:51Z</time>
      </trkpt>
      <trkpt lat="-35.3919387" lon="-72.3312067">
        <ele>364.0</ele>
        <time>2024-01-01T10:30:54Z</time>
      </trkpt>
      <trkpt lat="-35.3929608" lon="-72.3308563">
        <ele>269.3</ele>
        <time>2024-01-01T10:31:00Z</time>
      </trkpt>
      <trkpt lat="-35.3794954" lon="-72.3257086">
        <ele>222.0</ele>
        <time>2024-01-01T10:31:03Z</time>
      </trkpt>
      <trkpt lat="-35.3792858" lon="-72.3251987">
        <ele>174.7</ele>
        <time>2024-01-01T10:31:06Z</time>
      </trkpt>
      <trkpt lat="-35.3790039" lon="-72.3248909">
        <ele>127.3</ele>
        <time>2024-01-01T10:31:09Z</time>
      </trkpt>
      <trkpt lat="-35.3786606" lon="-72.3247989">
        <ele>80.0</ele>
        <time>2024-01-01T10:31:12Z</time>
      </trkpt>
      <trkpt lat="-35.3778159" lon="-72.3247493">
        <ele>80.0</ele>
        <time>2024-01-01T10:31:18Z</time>
      </trkpt>
      <trkpt lat="-35.3778063" lon="-72.3244609">
        <ele>80.0</ele>
        <time>2024-01-01T10:31:21Z</time>
      </trkpt>
      <trkpt lat="-35.3780287" lon="-72.3241761">
        <ele>80.0</ele>
        <time>2024-01-01T10:31:24Z</time>
      </trkpt>
      <trkpt lat="-35.3779260" lon="-72.3235566">
        <ele>80.0</ele>
        <time>2024-01-01T10:31:27Z</time>
      </trkpt>
      <trkpt lat="-35.3777118" lon="-72.3229877">
        <ele>80.0</ele>
        <time>2024-01-01T10:31:30Z</time>
      </trkpt>
      <trkpt lat="-35.3777978" lon="-72.3223341">
        <ele>77.5</ele>
        <time>2024-01-01T10:31:33Z</time>
      </trkpt>
      <trkpt lat="-35.3781511" lon="-72.3220206">
        <ele>75.0</ele>
        <time>2024-01-01T10:31:36Z</time>
      </trkpt>
      <trkpt lat="-35.3784379" lon="-72.3220448">
        <ele>72.5</ele>
        <time>2024-01-01T10:31:39Z</time>
      </trkpt>
      <trkpt lat="-35.3787580" lon="-72.3221675">
        <ele>70.0</ele>
        <time>2024-01-01T10:31:42Z</time>
      </trkpt>
      <trkpt lat="-35.3788423" lon="-72.3226348">
        <ele>67.5</ele>
        <time>2024-01-01T10:31:45Z</time>
      </trkpt>
      <trkpt lat="-35.3790895" lon="-72.3226962">
        <ele>65.0</ele>
        <time>2024-01-01T10:31:48Z</time>
      </trkpt>
      <trkpt lat="-35.3795375" lon="-72.3217022">
        <ele>106.3</ele>
        <time>2024-01-01T10:31:54Z</time>
      </trkpt>
      <trkpt lat="-35.3799894" lon="-72.3211708">
        <ele>147.7</ele>
        <time>2024-01-01T10:32:00Z</time>
      </trkpt>
      <trkpt lat="-35.3820665" lon="-72.3447349">
        <ele>168.3</ele>
        <time>2024-01-01T10:32:03Z</time>
      </trkpt>
      <trkpt lat="-35.3821604" lon="-72.3288069">
        <ele>189.0</ele>
        <time>2024-01-01T10:32:06Z</time>
      </trkpt>
    </trkseg>
  </trk>
</gpx>