<?xml version="1.0" encoding="UTF-8"?>
<gpx version="1.1" creator="BosqueAbierto" xmlns="http://www.topografix.com/GPX/1/1">
<trk><name>Putú Pedalea</name><trkseg>
<trkpt lat="-35.216229" lon="-72.280374"><ele>39.0</ele></trkpt>
<trkpt lat="-35.216537" lon="-72.279658"><ele>39.0</ele></trkpt>
<trkpt lat="-35.216260" lon="-72.279046"><ele>65.0</ele></trkpt>
<trkpt lat="-35.216353" lon="-72.277880"><ele>65.0</ele></trkpt>
<trkpt lat="-35.216546" lon="-72.277702"><ele>65.0</ele></trkpt>
<trkpt lat="-35.216978" lon="-72.277717"><ele>103.0</ele></trkpt>
<trkpt lat="-35.217210" lon="-72.277645"><ele>103.0</ele></trkpt>
<trkpt lat="-35.217403" lon="-72.277355"><ele>103.0</ele></trkpt>
<trkpt lat="-35.217352" lon="-72.277178"><ele>103.0</ele></trkpt>
<trkpt lat="-35.217076" lon="-72.276899"><ele>112.0</ele></trkpt>
<trkpt lat="-35.217013" lon="-72.276652"><ele>112.0</ele></trkpt>
<trkpt lat="-35.217146" lon="-72.276195"><ele>112.0</ele></trkpt>
<trkpt lat="-35.217040" lon="-72.275331"><ele>112.0</ele></trkpt>
<trkpt lat="-35.217120" lon="-72.274299"><ele>127.0</ele></trkpt>
<trkpt lat="-35.217475" lon="-72.272247"><ele>133.0</ele></trkpt>
<trkpt lat="-35.217515" lon="-72.271578"><ele>133.0</ele></trkpt>
<trkpt lat="-35.217018" lon="-72.269574"><ele>146.0</ele></trkpt>
<trkpt lat="-35.216707" lon="-72.268841"><ele>146.0</ele></trkpt>
<trkpt lat="-35.216772" lon="-72.267572"><ele>132.0</ele></trkpt>
<trkpt lat="-35.216923" lon="-72.266943"><ele>132.0</ele></trkpt>
<trkpt lat="-35.217093" lon="-72.266644"><ele>127.0</ele></trkpt>
<trkpt lat="-35.217319" lon="-72.266443"><ele>127.0</ele></trkpt>
<trkpt lat="-35.218216" lon="-72.266128"><ele>127.0</ele></trkpt>
<trkpt lat="-35.219668" lon="-72.266069"><ele>138.0</ele></trkpt>
<trkpt lat="-35.220752" lon="-72.266327"><ele>138.0</ele></trkpt>
<trkpt lat="-35.221768" lon="-72.266176"><ele>160.0</ele></trkpt>
<trkpt lat="-35.223014" lon="-72.264995"><ele>164.0</ele></trkpt>
<trkpt lat="-35.224575" lon="-72.262212"><ele>154.0</ele></trkpt>
<trkpt lat="-35.224864" lon="-72.261268"><ele>154.0</ele></trkpt>
<trkpt lat="-35.224798" lon="-72.260513"><ele>154.0</ele></trkpt>
<trkpt lat="-35.224858" lon="-72.260216"><ele>158.0</ele></trkpt>
<trkpt lat="-35.225146" lon="-72.259635"><ele>190.0</ele></trkpt>
<trkpt lat="-35.225227" lon="-72.259161"><ele>190.0</ele></trkpt>
<trkpt lat="-35.225522" lon="-72.258620"><ele>190.0</ele></trkpt>
<trkpt lat="-35.225644" lon="-72.258064"><ele>195.0</ele></trkpt>
<trkpt lat="-35.225926" lon="-72.257429"><ele>195.0</ele></trkpt>
<trkpt lat="-35.226183" lon="-72.256048"><ele>205.0</ele></trkpt>
<trkpt lat="-35.226457" lon="-72.255063"><ele>205.0</ele></trkpt>
<trkpt lat="-35.226753" lon="-72.254611"><ele>205.0</ele></trkpt>
<trkpt lat="-35.227260" lon="-72.254084"><ele>215.0</ele></trkpt>
<trkpt lat="-35.227596" lon="-72.254011"><ele>215.0</ele></trkpt>
<trkpt lat="-35.228067" lon="-72.254154"><ele>215.0</ele></trkpt>
<trkpt lat="-35.228203" lon="-72.254046"><ele>215.0</ele></trkpt>
<trkpt lat="-35.228573" lon="-72.252331"><ele>215.0</ele></trkpt>
<trkpt lat="-35.229342" lon="-72.251215"><ele>221.0</ele></trkpt>
<trkpt lat="-35.229325" lon="-72.250872"><ele>221.0</ele></trkpt>
<trkpt lat="-35.228393" lon="-72.248516"><ele>219.0</ele></trkpt>
<trkpt lat="-35.227869" lon="-72.247730"><ele>222.0</ele></trkpt>
<trkpt lat="-35.226887" lon="-72.243940"><ele>243.0</ele></trkpt>
<trkpt lat="-35.227005" lon="-72.243895"><ele>243.0</ele></trkpt>
<trkpt lat="-35.227417" lon="-72.244043"><ele>240.0</ele></trkpt>
<trkpt lat="-35.227874" lon="-72.244381"><ele>240.0</ele></trkpt>
<trkpt lat="-35.228618" lon="-72.245158"><ele>240.0</ele></trkpt>
<trkpt lat="-35.228955" lon="-72.245714"><ele>240.0</ele></trkpt>
<trkpt lat="-35.230096" lon="-72.246103"><ele>209.0</ele></trkpt>
<trkpt lat="-35.230503" lon="-72.245892"><ele>209.0</ele></trkpt>
<trkpt lat="-35.230984" lon="-72.245448"><ele>207.0</ele></trkpt>
<trkpt lat="-35.231496" lon="-72.245177"><ele>192.0</ele></trkpt>
<trkpt lat="-35.231656" lon="-72.244925"><ele>192.0</ele></trkpt>
<trkpt lat="-35.231877" lon="-72.244872"><ele>192.0</ele></trkpt>
<trkpt lat="-35.232005" lon="-72.245224"><ele>192.0</ele></trkpt>
<trkpt lat="-35.232282" lon="-72.245502"><ele>192.0</ele></trkpt>
<trkpt lat="-35.233030" lon="-72.245856"><ele>188.0</ele></trkpt>
<trkpt lat="-35.233223" lon="-72.246352"><ele>188.0</ele></trkpt>
<trkpt lat="-35.233476" lon="-72.246273"><ele>251.0</ele></trkpt>
<trkpt lat="-35.233706" lon="-72.246384"><ele>251.0</ele></trkpt>
<trkpt lat="-35.234189" lon="-72.246204"><ele>251.0</ele></trkpt>
<trkpt lat="-35.234540" lon="-72.246292"><ele>251.0</ele></trkpt>
<trkpt lat="-35.234699" lon="-72.246603"><ele>251.0</ele></trkpt>
<trkpt lat="-35.234714" lon="-72.246851"><ele>251.0</ele></trkpt>
<trkpt lat="-35.234569" lon="-72.247434"><ele>251.0</ele></trkpt>
<trkpt lat="-35.234727" lon="-72.247757"><ele>251.0</ele></trkpt>
<trkpt lat="-35.234977" lon="-72.247924"><ele>250.0</ele></trkpt>
<trkpt lat="-35.235811" lon="-72.248035"><ele>284.0</ele></trkpt>
<trkpt lat="-35.236334" lon="-72.248377"><ele>284.0</ele></trkpt>
<trkpt lat="-35.238329" lon="-72.248040"><ele>254.0</ele></trkpt>
<trkpt lat="-35.238960" lon="-72.248077"><ele>254.0</ele></trkpt>
<trkpt lat="-35.239056" lon="-72.247934"><ele>254.0</ele></trkpt>
<trkpt lat="-35.239291" lon="-72.247925"><ele>254.0</ele></trkpt>
<trkpt lat="-35.239428" lon="-72.247751"><ele>254.0</ele></trkpt>
<trkpt lat="-35.239717" lon="-72.248016"><ele>313.0</ele></trkpt>
<trkpt lat="-35.240360" lon="-72.248121"><ele>313.0</ele></trkpt>
<trkpt lat="-35.241006" lon="-72.248494"><ele>313.0</ele></trkpt>
<trkpt lat="-35.241243" lon="-72.248553"><ele>313.0</ele></trkpt>
<trkpt lat="-35.241353" lon="-72.248354"><ele>313.0</ele></trkpt>
<trkpt lat="-35.241320" lon="-72.248086"><ele>313.0</ele></trkpt>
<trkpt lat="-35.241092" lon="-72.247950"><ele>313.0</ele></trkpt>
<trkpt lat="-35.240883" lon="-72.247454"><ele>309.0</ele></trkpt>
<trkpt lat="-35.240594" lon="-72.247414"><ele>309.0</ele></trkpt>
<trkpt lat="-35.240454" lon="-72.247281"><ele>309.0</ele></trkpt>
<trkpt lat="-35.240416" lon="-72.246448"><ele>309.0</ele></trkpt>
<trkpt lat="-35.240565" lon="-72.246359"><ele>309.0</ele></trkpt>
<trkpt lat="-35.240870" lon="-72.246522"><ele>309.0</ele></trkpt>
<trkpt lat="-35.241100" lon="-72.246357"><ele>309.0</ele></trkpt>
<trkpt lat="-35.241360" lon="-72.246368"><ele>309.0</ele></trkpt>
<trkpt lat="-35.241509" lon="-72.246491"><ele>309.0</ele></trkpt>
<trkpt lat="-35.241892" lon="-72.246453"><ele>329.0</ele></trkpt>
<trkpt lat="-35.241868" lon="-72.245460"><ele>377.0</ele></trkpt>
<trkpt lat="-35.242016" lon="-72.245633"><ele>377.0</ele></trkpt>
<trkpt lat="-35.242706" lon="-72.245092"><ele>377.0</ele></trkpt>
<trkpt lat="-35.242904" lon="-72.244668"><ele>377.0</ele></trkpt>
<trkpt lat="-35.243232" lon="-72.244301"><ele>377.0</ele></trkpt>
<trkpt lat="-35.243402" lon="-72.243822"><ele>377.0</ele></trkpt>
<trkpt lat="-35.243788" lon="-72.243215"><ele>363.0</ele></trkpt>
<trkpt lat="-35.243701" lon="-72.243095"><ele>369.0</ele></trkpt>
<trkpt lat="-35.243314" lon="-72.243007"><ele>369.0</ele></trkpt>
<trkpt lat="-35.243207" lon="-72.242903"><ele>369.0</ele></trkpt>
<trkpt lat="-35.243022" lon="-72.242451"><ele>369.0</ele></trkpt>
<trkpt lat="-35.242958" lon="-72.241574"><ele>378.0</ele></trkpt>
<trkpt lat="-35.242730" lon="-72.241187"><ele>378.0</ele></trkpt>
<trkpt lat="-35.242137" lon="-72.240592"><ele>378.0</ele></trkpt>
<trkpt lat="-35.241598" lon="-72.240426"><ele>348.0</ele></trkpt>
<trkpt lat="-35.240901" lon="-72.240536"><ele>348.0</ele></trkpt>
<trkpt lat="-35.240691" lon="-72.240996"><ele>348.0</ele></trkpt>
<trkpt lat="-35.240213" lon="-72.241384"><ele>348.0</ele></trkpt>
<trkpt lat="-35.239719" lon="-72.242396"><ele>325.0</ele></trkpt>
<trkpt lat="-35.239241" lon="-72.242792"><ele>326.0</ele></trkpt>
<trkpt lat="-35.238978" lon="-72.242866"><ele>326.0</ele></trkpt>
<trkpt lat="-35.238721" lon="-72.243088"><ele>326.0</ele></trkpt>
<trkpt lat="-35.237982" lon="-72.244174"><ele>304.0</ele></trkpt>
<trkpt lat="-35.237772" lon="-72.244126"><ele>304.0</ele></trkpt>
<trkpt lat="-35.237565" lon="-72.243846"><ele>304.0</ele></trkpt>
<trkpt lat="-35.237172" lon="-72.243760"><ele>230.0</ele></trkpt>
<trkpt lat="-35.236683" lon="-72.243245"><ele>259.0</ele></trkpt>
<trkpt lat="-35.236464" lon="-72.243173"><ele>259.0</ele></trkpt>
<trkpt lat="-35.236311" lon="-72.243421"><ele>259.0</ele></trkpt>
<trkpt lat="-35.236367" lon="-72.243965"><ele>230.0</ele></trkpt>
<trkpt lat="-35.236282" lon="-72.244343"><ele>230.0</ele></trkpt>
<trkpt lat="-35.236182" lon="-72.244391"><ele>230.0</ele></trkpt>
<trkpt lat="-35.236147" lon="-72.244621"><ele>230.0</ele></trkpt>
<trkpt lat="-35.235991" lon="-72.244676"><ele>230.0</ele></trkpt>
<trkpt lat="-35.235820" lon="-72.244331"><ele>230.0</ele></trkpt>
<trkpt lat="-35.235739" lon="-72.244258"><ele>230.0</ele></trkpt>
<trkpt lat="-35.235591" lon="-72.244290"><ele>230.0</ele></trkpt>
<trkpt lat="-35.235356" lon="-72.244006"><ele>229.0</ele></trkpt>
<trkpt lat="-35.235201" lon="-72.243739"><ele>214.0</ele></trkpt>
<trkpt lat="-35.235158" lon="-72.243158"><ele>214.0</ele></trkpt>
<trkpt lat="-35.235061" lon="-72.243020"><ele>214.0</ele></trkpt>
<trkpt lat="-35.234830" lon="-72.242925"><ele>214.0</ele></trkpt>
<trkpt lat="-35.234243" lon="-72.243056"><ele>214.0</ele></trkpt>
<trkpt lat="-35.233324" lon="-72.242992"><ele>249.0</ele></trkpt>
<trkpt lat="-35.232652" lon="-72.243548"><ele>249.0</ele></trkpt>
<trkpt lat="-35.232308" lon="-72.243604"><ele>249.0</ele></trkpt>
<trkpt lat="-35.231856" lon="-72.242993"><ele>249.0</ele></trkpt>
<trkpt lat="-35.231652" lon="-72.242505"><ele>249.0</ele></trkpt>
<trkpt lat="-35.231203" lon="-72.242405"><ele>206.0</ele></trkpt>
<trkpt lat="-35.231176" lon="-72.242211"><ele>206.0</ele></trkpt>
<trkpt lat="-35.231298" lon="-72.241863"><ele>249.0</ele></trkpt>
<trkpt lat="-35.231560" lon="-72.241676"><ele>249.0</ele></trkpt>
<trkpt lat="-35.231902" lon="-72.241970"><ele>249.0</ele></trkpt>
<trkpt lat="-35.232331" lon="-72.241941"><ele>249.0</ele></trkpt>
<trkpt lat="-35.232555" lon="-72.241802"><ele>249.0</ele></trkpt>
<trkpt lat="-35.233206" lon="-72.241759"><ele>249.0</ele></trkpt>
<trkpt lat="-35.233523" lon="-72.241551"><ele>278.0</ele></trkpt>
<trkpt lat="-35.233954" lon="-72.240974"><ele>278.0</ele></trkpt>
<trkpt lat="-35.233907" lon="-72.240613"><ele>278.0</ele></trkpt>
<trkpt lat="-35.233997" lon="-72.239830"><ele>278.0</ele></trkpt>
<trkpt lat="-35.233934" lon="-72.239032"><ele>296.0</ele></trkpt>
<trkpt lat="-35.233987" lon="-72.238699"><ele>296.0</ele></trkpt>
<trkpt lat="-35.233789" lon="-72.237999"><ele>296.0</ele></trkpt>
<trkpt lat="-35.233771" lon="-72.237045"><ele>334.0</ele></trkpt>
<trkpt lat="-35.233946" lon="-72.236236"><ele>334.0</ele></trkpt>
<trkpt lat="-35.234180" lon="-72.235725"><ele>334.0</ele></trkpt>
<trkpt lat="-35.234296" lon="-72.234868"><ele>338.0</ele></trkpt>
<trkpt lat="-35.234049" lon="-72.234926"><ele>338.0</ele></trkpt>
<trkpt lat="-35.233681" lon="-72.234888"><ele>338.0</ele></trkpt>
<trkpt lat="-35.233573" lon="-72.234771"><ele>338.0</ele></trkpt>
<trkpt lat="-35.233345" lon="-72.234806"><ele>338.0</ele></trkpt>
<trkpt lat="-35.233171" lon="-72.234617"><ele>318.0</ele></trkpt>
<trkpt lat="-35.233161" lon="-72.234323"><ele>318.0</ele></trkpt>
<trkpt lat="-35.232919" lon="-72.234114"><ele>318.0</ele></trkpt>
<trkpt lat="-35.233022" lon="-72.233969"><ele>318.0</ele></trkpt>
</trkseg></trk>
<trk><name>Putú Pedalea</name><trkseg>
<trkpt lat="-35.232916" lon="-72.233863"><ele>318.0</ele></trkpt>
<trkpt lat="-35.232488" lon="-72.233806"><ele>318.0</ele></trkpt>
<trkpt lat="-35.232187" lon="-72.234087"><ele>318.0</ele></trkpt>
<trkpt lat="-35.231992" lon="-72.234090"><ele>318.0</ele></trkpt>
<trkpt lat="-35.231776" lon="-72.233899"><ele>318.0</ele></trkpt>
<trkpt lat="-35.231551" lon="-72.233835"><ele>318.0</ele></trkpt>
<trkpt lat="-35.231274" lon="-72.233493"><ele>318.0</ele></trkpt>
<trkpt lat="-35.230907" lon="-72.233374"><ele>330.0</ele></trkpt>
<trkpt lat="-35.230458" lon="-72.233097"><ele>340.0</ele></trkpt>
<trkpt lat="-35.228998" lon="-72.231999"><ele>351.0</ele></trkpt>
<trkpt lat="-35.228363" lon="-72.231748"><ele>351.0</ele></trkpt>
<trkpt lat="-35.227873" lon="-72.231444"><ele>351.0</ele></trkpt>
<trkpt lat="-35.227606" lon="-72.231082"><ele>346.0</ele></trkpt>
<trkpt lat="-35.227293" lon="-72.230840"><ele>346.0</ele></trkpt>
<trkpt lat="-35.226947" lon="-72.229683"><ele>338.0</ele></trkpt>
<trkpt lat="-35.227006" lon="-72.228120"><ele>356.0</ele></trkpt>
<trkpt lat="-35.226953" lon="-72.227965"><ele>356.0</ele></trkpt>
<trkpt lat="-35.226232" lon="-72.228226"><ele>356.0</ele></trkpt>
<trkpt lat="-35.225810" lon="-72.228603"><ele>356.0</ele></trkpt>
<trkpt lat="-35.225275" lon="-72.229910"><ele>338.0</ele></trkpt>
<trkpt lat="-35.225367" lon="-72.231047"><ele>338.0</ele></trkpt>
<trkpt lat="-35.225222" lon="-72.231725"><ele>326.0</ele></trkpt>
<trkpt lat="-35.225287" lon="-72.232855"><ele>326.0</ele></trkpt>
<trkpt lat="-35.224819" lon="-72.235242"><ele>280.0</ele></trkpt>
<trkpt lat="-35.224807" lon="-72.235638"><ele>272.0</ele></trkpt>
<trkpt lat="-35.225286" lon="-72.237454"><ele>285.0</ele></trkpt>
<trkpt lat="-35.225469" lon="-72.238598"><ele>269.0</ele></trkpt>
<trkpt lat="-35.225395" lon="-72.240385"><ele>273.0</ele></trkpt>
<trkpt lat="-35.225294" lon="-72.241115"><ele>273.0</ele></trkpt>
<trkpt lat="-35.225333" lon="-72.241483"><ele>273.0</ele></trkpt>
<trkpt lat="-35.225749" lon="-72.242388"><ele>247.0</ele></trkpt>
<trkpt lat="-35.226601" lon="-72.243101"><ele>247.0</ele></trkpt>
<trkpt lat="-35.226859" lon="-72.243871"><ele>243.0</ele></trkpt>
</trkseg></trk>
<trk><name>Putú Pedalea</name><trkseg>
<trkpt lat="-35.227004" lon="-72.244285"><ele>243.0</ele></trkpt>
<trkpt lat="-35.226967" lon="-72.244404"><ele>243.0</ele></trkpt>
<trkpt lat="-35.226448" lon="-72.244847"><ele>243.0</ele></trkpt>
<trkpt lat="-35.226367" lon="-72.245775"><ele>243.0</ele></trkpt>
<trkpt lat="-35.226090" lon="-72.246422"><ele>250.0</ele></trkpt>
<trkpt lat="-35.225437" lon="-72.246962"><ele>250.0</ele></trkpt>
<trkpt lat="-35.225305" lon="-72.247299"><ele>250.0</ele></trkpt>
<trkpt lat="-35.225426" lon="-72.247684"><ele>250.0</ele></trkpt>
<trkpt lat="-35.225823" lon="-72.248075"><ele>222.0</ele></trkpt>
<trkpt lat="-35.225881" lon="-72.248841"><ele>222.0</ele></trkpt>
<trkpt lat="-35.226111" lon="-72.249328"><ele>222.0</ele></trkpt>
<trkpt lat="-35.226450" lon="-72.249551"><ele>222.0</ele></trkpt>
<trkpt lat="-35.226380" lon="-72.249808"><ele>222.0</ele></trkpt>
<trkpt lat="-35.225857" lon="-72.250138"><ele>185.0</ele></trkpt>
<trkpt lat="-35.225220" lon="-72.249993"><ele>222.0</ele></trkpt>
<trkpt lat="-35.224216" lon="-72.250345"><ele>181.0</ele></trkpt>
<trkpt lat="-35.223948" lon="-72.250594"><ele>181.0</ele></trkpt>
<trkpt lat="-35.223259" lon="-72.251620"><ele>181.0</ele></trkpt>
<trkpt lat="-35.223050" lon="-72.251740"><ele>181.0</ele></trkpt>
<trkpt lat="-35.222753" lon="-72.251733"><ele>155.0</ele></trkpt>
<trkpt lat="-35.222091" lon="-72.252237"><ele>138.0</ele></trkpt>
<trkpt lat="-35.221948" lon="-72.253025"><ele>138.0</ele></trkpt>
<trkpt lat="-35.221746" lon="-72.253324"><ele>138.0</ele></trkpt>
<trkpt lat="-35.221274" lon="-72.253237"><ele>138.0</ele></trkpt>
<trkpt lat="-35.220874" lon="-72.253595"><ele>138.0</ele></trkpt>
<trkpt lat="-35.220198" lon="-72.253927"><ele>84.0</ele></trkpt>
<trkpt lat="-35.220158" lon="-72.254184"><ele>63.0</ele></trkpt>
<trkpt lat="-35.220022" lon="-72.254382"><ele>63.0</ele></trkpt>
<trkpt lat="-35.219883" lon="-72.254422"><ele>63.0</ele></trkpt>
<trkpt lat="-35.219656" lon="-72.254326"><ele>63.0</ele></trkpt>
<trkpt lat="-35.219339" lon="-72.254705"><ele>63.0</ele></trkpt>
<trkpt lat="-35.219048" lon="-72.254788"><ele>63.0</ele></trkpt>
<trkpt lat="-35.218789" lon="-72.254969"><ele>63.0</ele></trkpt>
<trkpt lat="-35.218522" lon="-72.255416"><ele>50.0</ele></trkpt>
<trkpt lat="-35.218178" lon="-72.255550"><ele>50.0</ele></trkpt>
<trkpt lat="-35.218095" lon="-72.255474"><ele>50.0</ele></trkpt>
<trkpt lat="-35.218224" lon="-72.255223"><ele>50.0</ele></trkpt>
<trkpt lat="-35.218119" lon="-72.255028"><ele>50.0</ele></trkpt>
<trkpt lat="-35.217858" lon="-72.255105"><ele>50.0</ele></trkpt>
<trkpt lat="-35.217861" lon="-72.254853"><ele>50.0</ele></trkpt>
<trkpt lat="-35.217674" lon="-72.254961"><ele>50.0</ele></trkpt>
<trkpt lat="-35.217529" lon="-72.254944"><ele>50.0</ele></trkpt>
<trkpt lat="-35.216999" lon="-72.254358"><ele>50.0</ele></trkpt>
<trkpt lat="-35.216610" lon="-72.253358"><ele>92.0</ele></trkpt>
<trkpt lat="-35.216538" lon="-72.252853"><ele>92.0</ele></trkpt>
<trkpt lat="-35.216245" lon="-72.252214"><ele>92.0</ele></trkpt>
<trkpt lat="-35.215677" lon="-72.251756"><ele>120.0</ele></trkpt>
<trkpt lat="-35.215062" lon="-72.250936"><ele>120.0</ele></trkpt>
<trkpt lat="-35.214725" lon="-72.250882"><ele>120.0</ele></trkpt>
<trkpt lat="-35.214091" lon="-72.251017"><ele>115.0</ele></trkpt>
<trkpt lat="-35.213722" lon="-72.250636"><ele>115.0</ele></trkpt>
<trkpt lat="-35.213337" lon="-72.250469"><ele>115.0</ele></trkpt>
<trkpt lat="-35.212843" lon="-72.250726"><ele>115.0</ele></trkpt>
<trkpt lat="-35.212154" lon="-72.250737"><ele>120.0</ele></trkpt>
<trkpt lat="-35.211856" lon="-72.250609"><ele>120.0</ele></trkpt>
<trkpt lat="-35.210688" lon="-72.249742"><ele>111.0</ele></trkpt>
<trkpt lat="-35.209676" lon="-72.249372"><ele>136.0</ele></trkpt>
<trkpt lat="-35.209342" lon="-72.248925"><ele>136.0</ele></trkpt>
<trkpt lat="-35.209199" lon="-72.248921"><ele>136.0</ele></trkpt>
<trkpt lat="-35.208720" lon="-72.249155"><ele>136.0</ele></trkpt>
<trkpt lat="-35.208570" lon="-72.249144"><ele>136.0</ele></trkpt>
<trkpt lat="-35.208498" lon="-72.249040"><ele>136.0</ele></trkpt>
<trkpt lat="-35.208628" lon="-72.248611"><ele>136.0</ele></trkpt>
<trkpt lat="-35.208567" lon="-72.248356"><ele>136.0</ele></trkpt>
<trkpt lat="-35.207933" lon="-72.248528"><ele>158.0</ele></trkpt>
<trkpt lat="-35.207797" lon="-72.248482"><ele>158.0</ele></trkpt>
<trkpt lat="-35.207613" lon="-72.246689"><ele>184.0</ele></trkpt>
<trkpt lat="-35.206754" lon="-72.245510"><ele>178.0</ele></trkpt>
<trkpt lat="-35.206179" lon="-72.244032"><ele>215.0</ele></trkpt>
<trkpt lat="-35.205881" lon="-72.243481"><ele>224.0</ele></trkpt>
<trkpt lat="-35.206120" lon="-72.242150"><ele>224.0</ele></trkpt>
<trkpt lat="-35.205912" lon="-72.241601"><ele>242.0</ele></trkpt>
<trkpt lat="-35.205931" lon="-72.241180"><ele>242.0</ele></trkpt>
<trkpt lat="-35.205828" lon="-72.240983"><ele>242.0</ele></trkpt>
<trkpt lat="-35.204824" lon="-72.240782"><ele>242.0</ele></trkpt>
<trkpt lat="-35.204343" lon="-72.240852"><ele>242.0</ele></trkpt>
<trkpt lat="-35.204015" lon="-72.241020"><ele>268.0</ele></trkpt>
<trkpt lat="-35.203583" lon="-72.240968"><ele>268.0</ele></trkpt>
<trkpt lat="-35.203155" lon="-72.240771"><ele>268.0</ele></trkpt>
<trkpt lat="-35.202237" lon="-72.240102"><ele>268.0</ele></trkpt>
<trkpt lat="-35.202011" lon="-72.240114"><ele>292.0</ele></trkpt>
<trkpt lat="-35.201217" lon="-72.240421"><ele>292.0</ele></trkpt>
<trkpt lat="-35.201006" lon="-72.240159"><ele>292.0</ele></trkpt>
<trkpt lat="-35.200751" lon="-72.240121"><ele>292.0</ele></trkpt>
<trkpt lat="-35.200150" lon="-72.239805"><ele>292.0</ele></trkpt>
<trkpt lat="-35.199522" lon="-72.239690"><ele>281.0</ele></trkpt>
<trkpt lat="-35.199217" lon="-72.239712"><ele>281.0</ele></trkpt>
<trkpt lat="-35.199053" lon="-72.239974"><ele>281.0</ele></trkpt>
<trkpt lat="-35.198817" lon="-72.240005"><ele>281.0</ele></trkpt>
<trkpt lat="-35.198317" lon="-72.238957"><ele>274.0</ele></trkpt>
<trkpt lat="-35.197712" lon="-72.238031"><ele>295.0</ele></trkpt>
<trkpt lat="-35.197176" lon="-72.236706"><ele>271.0</ele></trkpt>
<trkpt lat="-35.196428" lon="-72.235806"><ele>271.0</ele></trkpt>
<trkpt lat="-35.194932" lon="-72.233354"><ele>287.0</ele></trkpt>
<trkpt lat="-35.194710" lon="-72.232704"><ele>281.0</ele></trkpt>
<trkpt lat="-35.194556" lon="-72.231897"><ele>281.0</ele></trkpt>
<trkpt lat="-35.194293" lon="-72.231393"><ele>281.0</ele></trkpt>
<trkpt lat="-35.194076" lon="-72.231206"><ele>268.0</ele></trkpt>
<trkpt lat="-35.193600" lon="-72.231161"><ele>281.0</ele></trkpt>
<trkpt lat="-35.193067" lon="-72.231492"><ele>293.0</ele></trkpt>
<trkpt lat="-35.192609" lon="-72.232286"><ele>293.0</ele></trkpt>
<trkpt lat="-35.192482" lon="-72.233321"><ele>293.0</ele></trkpt>
<trkpt lat="-35.192345" lon="-72.233592"><ele>283.0</ele></trkpt>
<trkpt lat="-35.191990" lon="-72.233761"><ele>283.0</ele></trkpt>
<trkpt lat="-35.191084" lon="-72.233910"><ele>274.0</ele></trkpt>
<trkpt lat="-35.189952" lon="-72.233817"><ele>274.0</ele></trkpt>
<trkpt lat="-35.189340" lon="-72.233549"><ele>276.0</ele></trkpt>
<trkpt lat="-35.189039" lon="-72.233519"><ele>276.0</ele></trkpt>
<trkpt lat="-35.187883" lon="-72.233760"><ele>276.0</ele></trkpt>
<trkpt lat="-35.187047" lon="-72.233809"><ele>272.0</ele></trkpt>
<trkpt lat="-35.185733" lon="-72.234188"><ele>272.0</ele></trkpt>
<trkpt lat="-35.184102" lon="-72.234246"><ele>272.0</ele></trkpt>
<trkpt lat="-35.183379" lon="-72.234159"><ele>272.0</ele></trkpt>
<trkpt lat="-35.182128" lon="-72.233416"><ele>256.0</ele></trkpt>
<trkpt lat="-35.181407" lon="-72.233350"><ele>256.0</ele></trkpt>
<trkpt lat="-35.180931" lon="-72.233037"><ele>217.0</ele></trkpt>
<trkpt lat="-35.180509" lon="-72.232877"><ele>217.0</ele></trkpt>
<trkpt lat="-35.178247" lon="-72.233100"><ele>197.0</ele></trkpt>
<trkpt lat="-35.177347" lon="-72.233034"><ele>197.0</ele></trkpt>
<trkpt lat="-35.176922" lon="-72.233098"><ele>190.0</ele></trkpt>
<trkpt lat="-35.176022" lon="-72.233465"><ele>187.0</ele></trkpt>
<trkpt lat="-35.175453" lon="-72.234284"><ele>187.0</ele></trkpt>
<trkpt lat="-35.174766" lon="-72.234864"><ele>190.0</ele></trkpt>
<trkpt lat="-35.174376" lon="-72.235074"><ele>190.0</ele></trkpt>
<trkpt lat="-35.173751" lon="-72.235217"><ele>190.0</ele></trkpt>
<trkpt lat="-35.173786" lon="-72.235427"><ele>180.0</ele></trkpt>
<trkpt lat="-35.173992" lon="-72.235662"><ele>180.0</ele></trkpt>
<trkpt lat="-35.174480" lon="-72.235763"><ele>180.0</ele></trkpt>
<trkpt lat="-35.174824" lon="-72.235619"><ele>180.0</ele></trkpt>
<trkpt lat="-35.176011" lon="-72.234792"><ele>187.0</ele></trkpt>
<trkpt lat="-35.176298" lon="-72.234740"><ele>187.0</ele></trkpt>
<trkpt lat="-35.176427" lon="-72.234902"><ele>187.0</ele></trkpt>
<trkpt lat="-35.176156" lon="-72.235874"><ele>175.0</ele></trkpt>
</trkseg></trk>
<trk><name>Putú Pedalea</name><trkseg>
<trkpt lat="-35.176138" lon="-72.235950"><ele>175.0</ele></trkpt>
<trkpt lat="-35.176134" lon="-72.236351"><ele>175.0</ele></trkpt>
<trkpt lat="-35.176447" lon="-72.237014"><ele>175.0</ele></trkpt>
<trkpt lat="-35.176552" lon="-72.237957"><ele>155.0</ele></trkpt>
<trkpt lat="-35.176780" lon="-72.238526"><ele>155.0</ele></trkpt>
<trkpt lat="-35.176779" lon="-72.239175"><ele>155.0</ele></trkpt>
<trkpt lat="-35.176904" lon="-72.239283"><ele>155.0</ele></trkpt>
<trkpt lat="-35.177277" lon="-72.239237"><ele>172.0</ele></trkpt>
<trkpt lat="-35.177390" lon="-72.239353"><ele>172.0</ele></trkpt>
<trkpt lat="-35.177255" lon="-72.239847"><ele>174.0</ele></trkpt>
<trkpt lat="-35.177308" lon="-72.240419"><ele>174.0</ele></trkpt>
<trkpt lat="-35.177186" lon="-72.241145"><ele>174.0</ele></trkpt>
<trkpt lat="-35.176810" lon="-72.242082"><ele>138.0</ele></trkpt>
<trkpt lat="-35.177137" lon="-72.242931"><ele>150.0</ele></trkpt>
<trkpt lat="-35.177006" lon="-72.243089"><ele>138.0</ele></trkpt>
<trkpt lat="-35.176423" lon="-72.243281"><ele>138.0</ele></trkpt>
<trkpt lat="-35.175707" lon="-72.244058"><ele>123.0</ele></trkpt>
<trkpt lat="-35.175243" lon="-72.245020"><ele>123.0</ele></trkpt>
<trkpt lat="-35.174942" lon="-72.245432"><ele>121.0</ele></trkpt>
<trkpt lat="-35.174915" lon="-72.246018"><ele>100.0</ele></trkpt>
<trkpt lat="-35.174794" lon="-72.246226"><ele>100.0</ele></trkpt>
<trkpt lat="-35.174578" lon="-72.246315"><ele>100.0</ele></trkpt>
<trkpt lat="-35.174355" lon="-72.246229"><ele>100.0</ele></trkpt>
<trkpt lat="-35.174191" lon="-72.245400"><ele>121.0</ele></trkpt>
<trkpt lat="-35.174067" lon="-72.245272"><ele>121.0</ele></trkpt>
<trkpt lat="-35.173286" lon="-72.245600"><ele>121.0</ele></trkpt>
<trkpt lat="-35.172940" lon="-72.246081"><ele>100.0</ele></trkpt>
<trkpt lat="-35.172872" lon="-72.246395"><ele>88.0</ele></trkpt>
<trkpt lat="-35.172891" lon="-72.247130"><ele>88.0</ele></trkpt>
<trkpt lat="-35.173027" lon="-72.247475"><ele>100.0</ele></trkpt>
<trkpt lat="-35.173161" lon="-72.247557"><ele>100.0</ele></trkpt>
<trkpt lat="-35.173349" lon="-72.247531"><ele>100.0</ele></trkpt>
<trkpt lat="-35.173556" lon="-72.247187"><ele>100.0</ele></trkpt>
<trkpt lat="-35.173685" lon="-72.247104"><ele>100.0</ele></trkpt>
<trkpt lat="-35.174202" lon="-72.247643"><ele>100.0</ele></trkpt>
<trkpt lat="-35.174589" lon="-72.247773"><ele>100.0</ele></trkpt>
<trkpt lat="-35.174657" lon="-72.247868"><ele>100.0</ele></trkpt>
<trkpt lat="-35.174220" lon="-72.248561"><ele>81.0</ele></trkpt>
<trkpt lat="-35.174316" lon="-72.249168"><ele>81.0</ele></trkpt>
<trkpt lat="-35.174130" lon="-72.249725"><ele>81.0</ele></trkpt>
<trkpt lat="-35.173482" lon="-72.250339"><ele>79.0</ele></trkpt>
<trkpt lat="-35.173380" lon="-72.250581"><ele>79.0</ele></trkpt>
<trkpt lat="-35.173479" lon="-72.250984"><ele>79.0</ele></trkpt>
<trkpt lat="-35.173802" lon="-72.251150"><ele>79.0</ele></trkpt>
<trkpt lat="-35.174221" lon="-72.251569"><ele>79.0</ele></trkpt>
<trkpt lat="-35.174318" lon="-72.251779"><ele>79.0</ele></trkpt>
<trkpt lat="-35.174273" lon="-72.251902"><ele>79.0</ele></trkpt>
<trkpt lat="-35.174125" lon="-72.251981"><ele>79.0</ele></trkpt>
<trkpt lat="-35.173518" lon="-72.251984"><ele>79.0</ele></trkpt>
<trkpt lat="-35.173072" lon="-72.252599"><ele>92.0</ele></trkpt>
<trkpt lat="-35.172313" lon="-72.253315"><ele>55.0</ele></trkpt>
<trkpt lat="-35.172109" lon="-72.253922"><ele>55.0</ele></trkpt>
<trkpt lat="-35.171975" lon="-72.253354"><ele>55.0</ele></trkpt>
<trkpt lat="-35.171827" lon="-72.253157"><ele>55.0</ele></trkpt>
<trkpt lat="-35.171402" lon="-72.252887"><ele>55.0</ele></trkpt>
<trkpt lat="-35.170961" lon="-72.252466"><ele>55.0</ele></trkpt>
<trkpt lat="-35.170485" lon="-72.252326"><ele>83.0</ele></trkpt>
<trkpt lat="-35.170202" lon="-72.252063"><ele>86.0</ele></trkpt>
<trkpt lat="-35.169792" lon="-72.251836"><ele>86.0</ele></trkpt>
<trkpt lat="-35.169073" lon="-72.250895"><ele>86.0</ele></trkpt>
<trkpt lat="-35.168611" lon="-72.250573"><ele>96.0</ele></trkpt>
<trkpt lat="-35.167999" lon="-72.249911"><ele>103.0</ele></trkpt>
<trkpt lat="-35.167421" lon="-72.249503"><ele>103.0</ele></trkpt>
<trkpt lat="-35.166600" lon="-72.249095"><ele>105.0</ele></trkpt>
<trkpt lat="-35.166297" lon="-72.248620"><ele>105.0</ele></trkpt>
<trkpt lat="-35.165918" lon="-72.248258"><ele>105.0</ele></trkpt>
<trkpt lat="-35.165762" lon="-72.247961"><ele>105.0</ele></trkpt>
<trkpt lat="-35.165869" lon="-72.248618"><ele>105.0</ele></trkpt>
<trkpt lat="-35.166156" lon="-72.249252"><ele>105.0</ele></trkpt>
<trkpt lat="-35.166001" lon="-72.249645"><ele>105.0</ele></trkpt>
<trkpt lat="-35.165826" lon="-72.249843"><ele>105.0</ele></trkpt>
<trkpt lat="-35.165484" lon="-72.249872"><ele>105.0</ele></trkpt>
<trkpt lat="-35.165145" lon="-72.250136"><ele>105.0</ele></trkpt>
<trkpt lat="-35.164643" lon="-72.250307"><ele>105.0</ele></trkpt>
<trkpt lat="-35.164376" lon="-72.250539"><ele>89.0</ele></trkpt>
<trkpt lat="-35.164160" lon="-72.250589"><ele>89.0</ele></trkpt>
<trkpt lat="-35.163820" lon="-72.250436"><ele>89.0</ele></trkpt>
<trkpt lat="-35.163753" lon="-72.250191"><ele>89.0</ele></trkpt>
<trkpt lat="-35.163855" lon="-72.249785"><ele>101.0</ele></trkpt>
<trkpt lat="-35.163585" lon="-72.249548"><ele>101.0</ele></trkpt>
<trkpt lat="-35.163385" lon="-72.249572"><ele>101.0</ele></trkpt>
<trkpt lat="-35.162411" lon="-72.250104"><ele>56.0</ele></trkpt>
<trkpt lat="-35.162132" lon="-72.250092"><ele>56.0</ele></trkpt>
<trkpt lat="-35.161978" lon="-72.249899"><ele>75.0</ele></trkpt>
<trkpt lat="-35.161900" lon="-72.249622"><ele>75.0</ele></trkpt>
<trkpt lat="-35.162042" lon="-72.248838"><ele>75.0</ele></trkpt>
<trkpt lat="-35.162003" lon="-72.248672"><ele>75.0</ele></trkpt>
<trkpt lat="-35.161308" lon="-72.248877"><ele>75.0</ele></trkpt>
<trkpt lat="-35.161107" lon="-72.248846"><ele>75.0</ele></trkpt>
<trkpt lat="-35.160951" lon="-72.248644"><ele>75.0</ele></trkpt>
<trkpt lat="-35.160808" lon="-72.247979"><ele>75.0</ele></trkpt>
<trkpt lat="-35.160235" lon="-72.247806"><ele>70.0</ele></trkpt>
<trkpt lat="-35.159784" lon="-72.247528"><ele>70.0</ele></trkpt>
<trkpt lat="-35.159608" lon="-72.247276"><ele>70.0</ele></trkpt>
<trkpt lat="-35.159599" lon="-72.246975"><ele>70.0</ele></trkpt>
<trkpt lat="-35.160385" lon="-72.246065"><ele>70.0</ele></trkpt>
<trkpt lat="-35.160391" lon="-72.245910"><ele>70.0</ele></trkpt>
<trkpt lat="-35.159492" lon="-72.245555"><ele>96.0</ele></trkpt>
<trkpt lat="-35.159230" lon="-72.245152"><ele>96.0</ele></trkpt>
<trkpt lat="-35.158738" lon="-72.244744"><ele>96.0</ele></trkpt>
<trkpt lat="-35.158621" lon="-72.244140"><ele>96.0</ele></trkpt>
<trkpt lat="-35.158495" lon="-72.244137"><ele>96.0</ele></trkpt>
<trkpt lat="-35.158114" lon="-72.244562"><ele>71.0</ele></trkpt>
<trkpt lat="-35.157950" lon="-72.244622"><ele>71.0</ele></trkpt>
<trkpt lat="-35.157265" lon="-72.244273"><ele>71.0</ele></trkpt>
<trkpt lat="-35.156990" lon="-72.243867"><ele>71.0</ele></trkpt>
<trkpt lat="-35.156925" lon="-72.243258"><ele>86.0</ele></trkpt>
<trkpt lat="-35.156615" lon="-72.242663"><ele>86.0</ele></trkpt>
<trkpt lat="-35.156569" lon="-72.242426"><ele>86.0</ele></trkpt>
<trkpt lat="-35.156864" lon="-72.241980"><ele>86.0</ele></trkpt>
<trkpt lat="-35.157545" lon="-72.241562"><ele>79.0</ele></trkpt>
<trkpt lat="-35.157091" lon="-72.241061"><ele>79.0</ele></trkpt>
<trkpt lat="-35.157024" lon="-72.240867"><ele>79.0</ele></trkpt>
<trkpt lat="-35.157200" lon="-72.240021"><ele>79.0</ele></trkpt>
<trkpt lat="-35.157429" lon="-72.239856"><ele>79.0</ele></trkpt>
<trkpt lat="-35.157681" lon="-72.239961"><ele>79.0</ele></trkpt>
<trkpt lat="-35.158029" lon="-72.240567"><ele>79.0</ele></trkpt>
<trkpt lat="-35.158665" lon="-72.241372"><ele>88.0</ele></trkpt>
<trkpt lat="-35.158909" lon="-72.241982"><ele>96.0</ele></trkpt>
<trkpt lat="-35.159011" lon="-72.242792"><ele>96.0</ele></trkpt>
<trkpt lat="-35.159183" lon="-72.243179"><ele>96.0</ele></trkpt>
<trkpt lat="-35.159536" lon="-72.243374"><ele>96.0</ele></trkpt>
<trkpt lat="-35.160256" lon="-72.243414"><ele>96.0</ele></trkpt>
<trkpt lat="-35.160581" lon="-72.243551"><ele>99.0</ele></trkpt>
<trkpt lat="-35.161946" lon="-72.245123"><ele>105.0</ele></trkpt>
<trkpt lat="-35.163578" lon="-72.246842"><ele>102.0</ele></trkpt>
<trkpt lat="-35.163830" lon="-72.247007"><ele>102.0</ele></trkpt>
<trkpt lat="-35.164336" lon="-72.246878"><ele>102.0</ele></trkpt>
<trkpt lat="-35.164694" lon="-72.246432"><ele>103.0</ele></trkpt>
<trkpt lat="-35.164953" lon="-72.246290"><ele>103.0</ele></trkpt>
<trkpt lat="-35.165653" lon="-72.246259"><ele>103.0</ele></trkpt>
<trkpt lat="-35.166411" lon="-72.246370"><ele>103.0</ele></trkpt>
<trkpt lat="-35.166694" lon="-72.246310"><ele>120.0</ele></trkpt>
<trkpt lat="-35.166971" lon="-72.246039"><ele>120.0</ele></trkpt>
<trkpt lat="-35.167066" lon="-72.245783"><ele>115.0</ele></trkpt>
<trkpt lat="-35.166936" lon="-72.245033"><ele>115.0</ele></trkpt>
<trkpt lat="-35.167623" lon="-72.244393"><ele>115.0</ele></trkpt>
<trkpt lat="-35.168669" lon="-72.243679"><ele>109.0</ele></trkpt>
<trkpt lat="-35.169182" lon="-72.243788"><ele>92.0</ele></trkpt>
<trkpt lat="-35.169902" lon="-72.244224"><ele>92.0</ele></trkpt>
<trkpt lat="-35.170134" lon="-72.244505"><ele>92.0</ele></trkpt>
<trkpt lat="-35.170216" lon="-72.244875"><ele>92.0</ele></trkpt>
<trkpt lat="-35.170474" lon="-72.244595"><ele>92.0</ele></trkpt>
<trkpt lat="-35.170677" lon="-72.244092"><ele>92.0</ele></trkpt>
<trkpt lat="-35.171099" lon="-72.243741"><ele>115.0</ele></trkpt>
<trkpt lat="-35.171385" lon="-72.243712"><ele>115.0</ele></trkpt>
<trkpt lat="-35.171530" lon="-72.243597"><ele>115.0</ele></trkpt>
<trkpt lat="-35.171884" lon="-72.242673"><ele>115.0</ele></trkpt>
<trkpt lat="-35.172185" lon="-72.242366"><ele>115.0</ele></trkpt>
<trkpt lat="-35.172128" lon="-72.241111"><ele>127.0</ele></trkpt>
<trkpt lat="-35.171998" lon="-72.241010"><ele>127.0</ele></trkpt>
<trkpt lat="-35.171998" lon="-72.241822"><ele>115.0</ele></trkpt>
<trkpt lat="-35.171889" lon="-72.242296"><ele>115.0</ele></trkpt>
<trkpt lat="-35.171771" lon="-72.242428"><ele>115.0</ele></trkpt>
<trkpt lat="-35.171138" lon="-72.242573"><ele>115.0</ele></trkpt>
<trkpt lat="-35.171012" lon="-72.242682"><ele>115.0</ele></trkpt>
<trkpt lat="-35.171159" lon="-72.243293"><ele>115.0</ele></trkpt>
<trkpt lat="-35.171061" lon="-72.243484"><ele>115.0</ele></trkpt>
<trkpt lat="-35.170452" lon="-72.243513"><ele>120.0</ele></trkpt>
<trkpt lat="-35.170188" lon="-72.243345"><ele>120.0</ele></trkpt>
<trkpt lat="-35.169599" lon="-72.242424"><ele>120.0</ele></trkpt>
<trkpt lat="-35.169396" lon="-72.241294"><ele>138.0</ele></trkpt>
<trkpt lat="-35.169164" lon="-72.240517"><ele>138.0</ele></trkpt>
<trkpt lat="-35.168990" lon="-72.240190"><ele>138.0</ele></trkpt>
<trkpt lat="-35.168534" lon="-72.239759"><ele>120.0</ele></trkpt>
<trkpt lat="-35.168371" lon="-72.239190"><ele>130.0</ele></trkpt>
<trkpt lat="-35.168227" lon="-72.239224"><ele>130.0</ele></trkpt>
<trkpt lat="-35.168121" lon="-72.239371"><ele>130.0</ele></trkpt>
<trkpt lat="-35.167880" lon="-72.240237"><ele>120.0</ele></trkpt>
<trkpt lat="-35.167717" lon="-72.240431"><ele>120.0</ele></trkpt>
<trkpt lat="-35.167476" lon="-72.240483"><ele>120.0</ele></trkpt>
<trkpt lat="-35.166944" lon="-72.240399"><ele>120.0</ele></trkpt>
<trkpt lat="-35.166555" lon="-72.240177"><ele>102.0</ele></trkpt>
<trkpt lat="-35.166336" lon="-72.239697"><ele>102.0</ele></trkpt>
<trkpt lat="-35.165829" lon="-72.238968"><ele>119.0</ele></trkpt>
<trkpt lat="-35.165551" lon="-72.238140"><ele>119.0</ele></trkpt>
<trkpt lat="-35.165681" lon="-72.237822"><ele>119.0</ele></trkpt>
<trkpt lat="-35.166168" lon="-72.237368"><ele>111.0</ele></trkpt>
<trkpt lat="-35.166090" lon="-72.236891"><ele>111.0</ele></trkpt>
<trkpt lat="-35.165850" lon="-72.236602"><ele>111.0</ele></trkpt>
<trkpt lat="-35.166058" lon="-72.236380"><ele>111.0</ele></trkpt>
<trkpt lat="-35.166332" lon="-72.236290"><ele>111.0</ele></trkpt>
<trkpt lat="-35.166455" lon="-72.236108"><ele>111.0</ele></trkpt>
<trkpt lat="-35.166558" lon="-72.235862"><ele>111.0</ele></trkpt>
<trkpt lat="-35.166479" lon="-72.235573"><ele>111.0</ele></trkpt>
<trkpt lat="-35.166526" lon="-72.235335"><ele>114.0</ele></trkpt>
<trkpt lat="-35.166695" lon="-72.235227"><ele>132.0</ele></trkpt>
<trkpt lat="-35.167097" lon="-72.235501"><ele>139.0</ele></trkpt>
<trkpt lat="-35.167273" lon="-72.235456"><ele>139.0</ele></trkpt>
<trkpt lat="-35.167420" lon="-72.234460"><ele>132.0</ele></trkpt>
<trkpt lat="-35.167398" lon="-72.234144"><ele>132.0</ele></trkpt>
<trkpt lat="-35.166897" lon="-72.232729"><ele>116.0</ele></trkpt>
<trkpt lat="-35.166359" lon="-72.232299"><ele>109.0</ele></trkpt>
<trkpt lat="-35.165581" lon="-72.231989"><ele>109.0</ele></trkpt>
<trkpt lat="-35.165387" lon="-72.231784"><ele>109.0</ele></trkpt>
<trkpt lat="-35.165332" lon="-72.231604"><ele>109.0</ele></trkpt>
<trkpt lat="-35.165154" lon="-72.231511"><ele>109.0</ele></trkpt>
<trkpt lat="-35.164962" lon="-72.231235"><ele>87.0</ele></trkpt>
<trkpt lat="-35.164367" lon="-72.230813"><ele>83.0</ele></trkpt>
<trkpt lat="-35.164378" lon="-72.230522"><ele>83.0</ele></trkpt>
<trkpt lat="-35.164120" lon="-72.230310"><ele>83.0</ele></trkpt>
<trkpt lat="-35.164782" lon="-72.230228"><ele>87.0</ele></trkpt>
<trkpt lat="-35.165264" lon="-72.230320"><ele>87.0</ele></trkpt>
<trkpt lat="-35.165393" lon="-72.230275"><ele>87.0</ele></trkpt>
<trkpt lat="-35.165161" lon="-72.229510"><ele>87.0</ele></trkpt>
<trkpt lat="-35.165129" lon="-72.228636"><ele>107.0</ele></trkpt>
<trkpt lat="-35.165006" lon="-72.227900"><ele>107.0</ele></trkpt>
<trkpt lat="-35.165091" lon="-72.227582"><ele>107.0</ele></trkpt>
<trkpt lat="-35.165279" lon="-72.227355"><ele>107.0</ele></trkpt>
<trkpt lat="-35.165506" lon="-72.227280"><ele>107.0</ele></trkpt>
<trkpt lat="-35.166140" lon="-72.227338"><ele>107.0</ele></trkpt>
<trkpt lat="-35.166616" lon="-72.227568"><ele>107.0</ele></trkpt>
<trkpt lat="-35.167897" lon="-72.227877"><ele>118.0</ele></trkpt>
<trkpt lat="-35.168090" lon="-72.227729"><ele>118.0</ele></trkpt>
<trkpt lat="-35.168148" lon="-72.227575"><ele>118.0</ele></trkpt>
<trkpt lat="-35.167921" lon="-72.227019"><ele>112.0</ele></trkpt>
<trkpt lat="-35.167924" lon="-72.226731"><ele>112.0</ele></trkpt>
<trkpt lat="-35.168346" lon="-72.226295"><ele>112.0</ele></trkpt>
<trkpt lat="-35.168896" lon="-72.225392"><ele>143.0</ele></trkpt>
<trkpt lat="-35.169281" lon="-72.225369"><ele>143.0</ele></trkpt>
<trkpt lat="-35.169839" lon="-72.225684"><ele>143.0</ele></trkpt>
<trkpt lat="-35.170351" lon="-72.225845"><ele>143.0</ele></trkpt>
<trkpt lat="-35.170559" lon="-72.226044"><ele>143.0</ele></trkpt>
<trkpt lat="-35.171107" lon="-72.226083"><ele>167.0</ele></trkpt>
<trkpt lat="-35.171238" lon="-72.225991"><ele>167.0</ele></trkpt>
<trkpt lat="-35.171461" lon="-72.225570"><ele>167.0</ele></trkpt>
<trkpt lat="-35.171778" lon="-72.225371"><ele>167.0</ele></trkpt>
<trkpt lat="-35.172147" lon="-72.224972"><ele>156.0</ele></trkpt>
<trkpt lat="-35.172648" lon="-72.224746"><ele>156.0</ele></trkpt>
<trkpt lat="-35.172708" lon="-72.224576"><ele>156.0</ele></trkpt>
<trkpt lat="-35.172586" lon="-72.224422"><ele>156.0</ele></trkpt>
<trkpt lat="-35.172137" lon="-72.224284"><ele>156.0</ele></trkpt>
<trkpt lat="-35.171816" lon="-72.224276"><ele>156.0</ele></trkpt>
<trkpt lat="-35.171339" lon="-72.223943"><ele>156.0</ele></trkpt>
<trkpt lat="-35.170864" lon="-72.223929"><ele>156.0</ele></trkpt>
<trkpt lat="-35.170744" lon="-72.223819"><ele>124.0</ele></trkpt>
<trkpt lat="-35.170886" lon="-72.222802"><ele>173.0</ele></trkpt>
<trkpt lat="-35.171035" lon="-72.222330"><ele>173.0</ele></trkpt>
<trkpt lat="-35.171242" lon="-72.222064"><ele>173.0</ele></trkpt>
<trkpt lat="-35.171480" lon="-72.221952"><ele>173.0</ele></trkpt>
<trkpt lat="-35.171875" lon="-72.222160"><ele>173.0</ele></trkpt>
<trkpt lat="-35.172938" lon="-72.221672"><ele>175.0</ele></trkpt>
<trkpt lat="-35.173598" lon="-72.221601"><ele>175.0</ele></trkpt>
<trkpt lat="-35.173872" lon="-72.221275"><ele>175.0</ele></trkpt>
<trkpt lat="-35.174501" lon="-72.220198"><ele>148.0</ele></trkpt>
<trkpt lat="-35.174686" lon="-72.220154"><ele>148.0</ele></trkpt>
<trkpt lat="-35.175081" lon="-72.220249"><ele>155.0</ele></trkpt>
<trkpt lat="-35.175997" lon="-72.219841"><ele>155.0</ele></trkpt>
<trkpt lat="-35.176270" lon="-72.219631"><ele>155.0</ele></trkpt>
<trkpt lat="-35.176308" lon="-72.219500"><ele>155.0</ele></trkpt>
<trkpt lat="-35.176227" lon="-72.219370"><ele>155.0</ele></trkpt>
<trkpt lat="-35.175590" lon="-72.219278"><ele>155.0</ele></trkpt>
<trkpt lat="-35.174568" lon="-72.218579"><ele>180.0</ele></trkpt>
<trkpt lat="-35.173614" lon="-72.218283"><ele>180.0</ele></trkpt>
<trkpt lat="-35.173463" lon="-72.218015"><ele>180.0</ele></trkpt>
<trkpt lat="-35.173543" lon="-72.217848"><ele>180.0</ele></trkpt>
<trkpt lat="-35.173846" lon="-72.217607"><ele>180.0</ele></trkpt>
<trkpt lat="-35.175470" lon="-72.216672"><ele>184.0</ele></trkpt>
<trkpt lat="-35.176289" lon="-72.215632"><ele>197.0</ele></trkpt>
<trkpt lat="-35.176890" lon="-72.213896"><ele>193.0</ele></trkpt>
<trkpt lat="-35.176848" lon="-72.213542"><ele>193.0</ele></trkpt>
<trkpt lat="-35.176625" lon="-72.213069"><ele>193.0</ele></trkpt>
<trkpt lat="-35.176177" lon="-72.212805"><ele>193.0</ele></trkpt>
<trkpt lat="-35.176198" lon="-72.212517"><ele>193.0</ele></trkpt>
<trkpt lat="-35.176507" lon="-72.212108"><ele>210.0</ele></trkpt>
<trkpt lat="-35.176143" lon="-72.211759"><ele>210.0</ele></trkpt>
<trkpt lat="-35.175704" lon="-72.210924"><ele>210.0</ele></trkpt>
<trkpt lat="-35.175450" lon="-72.210605"><ele>210.0</ele></trkpt>
<trkpt lat="-35.174679" lon="-72.210117"><ele>190.0</ele></trkpt>
<trkpt lat="-35.173129" lon="-72.209699"><ele>190.0</ele></trkpt>
<trkpt lat="-35.171591" lon="-72.209646"><ele>187.0</ele></trkpt>
<trkpt lat="-35.171092" lon="-72.209749"><ele>187.0</ele></trkpt>
<trkpt lat="-35.170879" lon="-72.209687"><ele>187.0</ele></trkpt>
<trkpt lat="-35.170055" lon="-72.209252"><ele>162.0</ele></trkpt>
<trkpt lat="-35.169934" lon="-72.209056"><ele>162.0</ele></trkpt>
<trkpt lat="-35.169983" lon="-72.208762"><ele>162.0</ele></trkpt>
<trkpt lat="-35.169844" lon="-72.208604"><ele>162.0</ele></trkpt>
<trkpt lat="-35.169370" lon="-72.208467"><ele>162.0</ele></trkpt>
<trkpt lat="-35.168727" lon="-72.208086"><ele>125.0</ele></trkpt>
<trkpt lat="-35.168520" lon="-72.208082"><ele>125.0</ele></trkpt>
<trkpt lat="-35.168298" lon="-72.208231"><ele>125.0</ele></trkpt>
<trkpt lat="-35.168098" lon="-72.208236"><ele>125.0</ele></trkpt>
<trkpt lat="-35.166030" lon="-72.207472"><ele>107.0</ele></trkpt>
<trkpt lat="-35.163939" lon="-72.206111"><ele>59.0</ele></trkpt>
<trkpt lat="-35.163025" lon="-72.205899"><ele>59.0</ele></trkpt>
<trkpt lat="-35.162840" lon="-72.205749"><ele>59.0</ele></trkpt>
<trkpt lat="-35.162795" lon="-72.205457"><ele>59.0</ele></trkpt>
<trkpt lat="-35.162937" lon="-72.205148"><ele>59.0</ele></trkpt>
<trkpt lat="-35.163317" lon="-72.205158"><ele>59.0</ele></trkpt>
<trkpt lat="-35.163703" lon="-72.204562"><ele>59.0</ele></trkpt>
<trkpt lat="-35.163752" lon="-72.204378"><ele>59.0</ele></trkpt>
<trkpt lat="-35.163672" lon="-72.203873"><ele>43.0</ele></trkpt>
<trkpt lat="-35.163573" lon="-72.203830"><ele>43.0</ele></trkpt>
<trkpt lat="-35.163592" lon="-72.203771"><ele>43.0</ele></trkpt>
<trkpt lat="-35.163853" lon="-72.203556"><ele>43.0</ele></trkpt>
<trkpt lat="-35.163911" lon="-72.203402"><ele>43.0</ele></trkpt>
<trkpt lat="-35.164403" lon="-72.203336"><ele>43.0</ele></trkpt>
<trkpt lat="-35.164756" lon="-72.203090"><ele>40.0</ele></trkpt>
<trkpt lat="-35.164846" lon="-72.202909"><ele>40.0</ele></trkpt>
<trkpt lat="-35.164866" lon="-72.202423"><ele>40.0</ele></trkpt>
<trkpt lat="-35.165182" lon="-72.201992"><ele>63.0</ele></trkpt>
<trkpt lat="-35.166314" lon="-72.201726"><ele>63.0</ele></trkpt>
<trkpt lat="-35.167010" lon="-72.201407"><ele>55.0</ele></trkpt>
<trkpt lat="-35.167507" lon="-72.201067"><ele>55.0</ele></trkpt>
<trkpt lat="-35.167690" lon="-72.200743"><ele>55.0</ele></trkpt>
<trkpt lat="-35.168527" lon="-72.200246"><ele>55.0</ele></trkpt>
<trkpt lat="-35.168857" lon="-72.199704"><ele>68.0</ele></trkpt>
<trkpt lat="-35.169148" lon="-72.199474"><ele>68.0</ele></trkpt>
<trkpt lat="-35.169177" lon="-72.199285"><ele>68.0</ele></trkpt>
<trkpt lat="-35.169033" lon="-72.198915"><ele>68.0</ele></trkpt>
<trkpt lat="-35.168959" lon="-72.198348"><ele>68.0</ele></trkpt>
<trkpt lat="-35.169133" lon="-72.198125"><ele>68.0</ele></trkpt>
<trkpt lat="-35.169413" lon="-72.198054"><ele>68.0</ele></trkpt>
<trkpt lat="-35.168934" lon="-72.197144"><ele>88.0</ele></trkpt>
<trkpt lat="-35.168989" lon="-72.196950"><ele>88.0</ele></trkpt>
<trkpt lat="-35.168928" lon="-72.196600"><ele>88.0</ele></trkpt>
<trkpt lat="-35.168682" lon="-72.196102"><ele>109.0</ele></trkpt>
<trkpt lat="-35.168694" lon="-72.196000"><ele>109.0</ele></trkpt>
<trkpt lat="-35.168905" lon="-72.195806"><ele>117.0</ele></trkpt>
<trkpt lat="-35.168946" lon="-72.195535"><ele>117.0</ele></trkpt>
<trkpt lat="-35.168637" lon="-72.194775"><ele>154.0</ele></trkpt>
<trkpt lat="-35.168553" lon="-72.194739"><ele>154.0</ele></trkpt>
<trkpt lat="-35.168367" lon="-72.194917"><ele>154.0</ele></trkpt>
<trkpt lat="-35.168248" lon="-72.194833"><ele>154.0</ele></trkpt>
<trkpt lat="-35.168073" lon="-72.194139"><ele>154.0</ele></trkpt>
<trkpt lat="-35.168651" lon="-72.193149"><ele>149.0</ele></trkpt>
<trkpt lat="-35.168745" lon="-72.192606"><ele>149.0</ele></trkpt>
<trkpt lat="-35.168893" lon="-72.192302"><ele>153.0</ele></trkpt>
<trkpt lat="-35.169504" lon="-72.191992"><ele>153.0</ele></trkpt>
<trkpt lat="-35.169715" lon="-72.191697"><ele>153.0</ele></trkpt>
<trkpt lat="-35.169803" lon="-72.191222"><ele>178.0</ele></trkpt>
<trkpt lat="-35.169730" lon="-72.190480"><ele>178.0</ele></trkpt>
<trkpt lat="-35.170216" lon="-72.189231"><ele>212.0</ele></trkpt>
<trkpt lat="-35.170064" lon="-72.188593"><ele>212.0</ele></trkpt>
<trkpt lat="-35.170164" lon="-72.188185"><ele>212.0</ele></trkpt>
<trkpt lat="-35.170397" lon="-72.188026"><ele>212.0</ele></trkpt>
<trkpt lat="-35.170855" lon="-72.187419"><ele>251.0</ele></trkpt>
<trkpt lat="-35.171526" lon="-72.187163"><ele>251.0</ele></trkpt>
<trkpt lat="-35.171690" lon="-72.186908"><ele>251.0</ele></trkpt>
<trkpt lat="-35.171995" lon="-72.186732"><ele>251.0</ele></trkpt>
<trkpt lat="-35.172452" lon="-72.186745"><ele>251.0</ele></trkpt>
<trkpt lat="-35.172804" lon="-72.186528"><ele>251.0</ele></trkpt>
<trkpt lat="-35.173137" lon="-72.186734"><ele>254.0</ele></trkpt>
<trkpt lat="-35.174003" lon="-72.186048"><ele>254.0</ele></trkpt>
<trkpt lat="-35.174591" lon="-72.185687"><ele>254.0</ele></trkpt>
<trkpt lat="-35.175809" lon="-72.185088"><ele>266.0</ele></trkpt>
<trkpt lat="-35.176275" lon="-72.184985"><ele>266.0</ele></trkpt>
<trkpt lat="-35.178002" lon="-72.184251"><ele>273.0</ele></trkpt>
<trkpt lat="-35.178464" lon="-72.184295"><ele>273.0</ele></trkpt>
<trkpt lat="-35.178807" lon="-72.184507"><ele>273.0</ele></trkpt>
<trkpt lat="-35.178934" lon="-72.184739"><ele>273.0</ele></trkpt>
<trkpt lat="-35.179135" lon="-72.185637"><ele>254.0</ele></trkpt>
<trkpt lat="-35.179397" lon="-72.186092"><ele>266.0</ele></trkpt>
<trkpt lat="-35.179690" lon="-72.186020"><ele>266.0</ele></trkpt>
<trkpt lat="-35.180287" lon="-72.185398"><ele>263.0</ele></trkpt>
<trkpt lat="-35.180634" lon="-72.185334"><ele>263.0</ele></trkpt>
<trkpt lat="-35.181097" lon="-72.185442"><ele>266.0</ele></trkpt>
<trkpt lat="-35.181517" lon="-72.185901"><ele>251.0</ele></trkpt>
<trkpt lat="-35.181982" lon="-72.186215"><ele>251.0</ele></trkpt>
<trkpt lat="-35.182196" lon="-72.186288"><ele>251.0</ele></trkpt>
<trkpt lat="-35.182379" lon="-72.186110"><ele>251.0</ele></trkpt>
<trkpt lat="-35.182345" lon="-72.186556"><ele>251.0</ele></trkpt>
<trkpt lat="-35.182603" lon="-72.187179"><ele>251.0</ele></trkpt>
<trkpt lat="-35.182740" lon="-72.188232"><ele>225.0</ele></trkpt>
<trkpt lat="-35.182942" lon="-72.188829"><ele>225.0</ele></trkpt>
<trkpt lat="-35.183000" lon="-72.189291"><ele>225.0</ele></trkpt>
<trkpt lat="-35.182842" lon="-72.190219"><ele>193.0</ele></trkpt>
<trkpt lat="-35.182570" lon="-72.190684"><ele>193.0</ele></trkpt>
<trkpt lat="-35.182532" lon="-72.190944"><ele>193.0</ele></trkpt>
<trkpt lat="-35.182647" lon="-72.191253"><ele>193.0</ele></trkpt>
<trkpt lat="-35.183552" lon="-72.192694"><ele>162.0</ele></trkpt>
<trkpt lat="-35.183902" lon="-72.193570"><ele>162.0</ele></trkpt>
<trkpt lat="-35.184096" lon="-72.193860"><ele>140.0</ele></trkpt>
<trkpt lat="-35.184141" lon="-72.194405"><ele>140.0</ele></trkpt>
<trkpt lat="-35.184001" lon="-72.194991"><ele>140.0</ele></trkpt>
<trkpt lat="-35.184039" lon="-72.195232"><ele>140.0</ele></trkpt>
<trkpt lat="-35.184568" lon="-72.195474"><ele>140.0</ele></trkpt>
<trkpt lat="-35.185708" lon="-72.195607"><ele>109.0</ele></trkpt>
<trkpt lat="-35.187503" lon="-72.197013"><ele>124.0</ele></trkpt>
<trkpt lat="-35.187557" lon="-72.197003"><ele>124.0</ele></trkpt>
<trkpt lat="-35.187558" lon="-72.196710"><ele>124.0</ele></trkpt>
<trkpt lat="-35.187668" lon="-72.196635"><ele>124.0</ele></trkpt>
<trkpt lat="-35.188041" lon="-72.197210"><ele>124.0</ele></trkpt>
<trkpt lat="-35.188705" lon="-72.197672"><ele>124.0</ele></trkpt>
<trkpt lat="-35.189439" lon="-72.199148"><ele>148.0</ele></trkpt>
<trkpt lat="-35.188972" lon="-72.200023"><ele>162.0</ele></trkpt>
<trkpt lat="-35.188979" lon="-72.200586"><ele>162.0</ele></trkpt>
<trkpt lat="-35.189262" lon="-72.201127"><ele>162.0</ele></trkpt>
<trkpt lat="-35.189267" lon="-72.201300"><ele>162.0</ele></trkpt>
<trkpt lat="-35.189483" lon="-72.201553"><ele>162.0</ele></trkpt>
<trkpt lat="-35.189813" lon="-72.202426"><ele>230.0</ele></trkpt>
<trkpt lat="-35.190168" lon="-72.202742"><ele>230.0</ele></trkpt>
<trkpt lat="-35.190558" lon="-72.203382"><ele>230.0</ele></trkpt>
<trkpt lat="-35.191587" lon="-72.204112"><ele>230.0</ele></trkpt>
<trkpt lat="-35.192201" lon="-72.204988"><ele>290.0</ele></trkpt>
<trkpt lat="-35.192270" lon="-72.205222"><ele>290.0</ele></trkpt>
<trkpt lat="-35.192137" lon="-72.207141"><ele>298.0</ele></trkpt>
<trkpt lat="-35.191358" lon="-72.208408"><ele>293.0</ele></trkpt>
<trkpt lat="-35.190869" lon="-72.209620"><ele>293.0</ele></trkpt>
<trkpt lat="-35.190623" lon="-72.210537"><ele>282.0</ele></trkpt>
<trkpt lat="-35.190618" lon="-72.211259"><ele>282.0</ele></trkpt>
<trkpt lat="-35.190172" lon="-72.212634"><ele>285.0</ele></trkpt>
<trkpt lat="-35.190360" lon="-72.216462"><ele>280.0</ele></trkpt>
<trkpt lat="-35.190557" lon="-72.217181"><ele>271.0</ele></trkpt>
<trkpt lat="-35.190903" lon="-72.217971"><ele>271.0</ele></trkpt>
<trkpt lat="-35.191760" lon="-72.219313"><ele>276.0</ele></trkpt>
<trkpt lat="-35.193262" lon="-72.220931"><ele>273.0</ele></trkpt>
<trkpt lat="-35.193911" lon="-72.222347"><ele>278.0</ele></trkpt>
<trkpt lat="-35.194021" lon="-72.224091"><ele>270.0</ele></trkpt>
<trkpt lat="-35.193966" lon="-72.226825"><ele>269.0</ele></trkpt>
<trkpt lat="-35.193868" lon="-72.227202"><ele>274.0</ele></trkpt>
<trkpt lat="-35.193964" lon="-72.228694"><ele>274.0</ele></trkpt>
<trkpt lat="-35.193899" lon="-72.229301"><ele>268.0</ele></trkpt>
<trkpt lat="-35.193616" lon="-72.230116"><ele>281.0</ele></trkpt>
<trkpt lat="-35.193557" lon="-72.230562"><ele>281.0</ele></trkpt>
<trkpt lat="-35.193804" lon="-72.231688"><ele>281.0</ele></trkpt>
<trkpt lat="-35.193718" lon="-72.232479"><ele>293.0</ele></trkpt>
<trkpt lat="-35.193767" lon="-72.232820"><ele>281.0</ele></trkpt>
<trkpt lat="-35.194053" lon="-72.233386"><ele>287.0</ele></trkpt>
<trkpt lat="-35.194501" lon="-72.234005"><ele>287.0</ele></trkpt>
<trkpt lat="-35.194905" lon="-72.234929"><ele>287.0</ele></trkpt>
<trkpt lat="-35.194831" lon="-72.235233"><ele>287.0</ele></trkpt>
<trkpt lat="-35.194025" lon="-72.236395"><ele>295.0</ele></trkpt>
<trkpt lat="-35.193997" lon="-72.236657"><ele>295.0</ele></trkpt>
<trkpt lat="-35.194110" lon="-72.236855"><ele>295.0</ele></trkpt>
<trkpt lat="-35.194523" lon="-72.237057"><ele>295.0</ele></trkpt>
<trkpt lat="-35.195107" lon="-72.237616"><ele>281.0</ele></trkpt>
<trkpt lat="-35.195769" lon="-72.237772"><ele>281.0</ele></trkpt>
<trkpt lat="-35.196640" lon="-72.238127"><ele>295.0</ele></trkpt>
<trkpt lat="-35.197199" lon="-72.238148"><ele>295.0</ele></trkpt>
<trkpt lat="-35.197369" lon="-72.238221"><ele>295.0</ele></trkpt>
<trkpt lat="-35.197779" lon="-72.238548"><ele>295.0</ele></trkpt>
<trkpt lat="-35.198045" lon="-72.238976"><ele>274.0</ele></trkpt>
<trkpt lat="-35.198199" lon="-72.239486"><ele>274.0</ele></trkpt>
<trkpt lat="-35.198214" lon="-72.240040"><ele>281.0</ele></trkpt>
<trkpt lat="-35.197449" lon="-72.241885"><ele>278.0</ele></trkpt>
<trkpt lat="-35.197381" lon="-72.242220"><ele>278.0</ele></trkpt>
<trkpt lat="-35.197562" lon="-72.242790"><ele>278.0</ele></trkpt>
<trkpt lat="-35.198186" lon="-72.243682"><ele>282.0</ele></trkpt>
<trkpt lat="-35.198339" lon="-72.244037"><ele>272.0</ele></trkpt>
<trkpt lat="-35.198564" lon="-72.245308"><ele>272.0</ele></trkpt>
<trkpt lat="-35.198680" lon="-72.246837"><ele>254.0</ele></trkpt>
<trkpt lat="-35.198565" lon="-72.247163"><ele>254.0</ele></trkpt>
<trkpt lat="-35.198248" lon="-72.247217"><ele>254.0</ele></trkpt>
<trkpt lat="-35.198185" lon="-72.247291"><ele>254.0</ele></trkpt>
<trkpt lat="-35.197986" lon="-72.248415"><ele>218.0</ele></trkpt>
<trkpt lat="-35.197894" lon="-72.249601"><ele>224.0</ele></trkpt>
<trkpt lat="-35.197387" lon="-72.250677"><ele>209.0</ele></trkpt>
<trkpt lat="-35.197100" lon="-72.252154"><ele>203.0</ele></trkpt>
<trkpt lat="-35.196627" lon="-72.253667"><ele>203.0</ele></trkpt>
<trkpt lat="-35.196634" lon="-72.255187"><ele>187.0</ele></trkpt>
<trkpt lat="-35.196365" lon="-72.256021"><ele>187.0</ele></trkpt>
<trkpt lat="-35.196300" lon="-72.256858"><ele>180.0</ele></trkpt>
<trkpt lat="-35.196042" lon="-72.257899"><ele>180.0</ele></trkpt>
<trkpt lat="-35.196006" lon="-72.258587"><ele>171.0</ele></trkpt>
<trkpt lat="-35.196050" lon="-72.258960"><ele>171.0</ele></trkpt>
<trkpt lat="-35.196464" lon="-72.259969"><ele>171.0</ele></trkpt>
<trkpt lat="-35.196323" lon="-72.260779"><ele>164.0</ele></trkpt>
<trkpt lat="-35.196359" lon="-72.261474"><ele>164.0</ele></trkpt>
<trkpt lat="-35.196250" lon="-72.262853"><ele>161.0</ele></trkpt>
<trkpt lat="-35.196139" lon="-72.263112"><ele>161.0</ele></trkpt>
<trkpt lat="-35.195690" lon="-72.263544"><ele>169.0</ele></trkpt>
<trkpt lat="-35.195315" lon="-72.264441"><ele>169.0</ele></trkpt>
<trkpt lat="-35.195071" lon="-72.264814"><ele>170.0</ele></trkpt>
<trkpt lat="-35.193880" lon="-72.265975"><ele>170.0</ele></trkpt>
<trkpt lat="-35.193746" lon="-72.266194"><ele>168.0</ele></trkpt>
<trkpt lat="-35.193601" lon="-72.266837"><ele>158.0</ele></trkpt>
<trkpt lat="-35.193988" lon="-72.268054"><ele>153.0</ele></trkpt>
<trkpt lat="-35.193963" lon="-72.268289"><ele>153.0</ele></trkpt>
<trkpt lat="-35.193820" lon="-72.268392"><ele>153.0</ele></trkpt>
<trkpt lat="-35.193568" lon="-72.268338"><ele>158.0</ele></trkpt>
<trkpt lat="-35.192596" lon="-72.267517"><ele>158.0</ele></trkpt>
<trkpt lat="-35.192357" lon="-72.267596"><ele>158.0</ele></trkpt>
<trkpt lat="-35.192002" lon="-72.268043"><ele>158.0</ele></trkpt>
<trkpt lat="-35.191668" lon="-72.268141"><ele>158.0</ele></trkpt>
<trkpt lat="-35.189774" lon="-72.267995"><ele>148.0</ele></trkpt>
<trkpt lat="-35.189299" lon="-72.267659"><ele>130.0</ele></trkpt>
<trkpt lat="-35.189040" lon="-72.267610"><ele>130.0</ele></trkpt>
<trkpt lat="-35.188806" lon="-72.267766"><ele>130.0</ele></trkpt>
<trkpt lat="-35.188408" lon="-72.268480"><ele>130.0</ele></trkpt>
<trkpt lat="-35.188292" lon="-72.268929"><ele>121.0</ele></trkpt>
<trkpt lat="-35.188293" lon="-72.269416"><ele>121.0</ele></trkpt>
<trkpt lat="-35.188462" lon="-72.270147"><ele>121.0</ele></trkpt>
<trkpt lat="-35.188904" lon="-72.270715"><ele>121.0</ele></trkpt>
<trkpt lat="-35.189552" lon="-72.271270"><ele>118.0</ele></trkpt>
<trkpt lat="-35.190000" lon="-72.272366"><ele>103.0</ele></trkpt>
<trkpt lat="-35.190450" lon="-72.273140"><ele>107.0</ele></trkpt>
<trkpt lat="-35.191436" lon="-72.274091"><ele>107.0</ele></trkpt>
<trkpt lat="-35.192151" lon="-72.275239"><ele>91.0</ele></trkpt>
<trkpt lat="-35.192794" lon="-72.275595"><ele>91.0</ele></trkpt>
<trkpt lat="-35.193611" lon="-72.276356"><ele>91.0</ele></trkpt>
<trkpt lat="-35.194173" lon="-72.277406"><ele>57.0</ele></trkpt>
<trkpt lat="-35.195170" lon="-72.277942"><ele>57.0</ele></trkpt>
<trkpt lat="-35.195831" lon="-72.278588"><ele>57.0</ele></trkpt>
<trkpt lat="-35.196063" lon="-72.278538"><ele>39.0</ele></trkpt>
<trkpt lat="-35.196103" lon="-72.278341"><ele>39.0</ele></trkpt>
<trkpt lat="-35.195983" lon="-72.278057"><ele>39.0</ele></trkpt>
<trkpt lat="-35.195655" lon="-72.277650"><ele>57.0</ele></trkpt>
<trkpt lat="-35.195587" lon="-72.277252"><ele>57.0</ele></trkpt>
<trkpt lat="-35.195697" lon="-72.277073"><ele>60.0</ele></trkpt>
<trkpt lat="-35.196905" lon="-72.278272"><ele>39.0</ele></trkpt>
<trkpt lat="-35.197161" lon="-72.278306"><ele>39.0</ele></trkpt>
<trkpt lat="-35.197760" lon="-72.278206"><ele>39.0</ele></trkpt>
<trkpt lat="-35.198001" lon="-72.278257"><ele>48.0</ele></trkpt>
</trkseg></trk>
<trk><name>Putú Pedalea</name><trkseg>
<trkpt lat="-35.182509" lon="-72.186061"><ele>251.0</ele></trkpt>
<trkpt lat="-35.183371" lon="-72.185294"><ele>263.0</ele></trkpt>
<trkpt lat="-35.183960" lon="-72.183753"><ele>263.0</ele></trkpt>
<trkpt lat="-35.184855" lon="-72.182929"><ele>251.0</ele></trkpt>
<trkpt lat="-35.185739" lon="-72.180774"><ele>265.0</ele></trkpt>
<trkpt lat="-35.185964" lon="-72.180567"><ele>265.0</ele></trkpt>
<trkpt lat="-35.186643" lon="-72.180329"><ele>265.0</ele></trkpt>
<trkpt lat="-35.187853" lon="-72.179452"><ele>260.0</ele></trkpt>
<trkpt lat="-35.188273" lon="-72.178766"><ele>292.0</ele></trkpt>
<trkpt lat="-35.188765" lon="-72.178353"><ele>292.0</ele></trkpt>
<trkpt lat="-35.189044" lon="-72.178002"><ele>292.0</ele></trkpt>
<trkpt lat="-35.189570" lon="-72.176937"><ele>294.0</ele></trkpt>
<trkpt lat="-35.190520" lon="-72.175531"><ele>322.0</ele></trkpt>
<trkpt lat="-35.191343" lon="-72.173908"><ele>341.0</ele></trkpt>
<trkpt lat="-35.191653" lon="-72.172626"><ele>350.0</ele></trkpt>
<trkpt lat="-35.191673" lon="-72.171776"><ele>336.0</ele></trkpt>
<trkpt lat="-35.191759" lon="-72.171620"><ele>336.0</ele></trkpt>
<trkpt lat="-35.191917" lon="-72.171620"><ele>336.0</ele></trkpt>
<trkpt lat="-35.192162" lon="-72.171816"><ele>336.0</ele></trkpt>
<trkpt lat="-35.192507" lon="-72.172523"><ele>336.0</ele></trkpt>
<trkpt lat="-35.193001" lon="-72.173018"><ele>328.0</ele></trkpt>
<trkpt lat="-35.193566" lon="-72.173780"><ele>328.0</ele></trkpt>
<trkpt lat="-35.194836" lon="-72.175054"><ele>300.0</ele></trkpt>
<trkpt lat="-35.195161" lon="-72.175257"><ele>300.0</ele></trkpt>
<trkpt lat="-35.195508" lon="-72.175279"><ele>300.0</ele></trkpt>
<trkpt lat="-35.196052" lon="-72.175142"><ele>291.0</ele></trkpt>
<trkpt lat="-35.196610" lon="-72.175200"><ele>291.0</ele></trkpt>
<trkpt lat="-35.198251" lon="-72.175164"><ele>293.0</ele></trkpt>
<trkpt lat="-35.200475" lon="-72.174335"><ele>302.0</ele></trkpt>
<trkpt lat="-35.201187" lon="-72.174203"><ele>302.0</ele></trkpt>
<trkpt lat="-35.202575" lon="-72.174149"><ele>308.0</ele></trkpt>
<trkpt lat="-35.203193" lon="-72.174247"><ele>308.0</ele></trkpt>
<trkpt lat="-35.203344" lon="-72.174336"><ele>308.0</ele></trkpt>
<trkpt lat="-35.204211" lon="-72.175296"><ele>339.0</ele></trkpt>
<trkpt lat="-35.204440" lon="-72.176081"><ele>339.0</ele></trkpt>
<trkpt lat="-35.204480" lon="-72.176576"><ele>339.0</ele></trkpt>
<trkpt lat="-35.204127" lon="-72.176824"><ele>311.0</ele></trkpt>
<trkpt lat="-35.203835" lon="-72.176819"><ele>311.0</ele></trkpt>
<trkpt lat="-35.203673" lon="-72.176928"><ele>311.0</ele></trkpt>
<trkpt lat="-35.203709" lon="-72.177111"><ele>300.0</ele></trkpt>
<trkpt lat="-35.204026" lon="-72.177505"><ele>300.0</ele></trkpt>
<trkpt lat="-35.203937" lon="-72.177795"><ele>300.0</ele></trkpt>
<trkpt lat="-35.203661" lon="-72.178221"><ele>300.0</ele></trkpt>
<trkpt lat="-35.203680" lon="-72.178352"><ele>300.0</ele></trkpt>
<trkpt lat="-35.203897" lon="-72.178498"><ele>300.0</ele></trkpt>
<trkpt lat="-35.203906" lon="-72.178604"><ele>300.0</ele></trkpt>
<trkpt lat="-35.203631" lon="-72.179526"><ele>285.0</ele></trkpt>
<trkpt lat="-35.203419" lon="-72.179877"><ele>285.0</ele></trkpt>
<trkpt lat="-35.203157" lon="-72.180642"><ele>285.0</ele></trkpt>
<trkpt lat="-35.202426" lon="-72.181985"><ele>267.0</ele></trkpt>
<trkpt lat="-35.201956" lon="-72.183204"><ele>251.0</ele></trkpt>
<trkpt lat="-35.201826" lon="-72.183811"><ele>251.0</ele></trkpt>
<trkpt lat="-35.201804" lon="-72.184584"><ele>251.0</ele></trkpt>
<trkpt lat="-35.201701" lon="-72.184840"><ele>251.0</ele></trkpt>
<trkpt lat="-35.201420" lon="-72.185161"><ele>251.0</ele></trkpt>
<trkpt lat="-35.201174" lon="-72.185270"><ele>251.0</ele></trkpt>
<trkpt lat="-35.200729" lon="-72.185267"><ele>251.0</ele></trkpt>
<trkpt lat="-35.200340" lon="-72.185021"><ele>251.0</ele></trkpt>
<trkpt lat="-35.200075" lon="-72.183257"><ele>251.0</ele></trkpt>
<trkpt lat="-35.200228" lon="-72.182750"><ele>251.0</ele></trkpt>
<trkpt lat="-35.200150" lon="-72.182355"><ele>251.0</ele></trkpt>
<trkpt lat="-35.200242" lon="-72.182137"><ele>251.0</ele></trkpt>
<trkpt lat="-35.200769" lon="-72.181544"><ele>251.0</ele></trkpt>
<trkpt lat="-35.200813" lon="-72.181379"><ele>251.0</ele></trkpt>
<trkpt lat="-35.200739" lon="-72.181226"><ele>252.0</ele></trkpt>
<trkpt lat="-35.200279" lon="-72.181021"><ele>252.0</ele></trkpt>
<trkpt lat="-35.200225" lon="-72.180581"><ele>252.0</ele></trkpt>
<trkpt lat="-35.200318" lon="-72.180044"><ele>252.0</ele></trkpt>
<trkpt lat="-35.200242" lon="-72.179912"><ele>252.0</ele></trkpt>
<trkpt lat="-35.200064" lon="-72.179892"><ele>252.0</ele></trkpt>
<trkpt lat="-35.199564" lon="-72.180511"><ele>210.0</ele></trkpt>
<trkpt lat="-35.199275" lon="-72.181221"><ele>210.0</ele></trkpt>
<trkpt lat="-35.198952" lon="-72.181314"><ele>188.0</ele></trkpt>
<trkpt lat="-35.198222" lon="-72.182078"><ele>188.0</ele></trkpt>
<trkpt lat="-35.197689" lon="-72.182934"><ele>199.0</ele></trkpt>
<trkpt lat="-35.197612" lon="-72.183335"><ele>151.0</ele></trkpt>
<trkpt lat="-35.197462" lon="-72.183602"><ele>151.0</ele></trkpt>
<trkpt lat="-35.197298" lon="-72.183737"><ele>151.0</ele></trkpt>
<trkpt lat="-35.197066" lon="-72.183641"><ele>151.0</ele></trkpt>
<trkpt lat="-35.196962" lon="-72.183687"><ele>151.0</ele></trkpt>
<trkpt lat="-35.196755" lon="-72.184280"><ele>151.0</ele></trkpt>
<trkpt lat="-35.196173" lon="-72.184730"><ele>151.0</ele></trkpt>
<trkpt lat="-35.196234" lon="-72.185424"><ele>152.0</ele></trkpt>
<trkpt lat="-35.196672" lon="-72.186389"><ele>152.0</ele></trkpt>
<trkpt lat="-35.196701" lon="-72.186740"><ele>152.0</ele></trkpt>
<trkpt lat="-35.196617" lon="-72.186878"><ele>152.0</ele></trkpt>
<trkpt lat="-35.196375" lon="-72.187040"><ele>152.0</ele></trkpt>
<trkpt lat="-35.196228" lon="-72.187050"><ele>152.0</ele></trkpt>
<trkpt lat="-35.195631" lon="-72.186945"><ele>137.0</ele></trkpt>
<trkpt lat="-35.195081" lon="-72.186628"><ele>137.0</ele></trkpt>
<trkpt lat="-35.194874" lon="-72.186627"><ele>137.0</ele></trkpt>
<trkpt lat="-35.194603" lon="-72.186752"><ele>137.0</ele></trkpt>
<trkpt lat="-35.193994" lon="-72.187295"><ele>137.0</ele></trkpt>
<trkpt lat="-35.193780" lon="-72.187339"><ele>137.0</ele></trkpt>
<trkpt lat="-35.193381" lon="-72.187212"><ele>148.0</ele></trkpt>
<trkpt lat="-35.193000" lon="-72.186924"><ele>148.0</ele></trkpt>
<trkpt lat="-35.192815" lon="-72.186982"><ele>148.0</ele></trkpt>
<trkpt lat="-35.192785" lon="-72.187264"><ele>148.0</ele></trkpt>
<trkpt lat="-35.193067" lon="-72.187680"><ele>126.0</ele></trkpt>
<trkpt lat="-35.193289" lon="-72.188211"><ele>126.0</ele></trkpt>
<trkpt lat="-35.193001" lon="-72.189591"><ele>137.0</ele></trkpt>
<trkpt lat="-35.193323" lon="-72.190546"><ele>137.0</ele></trkpt>
<trkpt lat="-35.193290" lon="-72.190865"><ele>137.0</ele></trkpt>
<trkpt lat="-35.193166" lon="-72.191027"><ele>137.0</ele></trkpt>
<trkpt lat="-35.193033" lon="-72.191063"><ele>137.0</ele></trkpt>
<trkpt lat="-35.192687" lon="-72.190706"><ele>137.0</ele></trkpt>
<trkpt lat="-35.192473" lon="-72.190629"><ele>137.0</ele></trkpt>
<trkpt lat="-35.192236" lon="-72.190679"><ele>137.0</ele></trkpt>
<trkpt lat="-35.191800" lon="-72.191511"><ele>137.0</ele></trkpt>
<trkpt lat="-35.191753" lon="-72.192555"><ele>156.0</ele></trkpt>
<trkpt lat="-35.191645" lon="-72.192860"><ele>146.0</ele></trkpt>
<trkpt lat="-35.190784" lon="-72.193600"><ele>146.0</ele></trkpt>
<trkpt lat="-35.190146" lon="-72.193905"><ele>140.0</ele></trkpt>
<trkpt lat="-35.189181" lon="-72.194668"><ele>128.0</ele></trkpt>
<trkpt lat="-35.188219" lon="-72.195071"><ele>128.0</ele></trkpt>
<trkpt lat="-35.188150" lon="-72.195349"><ele>128.0</ele></trkpt>
<trkpt lat="-35.188612" lon="-72.195830"><ele>128.0</ele></trkpt>
<trkpt lat="-35.188635" lon="-72.196096"><ele>124.0</ele></trkpt>
<trkpt lat="-35.188496" lon="-72.196256"><ele>124.0</ele></trkpt>
<trkpt lat="-35.187983" lon="-72.196395"><ele>124.0</ele></trkpt>
<trkpt lat="-35.187736" lon="-72.196546"><ele>124.0</ele></trkpt>
</trkseg></trk>
<trk><name>Putú Pedalea</name><trkseg>
<trkpt lat="-35.196098" lon="-72.257004"><ele>180.0</ele></trkpt>
<trkpt lat="-35.195556" lon="-72.256383"><ele>165.0</ele></trkpt>
<trkpt lat="-35.194698" lon="-72.254486"><ele>166.0</ele></trkpt>
<trkpt lat="-35.194583" lon="-72.254425"><ele>166.0</ele></trkpt>
<trkpt lat="-35.194306" lon="-72.254842"><ele>166.0</ele></trkpt>
<trkpt lat="-35.194191" lon="-72.254852"><ele>166.0</ele></trkpt>
<trkpt lat="-35.194051" lon="-72.254717"><ele>166.0</ele></trkpt>
<trkpt lat="-35.193990" lon="-72.253301"><ele>179.0</ele></trkpt>
<trkpt lat="-35.193678" lon="-72.252536"><ele>183.0</ele></trkpt>
<trkpt lat="-35.193564" lon="-72.252493"><ele>183.0</ele></trkpt>
<trkpt lat="-35.193133" lon="-72.253125"><ele>183.0</ele></trkpt>
<trkpt lat="-35.192841" lon="-72.253317"><ele>183.0</ele></trkpt>
<trkpt lat="-35.192580" lon="-72.253198"><ele>183.0</ele></trkpt>
<trkpt lat="-35.192237" lon="-72.252743"><ele>183.0</ele></trkpt>
<trkpt lat="-35.191964" lon="-72.252018"><ele>202.0</ele></trkpt>
<trkpt lat="-35.191816" lon="-72.251177"><ele>202.0</ele></trkpt>
<trkpt lat="-35.191808" lon="-72.250607"><ele>202.0</ele></trkpt>
<trkpt lat="-35.191596" lon="-72.249814"><ele>189.0</ele></trkpt>
<trkpt lat="-35.191583" lon="-72.248988"><ele>189.0</ele></trkpt>
<trkpt lat="-35.191492" lon="-72.248672"><ele>189.0</ele></trkpt>
<trkpt lat="-35.190967" lon="-72.248809"><ele>189.0</ele></trkpt>
<trkpt lat="-35.190405" lon="-72.249167"><ele>189.0</ele></trkpt>
<trkpt lat="-35.189867" lon="-72.249913"><ele>189.0</ele></trkpt>
<trkpt lat="-35.189410" lon="-72.250363"><ele>196.0</ele></trkpt>
<trkpt lat="-35.189184" lon="-72.250509"><ele>196.0</ele></trkpt>
<trkpt lat="-35.188888" lon="-72.250565"><ele>196.0</ele></trkpt>
<trkpt lat="-35.188744" lon="-72.250456"><ele>196.0</ele></trkpt>
<trkpt lat="-35.188741" lon="-72.250307"><ele>196.0</ele></trkpt>
<trkpt lat="-35.189207" lon="-72.249819"><ele>181.0</ele></trkpt>
<trkpt lat="-35.189522" lon="-72.248384"><ele>181.0</ele></trkpt>
<trkpt lat="-35.189257" lon="-72.248588"><ele>181.0</ele></trkpt>
<trkpt lat="-35.188562" lon="-72.248268"><ele>181.0</ele></trkpt>
<trkpt lat="-35.188293" lon="-72.247889"><ele>188.0</ele></trkpt>
<trkpt lat="-35.188342" lon="-72.247454"><ele>188.0</ele></trkpt>
<trkpt lat="-35.188244" lon="-72.247241"><ele>188.0</ele></trkpt>
<trkpt lat="-35.187870" lon="-72.247169"><ele>188.0</ele></trkpt>
<trkpt lat="-35.187599" lon="-72.247268"><ele>188.0</ele></trkpt>
<trkpt lat="-35.187306" lon="-72.247548"><ele>186.0</ele></trkpt>
<trkpt lat="-35.187150" lon="-72.247523"><ele>186.0</ele></trkpt>
<trkpt lat="-35.187046" lon="-72.246761"><ele>186.0</ele></trkpt>
<trkpt lat="-35.187353" lon="-72.246235"><ele>186.0</ele></trkpt>
<trkpt lat="-35.187526" lon="-72.245685"><ele>219.0</ele></trkpt>
<trkpt lat="-35.187546" lon="-72.244449"><ele>219.0</ele></trkpt>
<trkpt lat="-35.187406" lon="-72.243778"><ele>194.0</ele></trkpt>
<trkpt lat="-35.187041" lon="-72.243684"><ele>210.0</ele></trkpt>
<trkpt lat="-35.186817" lon="-72.243496"><ele>210.0</ele></trkpt>
<trkpt lat="-35.186655" lon="-72.243072"><ele>210.0</ele></trkpt>
<trkpt lat="-35.186996" lon="-72.241671"><ele>210.0</ele></trkpt>
<trkpt lat="-35.186951" lon="-72.240291"><ele>223.0</ele></trkpt>
<trkpt lat="-35.187004" lon="-72.239810"><ele>223.0</ele></trkpt>
<trkpt lat="-35.186880" lon="-72.239512"><ele>243.0</ele></trkpt>
<trkpt lat="-35.186613" lon="-72.239245"><ele>243.0</ele></trkpt>
<trkpt lat="-35.186531" lon="-72.238965"><ele>243.0</ele></trkpt>
<trkpt lat="-35.186889" lon="-72.237871"><ele>243.0</ele></trkpt>
<trkpt lat="-35.187463" lon="-72.237292"><ele>252.0</ele></trkpt>
<trkpt lat="-35.187512" lon="-72.237073"><ele>251.0</ele></trkpt>
<trkpt lat="-35.187408" lon="-72.236896"><ele>252.0</ele></trkpt>
<trkpt lat="-35.187041" lon="-72.236612"><ele>252.0</ele></trkpt>
<trkpt lat="-35.186743" lon="-72.235920"><ele>252.0</ele></trkpt>
<trkpt lat="-35.186623" lon="-72.235811"><ele>252.0</ele></trkpt>
<trkpt lat="-35.186279" lon="-72.235838"><ele>252.0</ele></trkpt>
<trkpt lat="-35.185943" lon="-72.236236"><ele>252.0</ele></trkpt>
<trkpt lat="-35.185126" lon="-72.236017"><ele>275.0</ele></trkpt>
<trkpt lat="-35.184699" lon="-72.234433"><ele>272.0</ele></trkpt>
</trkseg></trk>
<trk><name>Putú Pedalea</name><trkseg>
<trkpt lat="-35.190507" lon="-72.210311"><ele>293.0</ele></trkpt>
<trkpt lat="-35.190186" lon="-72.209658"><ele>293.0</ele></trkpt>
<trkpt lat="-35.190127" lon="-72.209063"><ele>293.0</ele></trkpt>
<trkpt lat="-35.189845" lon="-72.208682"><ele>293.0</ele></trkpt>
<trkpt lat="-35.189717" lon="-72.208089"><ele>297.0</ele></trkpt>
<trkpt lat="-35.189504" lon="-72.208081"><ele>278.0</ele></trkpt>
<trkpt lat="-35.188938" lon="-72.208416"><ele>248.0</ele></trkpt>
<trkpt lat="-35.188386" lon="-72.208496"><ele>248.0</ele></trkpt>
<trkpt lat="-35.188060" lon="-72.208373"><ele>248.0</ele></trkpt>
<trkpt lat="-35.187662" lon="-72.207941"><ele>278.0</ele></trkpt>
<trkpt lat="-35.187264" lon="-72.207743"><ele>250.0</ele></trkpt>
<trkpt lat="-35.186281" lon="-72.207928"><ele>250.0</ele></trkpt>
<trkpt lat="-35.185488" lon="-72.208219"><ele>250.0</ele></trkpt>
<trkpt lat="-35.184736" lon="-72.208094"><ele>222.0</ele></trkpt>
<trkpt lat="-35.183310" lon="-72.207237"><ele>178.0</ele></trkpt>
<trkpt lat="-35.182705" lon="-72.206681"><ele>178.0</ele></trkpt>
<trkpt lat="-35.182617" lon="-72.206486"><ele>178.0</ele></trkpt>
<trkpt lat="-35.182637" lon="-72.206137"><ele>175.0</ele></trkpt>
<trkpt lat="-35.182788" lon="-72.205852"><ele>175.0</ele></trkpt>
<trkpt lat="-35.182933" lon="-72.205746"><ele>175.0</ele></trkpt>
<trkpt lat="-35.183345" lon="-72.205663"><ele>190.0</ele></trkpt>
<trkpt lat="-35.183705" lon="-72.205236"><ele>190.0</ele></trkpt>
<trkpt lat="-35.184170" lon="-72.205176"><ele>190.0</ele></trkpt>
<trkpt lat="-35.185256" lon="-72.205420"><ele>190.0</ele></trkpt>
<trkpt lat="-35.185613" lon="-72.205264"><ele>220.0</ele></trkpt>
<trkpt lat="-35.186004" lon="-72.204646"><ele>220.0</ele></trkpt>
<trkpt lat="-35.186626" lon="-72.202777"><ele>172.0</ele></trkpt>
<trkpt lat="-35.187397" lon="-72.201887"><ele>122.0</ele></trkpt>
<trkpt lat="-35.187560" lon="-72.201851"><ele>162.0</ele></trkpt>
<trkpt lat="-35.187837" lon="-72.201960"><ele>162.0</ele></trkpt>
<trkpt lat="-35.188172" lon="-72.202356"><ele>179.0</ele></trkpt>
<trkpt lat="-35.188309" lon="-72.202343"><ele>179.0</ele></trkpt>
<trkpt lat="-35.188492" lon="-72.202124"><ele>179.0</ele></trkpt>
<trkpt lat="-35.188585" lon="-72.201706"><ele>162.0</ele></trkpt>
<trkpt lat="-35.188213" lon="-72.200559"><ele>162.0</ele></trkpt>
<trkpt lat="-35.188102" lon="-72.199081"><ele>148.0</ele></trkpt>
<trkpt lat="-35.187645" lon="-72.197377"><ele>124.0</ele></trkpt>
</trkseg></trk>
<trk><name>Putú Pedalea</name><trkseg>
<trkpt lat="-35.176614" lon="-72.212256"><ele>210.0</ele></trkpt>
<trkpt lat="-35.177263" lon="-72.212479"><ele>209.0</ele></trkpt>
<trkpt lat="-35.178311" lon="-72.213033"><ele>216.0</ele></trkpt>
<trkpt lat="-35.178791" lon="-72.213439"><ele>216.0</ele></trkpt>
<trkpt lat="-35.179467" lon="-72.214276"><ele>212.0</ele></trkpt>
<trkpt lat="-35.180332" lon="-72.214789"><ele>210.0</ele></trkpt>
<trkpt lat="-35.182751" lon="-72.215415"><ele>235.0</ele></trkpt>
<trkpt lat="-35.182992" lon="-72.215395"><ele>235.0</ele></trkpt>
<trkpt lat="-35.184189" lon="-72.214945"><ele>230.0</ele></trkpt>
<trkpt lat="-35.184691" lon="-72.214860"><ele>230.0</ele></trkpt>
<trkpt lat="-35.185088" lon="-72.214889"><ele>230.0</ele></trkpt>
<trkpt lat="-35.186227" lon="-72.215209"><ele>239.0</ele></trkpt>
<trkpt lat="-35.186797" lon="-72.215574"><ele>239.0</ele></trkpt>
<trkpt lat="-35.186916" lon="-72.215581"><ele>239.0</ele></trkpt>
<trkpt lat="-35.187629" lon="-72.216175"><ele>264.0</ele></trkpt>
<trkpt lat="-35.188093" lon="-72.216802"><ele>263.0</ele></trkpt>
<trkpt lat="-35.188923" lon="-72.217366"><ele>263.0</ele></trkpt>
<trkpt lat="-35.190032" lon="-72.217643"><ele>271.0</ele></trkpt>
<trkpt lat="-35.190534" lon="-72.217851"><ele>271.0</ele></trkpt>
<trkpt lat="-35.190556" lon="-72.217700"><ele>271.0</ele></trkpt>
<trkpt lat="-35.190301" lon="-72.217031"><ele>271.0</ele></trkpt>
<trkpt lat="-35.190209" lon="-72.216450"><ele>280.0</ele></trkpt>
</trkseg></trk>
<trk><name>Putú Pedalea</name><trkseg>
<trkpt lat="-35.194039" lon="-72.268326"><ele>153.0</ele></trkpt>
<trkpt lat="-35.194840" lon="-72.268833"><ele>151.0</ele></trkpt>
<trkpt lat="-35.194980" lon="-72.269075"><ele>151.0</ele></trkpt>
<trkpt lat="-35.195013" lon="-72.269650"><ele>151.0</ele></trkpt>
<trkpt lat="-35.194661" lon="-72.270519"><ele>151.0</ele></trkpt>
<trkpt lat="-35.194853" lon="-72.272201"><ele>133.0</ele></trkpt>
<trkpt lat="-35.195013" lon="-72.272335"><ele>133.0</ele></trkpt>
<trkpt lat="-35.195642" lon="-72.272001"><ele>133.0</ele></trkpt>
<trkpt lat="-35.195921" lon="-72.272063"><ele>132.0</ele></trkpt>
<trkpt lat="-35.196014" lon="-72.272268"><ele>132.0</ele></trkpt>
<trkpt lat="-35.196080" lon="-72.272615"><ele>132.0</ele></trkpt>
<trkpt lat="-35.195897" lon="-72.272961"><ele>120.0</ele></trkpt>
<trkpt lat="-35.195897" lon="-72.273402"><ele>120.0</ele></trkpt>
<trkpt lat="-35.196079" lon="-72.274174"><ele>120.0</ele></trkpt>
<trkpt lat="-35.196431" lon="-72.274642"><ele>120.0</ele></trkpt>
<trkpt lat="-35.196494" lon="-72.274893"><ele>120.0</ele></trkpt>
<trkpt lat="-35.196291" lon="-72.275842"><ele>96.0</ele></trkpt>
<trkpt lat="-35.196961" lon="-72.276731"><ele>96.0</ele></trkpt>
<trkpt lat="-35.197664" lon="-72.277131"><ele>39.0</ele></trkpt>
<trkpt lat="-35.198188" lon="-72.277046"><ele>90.0</ele></trkpt>
<trkpt lat="-35.198765" lon="-72.277564"><ele>48.0</ele></trkpt>
<trkpt lat="-35.198673" lon="-72.277778"><ele>48.0</ele></trkpt>
<trkpt lat="-35.198223" lon="-72.277524"><ele>48.0</ele></trkpt>
<trkpt lat="-35.197358" lon="-72.277794"><ele>39.0</ele></trkpt>
<trkpt lat="-35.197216" lon="-72.277940"><ele>39.0</ele></trkpt>
<trkpt lat="-35.197005" lon="-72.277999"><ele>39.0</ele></trkpt>
<trkpt lat="-35.196297" lon="-72.277584"><ele>39.0</ele></trkpt>
</trkseg></trk>
<trk><name>Putú Pedalea</name><trkseg>
<trkpt lat="-35.195134" lon="-72.269802"><ele>151.0</ele></trkpt>
<trkpt lat="-35.195428" lon="-72.269963"><ele>151.0</ele></trkpt>
<trkpt lat="-35.195641" lon="-72.270207"><ele>151.0</ele></trkpt>
<trkpt lat="-35.196237" lon="-72.271114"><ele>132.0</ele></trkpt>
<trkpt lat="-35.196373" lon="-72.271927"><ele>132.0</ele></trkpt>
<trkpt lat="-35.196255" lon="-72.272270"><ele>132.0</ele></trkpt>
<trkpt lat="-35.196098" lon="-72.272402"><ele>132.0</ele></trkpt>
</trkseg></trk>
<trk><name>Putú Pedalea</name><trkseg>
<trkpt lat="-35.195981" lon="-72.272758"><ele>132.0</ele></trkpt>
<trkpt lat="-35.196136" lon="-72.273870"><ele>120.0</ele></trkpt>
<trkpt lat="-35.196753" lon="-72.274798"><ele>120.0</ele></trkpt>
<trkpt lat="-35.197090" lon="-72.275055"><ele>96.0</ele></trkpt>
<trkpt lat="-35.197576" lon="-72.275078"><ele>96.0</ele></trkpt>
<trkpt lat="-35.197732" lon="-72.275201"><ele>96.0</ele></trkpt>
<trkpt lat="-35.197790" lon="-72.275502"><ele>96.0</ele></trkpt>
<trkpt lat="-35.197972" lon="-72.275679"><ele>90.0</ele></trkpt>
<trkpt lat="-35.198331" lon="-72.275593"><ele>90.0</ele></trkpt>
<trkpt lat="-35.198617" lon="-72.275687"><ele>90.0</ele></trkpt>
<trkpt lat="-35.198811" lon="-72.275885"><ele>90.0</ele></trkpt>
<trkpt lat="-35.198946" lon="-72.276195"><ele>90.0</ele></trkpt>
<trkpt lat="-35.198937" lon="-72.276942"><ele>90.0</ele></trkpt>
<trkpt lat="-35.199056" lon="-72.277174"><ele>48.0</ele></trkpt>
<trkpt lat="-35.198840" lon="-72.277557"><ele>48.0</ele></trkpt>
<trkpt lat="-35.198869" lon="-72.277961"><ele>48.0</ele></trkpt>
<trkpt lat="-35.198682" lon="-72.278158"><ele>48.0</ele></trkpt>
<trkpt lat="-35.198494" lon="-72.278018"><ele>48.0</ele></trkpt>
<trkpt lat="-35.198472" lon="-72.278236"><ele>48.0</ele></trkpt>
<trkpt lat="-35.198135" lon="-72.278361"><ele>48.0</ele></trkpt>
</trkseg></trk>
<trk><name>Putú Pedalea</name><trkseg>
<trkpt lat="-35.173597" lon="-72.235214"><ele>190.0</ele></trkpt>
<trkpt lat="-35.172653" lon="-72.234987"><ele>172.0</ele></trkpt>
<trkpt lat="-35.171675" lon="-72.234950"><ele>172.0</ele></trkpt>
<trkpt lat="-35.171062" lon="-72.234638"><ele>172.0</ele></trkpt>
<trkpt lat="-35.170788" lon="-72.234661"><ele>159.0</ele></trkpt>
<trkpt lat="-35.170359" lon="-72.235558"><ele>148.0</ele></trkpt>
<trkpt lat="-35.170304" lon="-72.237599"><ele>141.0</ele></trkpt>
<trkpt lat="-35.170113" lon="-72.238331"><ele>141.0</ele></trkpt>
<trkpt lat="-35.169737" lon="-72.238879"><ele>141.0</ele></trkpt>
<trkpt lat="-35.169035" lon="-72.239171"><ele>141.0</ele></trkpt>
<trkpt lat="-35.168658" lon="-72.239241"><ele>130.0</ele></trkpt>
<trkpt lat="-35.168537" lon="-72.239380"><ele>130.0</ele></trkpt>
</trkseg></trk>
<trk><name>Putú Pedalea</name><trkseg>
<trkpt lat="-35.166800" lon="-72.244898"><ele>115.0</ele></trkpt>
<trkpt lat="-35.165991" lon="-72.244174"><ele>104.0</ele></trkpt>
<trkpt lat="-35.165946" lon="-72.243679"><ele>118.0</ele></trkpt>
<trkpt lat="-35.166192" lon="-72.243283"><ele>118.0</ele></trkpt>
<trkpt lat="-35.167122" lon="-72.242602"><ele>109.0</ele></trkpt>
<trkpt lat="-35.167710" lon="-72.241964"><ele>109.0</ele></trkpt>
<trkpt lat="-35.168025" lon="-72.241133"><ele>120.0</ele></trkpt>
<trkpt lat="-35.167903" lon="-72.240773"><ele>120.0</ele></trkpt>
</trkseg></trk>
</gpx>