<?xml version='1.0' encoding='UTF-8'?>
<gpx xmlns="http://www.topografix.com/GPX/1/1" version="1.1" creator="Bosque Abierto MTB">
  <trk>
    <name>Ruka Race</name>
    <trkseg>
      <trkpt lat="-36.46083669127087" lon="-72.71057831518291"><ele>0.0</ele></trkpt>
      <trkpt lat="-36.46074935284786" lon="-72.71011099270892"><ele>0.0</ele></trkpt>
      <trkpt lat="-36.46052067746533" lon="-72.70982346373388"><ele>0.0</ele></trkpt>
      <trkpt lat="-36.46054821587894" lon="-72.70954865056439"><ele>0.0</ele></trkpt>
      <trkpt lat="-36.46032608013117" lon="-72.70839733446066"><ele>0.0</ele></trkpt>
      <trkpt lat="-36.46045943349611" lon="-72.7078740394704"><ele>0.0</ele></trkpt>
      <trkpt lat="-36.45978898331779" lon="-72.70770319883326"><ele>0.0</ele></trkpt>
      <trkpt lat="-36.45961862442085" lon="-72.70742319265516"><ele>0.0</ele></trkpt>
      <trkpt lat="-36.45958897312903" lon="-72.7069122999931"><ele>0.0</ele></trkpt>
      <trkpt lat="-36.4592837105138" lon="-72.70692977758816"><ele>0.0</ele></trkpt>
      <trkpt lat="-36.458834614331" lon="-72.70653858962365"><ele>0.0</ele></trkpt>
      <trkpt lat="-36.45891871158464" lon="-72.70647390970379"><ele>0.0</ele></trkpt>
      <trkpt lat="-36.45885942710811" lon="-72.70624110592225"><ele>0.0</ele></trkpt>
      <trkpt lat="-36.45844842988223" lon="-72.70625606111827"><ele>0.0</ele></trkpt>
      <trkpt lat="-36.45834048462925" lon="-72.7058861338462"><ele>0.0</ele></trkpt>
      <trkpt lat="-36.45822266119901" lon="-72.70577672920604"><ele>0.0</ele></trkpt>
      <trkpt lat="-36.45809830088286" lon="-72.7057920866438"><ele>0.0</ele></trkpt>
      <trkpt lat="-36.45803571506746" lon="-72.70595385851935"><ele>0.0</ele></trkpt>
      <trkpt lat="-36.45781687660225" lon="-72.70593872399456"><ele>0.0</ele></trkpt>
      <trkpt lat="-36.45760855037673" lon="-72.70604677763717"><ele>0.0</ele></trkpt>
      <trkpt lat="-36.45742102008431" lon="-72.7063268082141"><ele>0.0</ele></trkpt>
      <trkpt lat="-36.45723616357308" lon="-72.70631356012021"><ele>0.0</ele></trkpt>
      <trkpt lat="-36.45715457567955" lon="-72.7068757532486"><ele>0.0</ele></trkpt>
      <trkpt lat="-36.45699138680199" lon="-72.70683714321379"><ele>0.0</ele></trkpt>
      <trkpt lat="-36.4568885986676" lon="-72.70743029054385"><ele>0.0</ele></trkpt>
      <trkpt lat="-36.45634436071053" lon="-72.70779868709448"><ele>0.0</ele></trkpt>
      <trkpt lat="-36.45623709031602" lon="-72.70779748019255"><ele>0.0</ele></trkpt>
      <trkpt lat="-36.4562916777988" lon="-72.70737107209715"><ele>0.0</ele></trkpt>
      <trkpt lat="-36.4559695225072" lon="-72.70724585989127"><ele>0.0</ele></trkpt>
      <trkpt lat="-36.45510216004269" lon="-72.70659170643124"><ele>0.0</ele></trkpt>
      <trkpt lat="-36.4549477431588" lon="-72.70754196418953"><ele>0.0</ele></trkpt>
      <trkpt lat="-36.45500918761709" lon="-72.70790792230447"><ele>0.0</ele></trkpt>
      <trkpt lat="-36.45528857017183" lon="-72.70812872968598"><ele>0.0</ele></trkpt>
      <trkpt lat="-36.45558146186436" lon="-72.70779432245675"><ele>0.0</ele></trkpt>
      <trkpt lat="-36.45584585030183" lon="-72.70776675025574"><ele>0.0</ele></trkpt>
      <trkpt lat="-36.45635419347773" lon="-72.70825144986213"><ele>0.0</ele></trkpt>
      <trkpt lat="-36.4564293742058" lon="-72.70823372061884"><ele>0.0</ele></trkpt>
      <trkpt lat="-36.45655275945565" lon="-72.70797403530938"><ele>0.0</ele></trkpt>
      <trkpt lat="-36.4562916777988" lon="-72.70737107209715"><ele>0.0</ele></trkpt>
      <trkpt lat="-36.4535356452573" lon="-72.70682125923132"><ele>0.0</ele></trkpt>
      <trkpt lat="-36.4534258100347" lon="-72.70658988309839"><ele>0.0</ele></trkpt>
      <trkpt lat="-36.45344260510073" lon="-72.70608077775532"><ele>0.0</ele></trkpt>
      <trkpt lat="-36.45349152040926" lon="-72.70584324019416"><ele>0.0</ele></trkpt>
      <trkpt lat="-36.45367324589729" lon="-72.70564254595605"><ele>0.0</ele></trkpt>
      <trkpt lat="-36.45377161257566" lon="-72.70514084865826"><ele>0.0</ele></trkpt>
      <trkpt lat="-36.4540623142238" lon="-72.70492491038928"><ele>0.0</ele></trkpt>
      <trkpt lat="-36.45498088805979" lon="-72.70498150890289"><ele>0.0</ele></trkpt>
      <trkpt lat="-36.45494075056938" lon="-72.70428926774441"><ele>0.0</ele></trkpt>
      <trkpt lat="-36.45533176900713" lon="-72.70410612891419"><ele>0.0</ele></trkpt>
      <trkpt lat="-36.45545707902159" lon="-72.70419428918993"><ele>0.0</ele></trkpt>
      <trkpt lat="-36.45549697458026" lon="-72.704749761769"><ele>0.0</ele></trkpt>
      <trkpt lat="-36.45529554454254" lon="-72.70541856267161"><ele>0.0</ele></trkpt>
      <trkpt lat="-36.4548013233121" lon="-72.70596908072858"><ele>0.0</ele></trkpt>
      <trkpt lat="-36.45430643098731" lon="-72.7060390194157"><ele>0.0</ele></trkpt>
      <trkpt lat="-36.45403228172356" lon="-72.70695642688506"><ele>0.0</ele></trkpt>
      <trkpt lat="-36.45648886775631" lon="-72.70357596298781"><ele>0.0</ele></trkpt>
      <trkpt lat="-36.45510037983339" lon="-72.70655685524017"><ele>0.0</ele></trkpt>
      <trkpt lat="-36.45507690379726" lon="-72.7060968343657"><ele>0.0</ele></trkpt>
      <trkpt lat="-36.4551756767536" lon="-72.70607357212886"><ele>0.0</ele></trkpt>
      <trkpt lat="-36.45563347946722" lon="-72.70534446598137"><ele>0.0</ele></trkpt>
      <trkpt lat="-36.45609486059514" lon="-72.70493282628408"><ele>0.0</ele></trkpt>
      <trkpt lat="-36.45635103215078" lon="-72.70490527882359"><ele>0.0</ele></trkpt>
      <trkpt lat="-36.45643806880492" lon="-72.70567690622471"><ele>0.0</ele></trkpt>
      <trkpt lat="-36.45665806741334" lon="-72.70594321169557"><ele>0.0</ele></trkpt>
      <trkpt lat="-36.45691598086319" lon="-72.706074525948"><ele>0.0</ele></trkpt>
      <trkpt lat="-36.4569764315864" lon="-72.70601070295349"><ele>0.0</ele></trkpt>
      <trkpt lat="-36.45696220991329" lon="-72.70542679806972"><ele>0.0</ele></trkpt>
      <trkpt lat="-36.45707879317963" lon="-72.70516675713954"><ele>0.0</ele></trkpt>
      <trkpt lat="-36.45725836190275" lon="-72.70508096021987"><ele>0.0</ele></trkpt>
      <trkpt lat="-36.45740413171578" lon="-72.7051054704751"><ele>0.0</ele></trkpt>
      <trkpt lat="-36.45746742278563" lon="-72.70521238031841"><ele>0.0</ele></trkpt>
      <trkpt lat="-36.45733981936386" lon="-72.70562401695375"><ele>0.0</ele></trkpt>
      <trkpt lat="-36.45756382331521" lon="-72.70615441952306"><ele>0.0</ele></trkpt>
      <trkpt lat="-36.45778457681956" lon="-72.70619689107667"><ele>0.0</ele></trkpt>
      <trkpt lat="-36.4579521327121" lon="-72.70607628106951"><ele>0.0</ele></trkpt>
      <trkpt lat="-36.4580500490596" lon="-72.706111785121"><ele>0.0</ele></trkpt>
      <trkpt lat="-36.45809826193302" lon="-72.70621729585598"><ele>0.0</ele></trkpt>
      <trkpt lat="-36.45847357484875" lon="-72.7064003744451"><ele>0.0</ele></trkpt>
      <trkpt lat="-36.45866302835908" lon="-72.70667070763685"><ele>0.0</ele></trkpt>
      <trkpt lat="-36.45910834314574" lon="-72.70686066822314"><ele>0.0</ele></trkpt>
      <trkpt lat="-36.45933140855148" lon="-72.70713442262365"><ele>0.0</ele></trkpt>
      <trkpt lat="-36.45978657806273" lon="-72.70822057537156"><ele>0.0</ele></trkpt>
      <trkpt lat="-36.46016158495139" lon="-72.70852895800205"><ele>0.0</ele></trkpt>
      <trkpt lat="-36.46033599478364" lon="-72.70894724589142"><ele>0.0</ele></trkpt>
      <trkpt lat="-36.46036858878158" lon="-72.70977255445356"><ele>0.0</ele></trkpt>
      <trkpt lat="-36.46060536639913" lon="-72.7105240746915"><ele>0.0</ele></trkpt>
    </trkseg>
  </trk>
</gpx>