<?xml version='1.0' encoding='UTF-8'?>
<gpx xmlns="http://www.topografix.com/GPX/1/1" xmlns:xsi="http://www.w3.org/2001/XMLSchema-instance" version="1.1" creator="Bosque Abierto MTB - Guardianes del Bosque" xsi:schemaLocation="http://www.topografix.com/GPX/1/1 http://www.topografix.com/GPX/1/1/gpx.xsd">
  <metadata>
    <name>Rukafest Coelemu Rukarace Negro</name>
    <desc>Ruta MTB Bosque Abierto - ARAUCO Renovables</desc>
    <author>
      <name>Guardianes del Bosque MTB</name>
    </author>
    <time>2024-01-01T10:00:00Z</time>
  </metadata>
  <trk>
    <name>Rukafest Coelemu Rukarace Negro</name>
    <type>cycling</type>
    <trkseg>
      <trkpt lat="-36.4551004" lon="-72.7065569">
        <ele>35.0</ele>
        <time>2024-01-01T10:00:00Z</time>
      </trkpt>
      <trkpt lat="-36.4550769" lon="-72.7060968">
        <ele>32.0</ele>
        <time>2024-01-01T10:00:09Z</time>
      </trkpt>
      <trkpt lat="-36.4551757" lon="-72.7060736">
        <ele>32.0</ele>
        <time>2024-01-01T10:00:12Z</time>
      </trkpt>
      <trkpt lat="-36.4556335" lon="-72.7053445">
        <ele>32.0</ele>
        <time>2024-01-01T10:00:21Z</time>
      </trkpt>
      <trkpt lat="-36.4560949" lon="-72.7049328">
        <ele>32.0</ele>
        <time>2024-01-01T10:00:30Z</time>
      </trkpt>
      <trkpt lat="-36.4563510" lon="-72.7049053">
        <ele>83.0</ele>
        <time>2024-01-01T10:00:33Z</time>
      </trkpt>
      <trkpt lat="-36.4564381" lon="-72.7056769">
        <ele>83.0</ele>
        <time>2024-01-01T10:00:51Z</time>
      </trkpt>
      <trkpt lat="-36.4566581" lon="-72.7059432">
        <ele>83.0</ele>
        <time>2024-01-01T10:01:00Z</time>
      </trkpt>
      <trkpt lat="-36.4569160" lon="-72.7060745">
        <ele>83.0</ele>
        <time>2024-01-01T10:01:09Z</time>
      </trkpt>
      <trkpt lat="-36.4569764" lon="-72.7060107">
        <ele>83.0</ele>
        <time>2024-01-01T10:01:12Z</time>
      </trkpt>
      <trkpt lat="-36.4569622" lon="-72.7054268">
        <ele>83.0</ele>
        <time>2024-01-01T10:01:18Z</time>
      </trkpt>
      <trkpt lat="-36.4570788" lon="-72.7051668">
        <ele>83.0</ele>
        <time>2024-01-01T10:01:21Z</time>
      </trkpt>
      <trkpt lat="-36.4572584" lon="-72.7050810">
        <ele>83.0</ele>
        <time>2024-01-01T10:01:24Z</time>
      </trkpt>
      <trkpt lat="-36.4574041" lon="-72.7051055">
        <ele>83.0</ele>
        <time>2024-01-01T10:01:27Z</time>
      </trkpt>
      <trkpt lat="-36.4574674" lon="-72.7052124">
        <ele>83.0</ele>
        <time>2024-01-01T10:01:30Z</time>
      </trkpt>
      <trkpt lat="-36.4573398" lon="-72.7056240">
        <ele>83.0</ele>
        <time>2024-01-01T10:01:39Z</time>
      </trkpt>
      <trkpt lat="-36.4575638" lon="-72.7061544">
        <ele>83.0</ele>
        <time>2024-01-01T10:01:48Z</time>
      </trkpt>
      <trkpt lat="-36.4577846" lon="-72.7061969">
        <ele>83.0</ele>
        <time>2024-01-01T10:01:54Z</time>
      </trkpt>
      <trkpt lat="-36.4579521" lon="-72.7060763">
        <ele>83.0</ele>
        <time>2024-01-01T10:02:00Z</time>
      </trkpt>
      <trkpt lat="-36.4580500" lon="-72.7061118">
        <ele>83.0</ele>
        <time>2024-01-01T10:02:03Z</time>
      </trkpt>
      <trkpt lat="-36.4580983" lon="-72.7062173">
        <ele>83.0</ele>
        <time>2024-01-01T10:02:06Z</time>
      </trkpt>
      <trkpt lat="-36.4584736" lon="-72.7064004">
        <ele>139.0</ele>
        <time>2024-01-01T10:02:15Z</time>
      </trkpt>
      <trkpt lat="-36.4586630" lon="-72.7066707">
        <ele>139.0</ele>
        <time>2024-01-01T10:02:21Z</time>
      </trkpt>
      <trkpt lat="-36.4591083" lon="-72.7068607">
        <ele>139.0</ele>
        <time>2024-01-01T10:02:27Z</time>
      </trkpt>
      <trkpt lat="-36.4593314" lon="-72.7071344">
        <ele>139.0</ele>
        <time>2024-01-01T10:02:33Z</time>
      </trkpt>
      <trkpt lat="-36.4597866" lon="-72.7082206">
        <ele>139.0</ele>
        <time>2024-01-01T10:02:45Z</time>
      </trkpt>
      <trkpt lat="-36.4601616" lon="-72.7085290">
        <ele>148.0</ele>
        <time>2024-01-01T10:02:54Z</time>
      </trkpt>
      <trkpt lat="-36.4603360" lon="-72.7089472">
        <ele>148.0</ele>
        <time>2024-01-01T10:02:57Z</time>
      </trkpt>
      <trkpt lat="-36.4603686" lon="-72.7097726">
        <ele>148.0</ele>
        <time>2024-01-01T10:03:09Z</time>
      </trkpt>
      <trkpt lat="-36.4606054" lon="-72.7105241">
        <ele>156.0</ele>
        <time>2024-01-01T10:03:18Z</time>
      </trkpt>
      <trkpt lat="-36.4562917" lon="-72.7073711">
        <ele>73.0</ele>
        <time>2024-01-01T10:03:21Z</time>
      </trkpt>
      <trkpt lat="-36.4559695" lon="-72.7072459">
        <ele>35.0</ele>
        <time>2024-01-01T10:03:24Z</time>
      </trkpt>
      <trkpt lat="-36.4551022" lon="-72.7065917">
        <ele>35.0</ele>
        <time>2024-01-01T10:03:30Z</time>
      </trkpt>
      <trkpt lat="-36.4549477" lon="-72.7075420">
        <ele>35.0</ele>
        <time>2024-01-01T10:03:33Z</time>
      </trkpt>
      <trkpt lat="-36.4550092" lon="-72.7079079">
        <ele>35.0</ele>
        <time>2024-01-01T10:03:36Z</time>
      </trkpt>
      <trkpt lat="-36.4552886" lon="-72.7081287">
        <ele>35.0</ele>
        <time>2024-01-01T10:03:39Z</time>
      </trkpt>
      <trkpt lat="-36.4555815" lon="-72.7077943">
        <ele>35.0</ele>
        <time>2024-01-01T10:03:45Z</time>
      </trkpt>
      <trkpt lat="-36.4558459" lon="-72.7077668">
        <ele>35.0</ele>
        <time>2024-01-01T10:03:48Z</time>
      </trkpt>
      <trkpt lat="-36.4563542" lon="-72.7082514">
        <ele>73.0</ele>
        <time>2024-01-01T10:04:00Z</time>
      </trkpt>
      <trkpt lat="-36.4564294" lon="-72.7082337">
        <ele>73.0</ele>
        <time>2024-01-01T10:04:03Z</time>
      </trkpt>
      <trkpt lat="-36.4565528" lon="-72.7079740">
        <ele>73.0</ele>
        <time>2024-01-01T10:04:09Z</time>
      </trkpt>
      <trkpt lat="-36.4562917" lon="-72.7073711">
        <ele>73.0</ele>
        <time>2024-01-01T10:04:12Z</time>
      </trkpt>
      <trkpt lat="-36.4564889" lon="-72.7035760">
        <ele>24.0</ele>
        <time>2024-01-01T10:04:15Z</time>
      </trkpt>
      <trkpt lat="-36.4540323" lon="-72.7069564">
        <ele>52.0</ele>
        <time>2024-01-01T10:04:18Z</time>
      </trkpt>
      <trkpt lat="-36.4535356" lon="-72.7068213">
        <ele>52.0</ele>
        <time>2024-01-01T10:04:21Z</time>
      </trkpt>
      <trkpt lat="-36.4534258" lon="-72.7065899">
        <ele>52.0</ele>
        <time>2024-01-01T10:04:24Z</time>
      </trkpt>
      <trkpt lat="-36.4534426" lon="-72.7060808">
        <ele>35.0</ele>
        <time>2024-01-01T10:04:30Z</time>
      </trkpt>
      <trkpt lat="-36.4534915" lon="-72.7058432">
        <ele>35.0</ele>
        <time>2024-01-01T10:04:33Z</time>
      </trkpt>
      <trkpt lat="-36.4536732" lon="-72.7056425">
        <ele>35.0</ele>
        <time>2024-01-01T10:04:36Z</time>
      </trkpt>
      <trkpt lat="-36.4537716" lon="-72.7051408">
        <ele>35.0</ele>
        <time>2024-01-01T10:04:39Z</time>
      </trkpt>
      <trkpt lat="-36.4540623" lon="-72.7049249">
        <ele>35.0</ele>
        <time>2024-01-01T10:04:42Z</time>
      </trkpt>
      <trkpt lat="-36.4549809" lon="-72.7049815">
        <ele>32.0</ele>
        <time>2024-01-01T10:04:48Z</time>
      </trkpt>
      <trkpt lat="-36.4549408" lon="-72.7042893">
        <ele>32.0</ele>
        <time>2024-01-01T10:04:57Z</time>
      </trkpt>
      <trkpt lat="-36.4553318" lon="-72.7041061">
        <ele>18.0</ele>
        <time>2024-01-01T10:05:09Z</time>
      </trkpt>
      <trkpt lat="-36.4554571" lon="-72.7041943">
        <ele>32.0</ele>
        <time>2024-01-01T10:05:12Z</time>
      </trkpt>
      <trkpt lat="-36.4554970" lon="-72.7047498">
        <ele>32.0</ele>
        <time>2024-01-01T10:05:18Z</time>
      </trkpt>
      <trkpt lat="-36.4552955" lon="-72.7054186">
        <ele>32.0</ele>
        <time>2024-01-01T10:05:24Z</time>
      </trkpt>
      <trkpt lat="-36.4548013" lon="-72.7059691">
        <ele>32.0</ele>
        <time>2024-01-01T10:05:30Z</time>
      </trkpt>
      <trkpt lat="-36.4543064" lon="-72.7060390">
        <ele>32.0</ele>
        <time>2024-01-01T10:05:33Z</time>
      </trkpt>
      <trkpt lat="-36.4540323" lon="-72.7069564">
        <ele>52.0</ele>
        <time>2024-01-01T10:05:36Z</time>
      </trkpt>
      <trkpt lat="-36.4608367" lon="-72.7105783">
        <ele>156.0</ele>
        <time>2024-01-01T10:05:39Z</time>
      </trkpt>
      <trkpt lat="-36.4607494" lon="-72.7101110">
        <ele>172.0</ele>
        <time>2024-01-01T10:05:48Z</time>
      </trkpt>
      <trkpt lat="-36.4605207" lon="-72.7098235">
        <ele>172.0</ele>
        <time>2024-01-01T10:05:57Z</time>
      </trkpt>
      <trkpt lat="-36.4605482" lon="-72.7095487">
        <ele>172.0</ele>
        <time>2024-01-01T10:06:06Z</time>
      </trkpt>
      <trkpt lat="-36.4603261" lon="-72.7083973">
        <ele>148.0</ele>
        <time>2024-01-01T10:06:27Z</time>
      </trkpt>
      <trkpt lat="-36.4604594" lon="-72.7078740">
        <ele>126.0</ele>
        <time>2024-01-01T10:06:36Z</time>
      </trkpt>
      <trkpt lat="-36.4597890" lon="-72.7077032">
        <ele>139.0</ele>
        <time>2024-01-01T10:06:51Z</time>
      </trkpt>
      <trkpt lat="-36.4596186" lon="-72.7074232">
        <ele>139.0</ele>
        <time>2024-01-01T10:07:00Z</time>
      </trkpt>
      <trkpt lat="-36.4595890" lon="-72.7069123">
        <ele>139.0</ele>
        <time>2024-01-01T10:07:09Z</time>
      </trkpt>
      <trkpt lat="-36.4592837" lon="-72.7069298">
        <ele>139.0</ele>
        <time>2024-01-01T10:07:15Z</time>
      </trkpt>
      <trkpt lat="-36.4588346" lon="-72.7065386">
        <ele>139.0</ele>
        <time>2024-01-01T10:07:27Z</time>
      </trkpt>
      <trkpt lat="-36.4589187" lon="-72.7064739">
        <ele>139.0</ele>
        <time>2024-01-01T10:07:30Z</time>
      </trkpt>
      <trkpt lat="-36.4588594" lon="-72.7062411">
        <ele>115.0</ele>
        <time>2024-01-01T10:07:33Z</time>
      </trkpt>
      <trkpt lat="-36.4584484" lon="-72.7062561">
        <ele>139.0</ele>
        <time>2024-01-01T10:07:36Z</time>
      </trkpt>
      <trkpt lat="-36.4583405" lon="-72.7058861">
        <ele>115.0</ele>
        <time>2024-01-01T10:07:45Z</time>
      </trkpt>
      <trkpt lat="-36.4582227" lon="-72.7057767">
        <ele>83.0</ele>
        <time>2024-01-01T10:07:48Z</time>
      </trkpt>
      <trkpt lat="-36.4580983" lon="-72.7057921">
        <ele>83.0</ele>
        <time>2024-01-01T10:07:51Z</time>
      </trkpt>
      <trkpt lat="-36.4580357" lon="-72.7059539">
        <ele>83.0</ele>
        <time>2024-01-01T10:07:57Z</time>
      </trkpt>
      <trkpt lat="-36.4578169" lon="-72.7059387">
        <ele>83.0</ele>
        <time>2024-01-01T10:08:06Z</time>
      </trkpt>
      <trkpt lat="-36.4576086" lon="-72.7060468">
        <ele>83.0</ele>
        <time>2024-01-01T10:08:15Z</time>
      </trkpt>
      <trkpt lat="-36.4574210" lon="-72.7063268">
        <ele>73.0</ele>
        <time>2024-01-01T10:08:27Z</time>
      </trkpt>
      <trkpt lat="-36.4572362" lon="-72.7063136">
        <ele>73.0</ele>
        <time>2024-01-01T10:08:39Z</time>
      </trkpt>
      <trkpt lat="-36.4571546" lon="-72.7068758">
        <ele>73.0</ele>
        <time>2024-01-01T10:08:57Z</time>
      </trkpt>
      <trkpt lat="-36.4569914" lon="-72.7068371">
        <ele>73.0</ele>
        <time>2024-01-01T10:09:09Z</time>
      </trkpt>
      <trkpt lat="-36.4568886" lon="-72.7074303">
        <ele>73.0</ele>
        <time>2024-01-01T10:09:27Z</time>
      </trkpt>
      <trkpt lat="-36.4566597" lon="-72.7076373">
        <ele>73.0</ele>
        <time>2024-01-01T10:09:36Z</time>
      </trkpt>
      <trkpt lat="-36.4562371" lon="-72.7077975">
        <ele>35.0</ele>
        <time>2024-01-01T10:09:45Z</time>
      </trkpt>
    </trkseg>
  </trk>
</gpx>