<?xml version='1.0' encoding='UTF-8'?>
<gpx xmlns="http://www.topografix.com/GPX/1/1" xmlns:xsi="http://www.w3.org/2001/XMLSchema-instance" version="1.1" creator="Bosque Abierto MTB - Guardianes del Bosque" xsi:schemaLocation="http://www.topografix.com/GPX/1/1 http://www.topografix.com/GPX/1/1/gpx.xsd">
  <metadata>
    <name>Ruta Del Oro Mtb Pedals Blue</name>
    <desc>Ruta MTB Bosque Abierto - ARAUCO Renovables</desc>
    <author>
      <name>Guardianes del Bosque MTB</name>
    </author>
    <time>2024-01-01T10:00:00Z</time>
  </metadata>
  <trk>
    <name>Ruta Del Oro Mtb Pedals Blue</name>
    <type>cycling</type>
    <trkseg>
      <trkpt lat="-39.6685920" lon="-72.9483040">
        <ele>24.3</ele>
        <time>2024-01-01T10:00:00Z</time>
      </trkpt>
      <trkpt lat="-39.6689620" lon="-72.9475630">
        <ele>23.0</ele>
        <time>2024-01-01T10:00:12Z</time>
      </trkpt>
      <trkpt lat="-39.6688030" lon="-72.9469550">
        <ele>21.5</ele>
        <time>2024-01-01T10:00:18Z</time>
      </trkpt>
      <trkpt lat="-39.6686710" lon="-72.9468040">
        <ele>21.2</ele>
        <time>2024-01-01T10:00:24Z</time>
      </trkpt>
      <trkpt lat="-39.6685500" lon="-72.9469030">
        <ele>25.1</ele>
        <time>2024-01-01T10:00:30Z</time>
      </trkpt>
      <trkpt lat="-39.6684500" lon="-72.9472600">
        <ele>26.6</ele>
        <time>2024-01-01T10:00:45Z</time>
      </trkpt>
      <trkpt lat="-39.6681230" lon="-72.9478050">
        <ele>25.8</ele>
        <time>2024-01-01T10:00:51Z</time>
      </trkpt>
      <trkpt lat="-39.6679240" lon="-72.9479150">
        <ele>25.6</ele>
        <time>2024-01-01T10:00:54Z</time>
      </trkpt>
      <trkpt lat="-39.6676550" lon="-72.9478450">
        <ele>25.5</ele>
        <time>2024-01-01T10:01:00Z</time>
      </trkpt>
      <trkpt lat="-39.6666040" lon="-72.9483510">
        <ele>25.5</ele>
        <time>2024-01-01T10:01:12Z</time>
      </trkpt>
      <trkpt lat="-39.6663720" lon="-72.9483800">
        <ele>25.6</ele>
        <time>2024-01-01T10:01:18Z</time>
      </trkpt>
      <trkpt lat="-39.6647820" lon="-72.9428280">
        <ele>29.2</ele>
        <time>2024-01-01T10:02:03Z</time>
      </trkpt>
      <trkpt lat="-39.6648290" lon="-72.9421390">
        <ele>26.7</ele>
        <time>2024-01-01T10:02:12Z</time>
      </trkpt>
      <trkpt lat="-39.6650450" lon="-72.9419330">
        <ele>24.7</ele>
        <time>2024-01-01T10:02:21Z</time>
      </trkpt>
      <trkpt lat="-39.6655820" lon="-72.9417400">
        <ele>24.6</ele>
        <time>2024-01-01T10:02:27Z</time>
      </trkpt>
      <trkpt lat="-39.6663090" lon="-72.9403310">
        <ele>25.3</ele>
        <time>2024-01-01T10:02:39Z</time>
      </trkpt>
      <trkpt lat="-39.6664120" lon="-72.9397940">
        <ele>25.1</ele>
        <time>2024-01-01T10:02:45Z</time>
      </trkpt>
      <trkpt lat="-39.6663810" lon="-72.9391680">
        <ele>25.6</ele>
        <time>2024-01-01T10:02:51Z</time>
      </trkpt>
      <trkpt lat="-39.6661020" lon="-72.9388030">
        <ele>23.5</ele>
        <time>2024-01-01T10:02:57Z</time>
      </trkpt>
      <trkpt lat="-39.6658830" lon="-72.9383090">
        <ele>24.5</ele>
        <time>2024-01-01T10:03:03Z</time>
      </trkpt>
      <trkpt lat="-39.6651690" lon="-72.9373420">
        <ele>29.9</ele>
        <time>2024-01-01T10:03:24Z</time>
      </trkpt>
      <trkpt lat="-39.6649880" lon="-72.9369530">
        <ele>26.7</ele>
        <time>2024-01-01T10:03:30Z</time>
      </trkpt>
      <trkpt lat="-39.6648180" lon="-72.9362660">
        <ele>25.0</ele>
        <time>2024-01-01T10:03:39Z</time>
      </trkpt>
      <trkpt lat="-39.6649450" lon="-72.9348090">
        <ele>25.4</ele>
        <time>2024-01-01T10:03:57Z</time>
      </trkpt>
      <trkpt lat="-39.6652310" lon="-72.9340410">
        <ele>25.1</ele>
        <time>2024-01-01T10:04:06Z</time>
      </trkpt>
      <trkpt lat="-39.6657940" lon="-72.9299810">
        <ele>28.2</ele>
        <time>2024-01-01T10:04:39Z</time>
      </trkpt>
      <trkpt lat="-39.6657020" lon="-72.9298530">
        <ele>28.5</ele>
        <time>2024-01-01T10:04:45Z</time>
      </trkpt>
      <trkpt lat="-39.6655270" lon="-72.9298900">
        <ele>28.1</ele>
        <time>2024-01-01T10:04:48Z</time>
      </trkpt>
      <trkpt lat="-39.6642390" lon="-72.9302520">
        <ele>27.6</ele>
        <time>2024-01-01T10:05:00Z</time>
      </trkpt>
      <trkpt lat="-39.6634350" lon="-72.9306700">
        <ele>30.1</ele>
        <time>2024-01-01T10:05:09Z</time>
      </trkpt>
      <trkpt lat="-39.6633160" lon="-72.9306210">
        <ele>31.2</ele>
        <time>2024-01-01T10:05:18Z</time>
      </trkpt>
      <trkpt lat="-39.6641960" lon="-72.9176460">
        <ele>35.4</ele>
        <time>2024-01-01T10:06:42Z</time>
      </trkpt>
      <trkpt lat="-39.6651390" lon="-72.9090250">
        <ele>36.6</ele>
        <time>2024-01-01T10:07:33Z</time>
      </trkpt>
      <trkpt lat="-39.6656260" lon="-72.9081680">
        <ele>36.9</ele>
        <time>2024-01-01T10:07:42Z</time>
      </trkpt>
      <trkpt lat="-39.6664230" lon="-72.9060260">
        <ele>38.7</ele>
        <time>2024-01-01T10:07:57Z</time>
      </trkpt>
      <trkpt lat="-39.6675880" lon="-72.9021920">
        <ele>40.3</ele>
        <time>2024-01-01T10:08:24Z</time>
      </trkpt>
      <trkpt lat="-39.6671230" lon="-72.9007040">
        <ele>59.0</ele>
        <time>2024-01-01T10:09:15Z</time>
      </trkpt>
      <trkpt lat="-39.6664340" lon="-72.9002110">
        <ele>71.0</ele>
        <time>2024-01-01T10:09:39Z</time>
      </trkpt>
      <trkpt lat="-39.6662160" lon="-72.8998940">
        <ele>76.3</ele>
        <time>2024-01-01T10:09:48Z</time>
      </trkpt>
      <trkpt lat="-39.6661280" lon="-72.8990750">
        <ele>86.2</ele>
        <time>2024-01-01T10:10:06Z</time>
      </trkpt>
      <trkpt lat="-39.6659980" lon="-72.8988710">
        <ele>89.8</ele>
        <time>2024-01-01T10:10:12Z</time>
      </trkpt>
      <trkpt lat="-39.6656200" lon="-72.8991080">
        <ele>96.7</ele>
        <time>2024-01-01T10:10:24Z</time>
      </trkpt>
      <trkpt lat="-39.6649510" lon="-72.9002430">
        <ele>112.1</ele>
        <time>2024-01-01T10:10:54Z</time>
      </trkpt>
      <trkpt lat="-39.6641640" lon="-72.9007530">
        <ele>121.3</ele>
        <time>2024-01-01T10:11:15Z</time>
      </trkpt>
      <trkpt lat="-39.6639550" lon="-72.9010110">
        <ele>123.9</ele>
        <time>2024-01-01T10:11:21Z</time>
      </trkpt>
      <trkpt lat="-39.6638310" lon="-72.9013820">
        <ele>126.1</ele>
        <time>2024-01-01T10:11:27Z</time>
      </trkpt>
      <trkpt lat="-39.6638170" lon="-72.9022950">
        <ele>135.2</ele>
        <time>2024-01-01T10:11:45Z</time>
      </trkpt>
      <trkpt lat="-39.6637310" lon="-72.9025720">
        <ele>138.8</ele>
        <time>2024-01-01T10:11:51Z</time>
      </trkpt>
      <trkpt lat="-39.6636050" lon="-72.9026340">
        <ele>140.4</ele>
        <time>2024-01-01T10:11:54Z</time>
      </trkpt>
      <trkpt lat="-39.6634070" lon="-72.9025560">
        <ele>143.3</ele>
        <time>2024-01-01T10:12:00Z</time>
      </trkpt>
      <trkpt lat="-39.6633370" lon="-72.9020540">
        <ele>148.7</ele>
        <time>2024-01-01T10:12:12Z</time>
      </trkpt>
      <trkpt lat="-39.6632230" lon="-72.9019210">
        <ele>149.8</ele>
        <time>2024-01-01T10:12:15Z</time>
      </trkpt>
      <trkpt lat="-39.6626080" lon="-72.9019340">
        <ele>149.3</ele>
        <time>2024-01-01T10:12:27Z</time>
      </trkpt>
      <trkpt lat="-39.6625210" lon="-72.9017490">
        <ele>149.9</ele>
        <time>2024-01-01T10:12:33Z</time>
      </trkpt>
      <trkpt lat="-39.6625560" lon="-72.9016160">
        <ele>150.4</ele>
        <time>2024-01-01T10:12:36Z</time>
      </trkpt>
      <trkpt lat="-39.6630930" lon="-72.9008180">
        <ele>151.1</ele>
        <time>2024-01-01T10:12:45Z</time>
      </trkpt>
      <trkpt lat="-39.6635100" lon="-72.8999640">
        <ele>154.3</ele>
        <time>2024-01-01T10:12:54Z</time>
      </trkpt>
      <trkpt lat="-39.6631540" lon="-72.8994120">
        <ele>159.4</ele>
        <time>2024-01-01T10:13:06Z</time>
      </trkpt>
      <trkpt lat="-39.6629890" lon="-72.8980140">
        <ele>167.6</ele>
        <time>2024-01-01T10:13:30Z</time>
      </trkpt>
      <trkpt lat="-39.6628320" lon="-72.8973680">
        <ele>175.2</ele>
        <time>2024-01-01T10:13:45Z</time>
      </trkpt>
      <trkpt lat="-39.6626200" lon="-72.8970530">
        <ele>180.2</ele>
        <time>2024-01-01T10:13:54Z</time>
      </trkpt>
      <trkpt lat="-39.6621170" lon="-72.8966630">
        <ele>186.0</ele>
        <time>2024-01-01T10:14:09Z</time>
      </trkpt>
      <trkpt lat="-39.6619640" lon="-72.8964280">
        <ele>186.4</ele>
        <time>2024-01-01T10:14:15Z</time>
      </trkpt>
      <trkpt lat="-39.6620830" lon="-72.8958580">
        <ele>186.1</ele>
        <time>2024-01-01T10:14:21Z</time>
      </trkpt>
      <trkpt lat="-39.6626240" lon="-72.8946850">
        <ele>191.2</ele>
        <time>2024-01-01T10:14:36Z</time>
      </trkpt>
      <trkpt lat="-39.6628390" lon="-72.8934510">
        <ele>197.3</ele>
        <time>2024-01-01T10:14:51Z</time>
      </trkpt>
      <trkpt lat="-39.6631040" lon="-72.8926980">
        <ele>197.2</ele>
        <time>2024-01-01T10:15:00Z</time>
      </trkpt>
      <trkpt lat="-39.6633620" lon="-72.8924070">
        <ele>194.9</ele>
        <time>2024-01-01T10:15:06Z</time>
      </trkpt>
      <trkpt lat="-39.6640870" lon="-72.8919350">
        <ele>195.0</ele>
        <time>2024-01-01T10:15:12Z</time>
      </trkpt>
      <trkpt lat="-39.6642630" lon="-72.8916040">
        <ele>194.9</ele>
        <time>2024-01-01T10:15:18Z</time>
      </trkpt>
      <trkpt lat="-39.6644120" lon="-72.8902670">
        <ele>190.4</ele>
        <time>2024-01-01T10:15:27Z</time>
      </trkpt>
      <trkpt lat="-39.6645350" lon="-72.8878480">
        <ele>184.0</ele>
        <time>2024-01-01T10:15:51Z</time>
      </trkpt>
      <trkpt lat="-39.6646560" lon="-72.8874900">
        <ele>186.3</ele>
        <time>2024-01-01T10:15:57Z</time>
      </trkpt>
      <trkpt lat="-39.6644330" lon="-72.8858340">
        <ele>189.0</ele>
        <time>2024-01-01T10:16:09Z</time>
      </trkpt>
      <trkpt lat="-39.6646200" lon="-72.8846550">
        <ele>193.3</ele>
        <time>2024-01-01T10:16:21Z</time>
      </trkpt>
      <trkpt lat="-39.6643730" lon="-72.8837180">
        <ele>199.7</ele>
        <time>2024-01-01T10:16:42Z</time>
      </trkpt>
      <trkpt lat="-39.6640580" lon="-72.8831710">
        <ele>207.1</ele>
        <time>2024-01-01T10:16:57Z</time>
      </trkpt>
      <trkpt lat="-39.6640350" lon="-72.8827580">
        <ele>212.9</ele>
        <time>2024-01-01T10:17:06Z</time>
      </trkpt>
      <trkpt lat="-39.6642910" lon="-72.8822780">
        <ele>219.1</ele>
        <time>2024-01-01T10:17:18Z</time>
      </trkpt>
      <trkpt lat="-39.6648490" lon="-72.8815210">
        <ele>228.9</ele>
        <time>2024-01-01T10:17:39Z</time>
      </trkpt>
      <trkpt lat="-39.6653100" lon="-72.8804650">
        <ele>237.8</ele>
        <time>2024-01-01T10:18:00Z</time>
      </trkpt>
      <trkpt lat="-39.6655180" lon="-72.8795290">
        <ele>243.0</ele>
        <time>2024-01-01T10:18:15Z</time>
      </trkpt>
      <trkpt lat="-39.6658930" lon="-72.8786190">
        <ele>247.3</ele>
        <time>2024-01-01T10:18:30Z</time>
      </trkpt>
      <trkpt lat="-39.6660900" lon="-72.8776150">
        <ele>248.2</ele>
        <time>2024-01-01T10:18:42Z</time>
      </trkpt>
      <trkpt lat="-39.6664070" lon="-72.8768350">
        <ele>245.8</ele>
        <time>2024-01-01T10:18:48Z</time>
      </trkpt>
      <trkpt lat="-39.6664150" lon="-72.8763770">
        <ele>246.6</ele>
        <time>2024-01-01T10:18:54Z</time>
      </trkpt>
      <trkpt lat="-39.6658680" lon="-72.8754300">
        <ele>254.7</ele>
        <time>2024-01-01T10:19:09Z</time>
      </trkpt>
      <trkpt lat="-39.6653860" lon="-72.8740230">
        <ele>255.6</ele>
        <time>2024-01-01T10:19:27Z</time>
      </trkpt>
      <trkpt lat="-39.6651230" lon="-72.8737090">
        <ele>253.4</ele>
        <time>2024-01-01T10:19:33Z</time>
      </trkpt>
      <trkpt lat="-39.6648100" lon="-72.8736370">
        <ele>251.6</ele>
        <time>2024-01-01T10:19:39Z</time>
      </trkpt>
      <trkpt lat="-39.6638940" lon="-72.8738770">
        <ele>248.6</ele>
        <time>2024-01-01T10:19:48Z</time>
      </trkpt>
      <trkpt lat="-39.6635560" lon="-72.8744550">
        <ele>247.7</ele>
        <time>2024-01-01T10:19:54Z</time>
      </trkpt>
      <trkpt lat="-39.6631780" lon="-72.8746860">
        <ele>246.8</ele>
        <time>2024-01-01T10:20:00Z</time>
      </trkpt>
      <trkpt lat="-39.6622430" lon="-72.8747670">
        <ele>245.6</ele>
        <time>2024-01-01T10:20:06Z</time>
      </trkpt>
      <trkpt lat="-39.6613050" lon="-72.8745810">
        <ele>243.6</ele>
        <time>2024-01-01T10:20:12Z</time>
      </trkpt>
      <trkpt lat="-39.6608160" lon="-72.8742930">
        <ele>245.3</ele>
        <time>2024-01-01T10:20:18Z</time>
      </trkpt>
      <trkpt lat="-39.6603700" lon="-72.8733460">
        <ele>243.3</ele>
        <time>2024-01-01T10:20:27Z</time>
      </trkpt>
      <trkpt lat="-39.6599010" lon="-72.8728450">
        <ele>238.7</ele>
        <time>2024-01-01T10:20:33Z</time>
      </trkpt>
      <trkpt lat="-39.6596590" lon="-72.8727400">
        <ele>237.2</ele>
        <time>2024-01-01T10:20:36Z</time>
      </trkpt>
      <trkpt lat="-39.6586970" lon="-72.8725790">
        <ele>235.0</ele>
        <time>2024-01-01T10:20:42Z</time>
      </trkpt>
      <trkpt lat="-39.6584440" lon="-72.8724060">
        <ele>234.0</ele>
        <time>2024-01-01T10:20:48Z</time>
      </trkpt>
      <trkpt lat="-39.6583640" lon="-72.8720750">
        <ele>233.7</ele>
        <time>2024-01-01T10:20:54Z</time>
      </trkpt>
      <trkpt lat="-39.6585050" lon="-72.8715310">
        <ele>234.4</ele>
        <time>2024-01-01T10:21:00Z</time>
      </trkpt>
      <trkpt lat="-39.6584450" lon="-72.8713710">
        <ele>234.8</ele>
        <time>2024-01-01T10:21:06Z</time>
      </trkpt>
      <trkpt lat="-39.6582520" lon="-72.8713770">
        <ele>235.6</ele>
        <time>2024-01-01T10:21:12Z</time>
      </trkpt>
      <trkpt lat="-39.6578260" lon="-72.8716250">
        <ele>237.9</ele>
        <time>2024-01-01T10:21:18Z</time>
      </trkpt>
      <trkpt lat="-39.6570830" lon="-72.8714180">
        <ele>238.8</ele>
        <time>2024-01-01T10:21:27Z</time>
      </trkpt>
      <trkpt lat="-39.6569390" lon="-72.8712770">
        <ele>238.3</ele>
        <time>2024-01-01T10:21:30Z</time>
      </trkpt>
      <trkpt lat="-39.6567660" lon="-72.8708710">
        <ele>237.1</ele>
        <time>2024-01-01T10:21:36Z</time>
      </trkpt>
      <trkpt lat="-39.6569930" lon="-72.8695420">
        <ele>231.6</ele>
        <time>2024-01-01T10:21:45Z</time>
      </trkpt>
      <trkpt lat="-39.6569210" lon="-72.8689100">
        <ele>228.8</ele>
        <time>2024-01-01T10:21:51Z</time>
      </trkpt>
      <trkpt lat="-39.6565290" lon="-72.8683270">
        <ele>225.1</ele>
        <time>2024-01-01T10:21:57Z</time>
      </trkpt>
      <trkpt lat="-39.6562250" lon="-72.8681110">
        <ele>222.9</ele>
        <time>2024-01-01T10:22:00Z</time>
      </trkpt>
      <trkpt lat="-39.6553950" lon="-72.8680100">
        <ele>218.8</ele>
        <time>2024-01-01T10:22:15Z</time>
      </trkpt>
      <trkpt lat="-39.6549280" lon="-72.8675570">
        <ele>217.2</ele>
        <time>2024-01-01T10:22:21Z</time>
      </trkpt>
      <trkpt lat="-39.6548510" lon="-72.8673820">
        <ele>217.2</ele>
        <time>2024-01-01T10:22:24Z</time>
      </trkpt>
      <trkpt lat="-39.6548660" lon="-72.8669410">
        <ele>217.5</ele>
        <time>2024-01-01T10:22:30Z</time>
      </trkpt>
      <trkpt lat="-39.6553090" lon="-72.8660390">
        <ele>217.9</ele>
        <time>2024-01-01T10:22:39Z</time>
      </trkpt>
      <trkpt lat="-39.6554660" lon="-72.8652240">
        <ele>218.6</ele>
        <time>2024-01-01T10:22:45Z</time>
      </trkpt>
      <trkpt lat="-39.6554330" lon="-72.8626690">
        <ele>220.3</ele>
        <time>2024-01-01T10:23:03Z</time>
      </trkpt>
      <trkpt lat="-39.6552940" lon="-72.8620690">
        <ele>218.8</ele>
        <time>2024-01-01T10:23:09Z</time>
      </trkpt>
      <trkpt lat="-39.6547470" lon="-72.8612760">
        <ele>217.3</ele>
        <time>2024-01-01T10:23:15Z</time>
      </trkpt>
      <trkpt lat="-39.6544920" lon="-72.8606800">
        <ele>215.3</ele>
        <time>2024-01-01T10:23:21Z</time>
      </trkpt>
      <trkpt lat="-39.6544630" lon="-72.8604250">
        <ele>214.9</ele>
        <time>2024-01-01T10:23:24Z</time>
      </trkpt>
      <trkpt lat="-39.6546520" lon="-72.8594070">
        <ele>210.6</ele>
        <time>2024-01-01T10:23:30Z</time>
      </trkpt>
      <trkpt lat="-39.6550770" lon="-72.8585180">
        <ele>205.0</ele>
        <time>2024-01-01T10:23:45Z</time>
      </trkpt>
      <trkpt lat="-39.6551040" lon="-72.8583140">
        <ele>204.9</ele>
        <time>2024-01-01T10:23:51Z</time>
      </trkpt>
      <trkpt lat="-39.6547140" lon="-72.8576980">
        <ele>203.9</ele>
        <time>2024-01-01T10:23:57Z</time>
      </trkpt>
      <trkpt lat="-39.6544390" lon="-72.8567100">
        <ele>197.2</ele>
        <time>2024-01-01T10:24:06Z</time>
      </trkpt>
      <trkpt lat="-39.6540110" lon="-72.8559270">
        <ele>195.3</ele>
        <time>2024-01-01T10:24:15Z</time>
      </trkpt>
      <trkpt lat="-39.6540880" lon="-72.8548030">
        <ele>195.7</ele>
        <time>2024-01-01T10:24:30Z</time>
      </trkpt>
      <trkpt lat="-39.6539090" lon="-72.8546550">
        <ele>195.7</ele>
        <time>2024-01-01T10:24:36Z</time>
      </trkpt>
      <trkpt lat="-39.6528660" lon="-72.8547350">
        <ele>190.0</ele>
        <time>2024-01-01T10:24:45Z</time>
      </trkpt>
      <trkpt lat="-39.6523470" lon="-72.8544650">
        <ele>186.6</ele>
        <time>2024-01-01T10:24:54Z</time>
      </trkpt>
      <trkpt lat="-39.6518500" lon="-72.8547150">
        <ele>183.0</ele>
        <time>2024-01-01T10:25:06Z</time>
      </trkpt>
      <trkpt lat="-39.6517350" lon="-72.8546760">
        <ele>182.1</ele>
        <time>2024-01-01T10:25:12Z</time>
      </trkpt>
      <trkpt lat="-39.6515100" lon="-72.8542140">
        <ele>181.2</ele>
        <time>2024-01-01T10:25:18Z</time>
      </trkpt>
      <trkpt lat="-39.6513570" lon="-72.8539990">
        <ele>182.0</ele>
        <time>2024-01-01T10:25:21Z</time>
      </trkpt>
      <trkpt lat="-39.6512390" lon="-72.8539570">
        <ele>182.8</ele>
        <time>2024-01-01T10:25:30Z</time>
      </trkpt>
      <trkpt lat="-39.6511680" lon="-72.8536300">
        <ele>184.5</ele>
        <time>2024-01-01T10:25:36Z</time>
      </trkpt>
      <trkpt lat="-39.6513890" lon="-72.8530440">
        <ele>186.7</ele>
        <time>2024-01-01T10:25:45Z</time>
      </trkpt>
      <trkpt lat="-39.6515720" lon="-72.8522040">
        <ele>187.5</ele>
        <time>2024-01-01T10:25:54Z</time>
      </trkpt>
      <trkpt lat="-39.6515520" lon="-72.8514450">
        <ele>188.0</ele>
        <time>2024-01-01T10:26:03Z</time>
      </trkpt>
      <trkpt lat="-39.6511180" lon="-72.8505820">
        <ele>189.4</ele>
        <time>2024-01-01T10:26:15Z</time>
      </trkpt>
      <trkpt lat="-39.6506570" lon="-72.8499760">
        <ele>190.5</ele>
        <time>2024-01-01T10:26:24Z</time>
      </trkpt>
      <trkpt lat="-39.6506950" lon="-72.8498140">
        <ele>193.5</ele>
        <time>2024-01-01T10:26:30Z</time>
      </trkpt>
      <trkpt lat="-39.6507770" lon="-72.8498010">
        <ele>194.2</ele>
        <time>2024-01-01T10:26:33Z</time>
      </trkpt>
      <trkpt lat="-39.6512000" lon="-72.8500410">
        <ele>194.6</ele>
        <time>2024-01-01T10:26:42Z</time>
      </trkpt>
      <trkpt lat="-39.6512810" lon="-72.8500140">
        <ele>194.5</ele>
        <time>2024-01-01T10:26:45Z</time>
      </trkpt>
      <trkpt lat="-39.6519580" lon="-72.8484640">
        <ele>193.4</ele>
        <time>2024-01-01T10:27:06Z</time>
      </trkpt>
      <trkpt lat="-39.6521360" lon="-72.8483760">
        <ele>193.0</ele>
        <time>2024-01-01T10:27:09Z</time>
      </trkpt>
      <trkpt lat="-39.6527970" lon="-72.8483750">
        <ele>189.1</ele>
        <time>2024-01-01T10:27:15Z</time>
      </trkpt>
      <trkpt lat="-39.6531960" lon="-72.8482220">
        <ele>187.6</ele>
        <time>2024-01-01T10:27:21Z</time>
      </trkpt>
      <trkpt lat="-39.6533510" lon="-72.8472110">
        <ele>186.0</ele>
        <time>2024-01-01T10:27:33Z</time>
      </trkpt>
      <trkpt lat="-39.6531800" lon="-72.8469820">
        <ele>184.5</ele>
        <time>2024-01-01T10:27:39Z</time>
      </trkpt>
      <trkpt lat="-39.6526100" lon="-72.8467930">
        <ele>187.6</ele>
        <time>2024-01-01T10:27:45Z</time>
      </trkpt>
      <trkpt lat="-39.6524630" lon="-72.8465330">
        <ele>185.5</ele>
        <time>2024-01-01T10:27:51Z</time>
      </trkpt>
      <trkpt lat="-39.6525900" lon="-72.8444180">
        <ele>189.4</ele>
        <time>2024-01-01T10:28:21Z</time>
      </trkpt>
      <trkpt lat="-39.6529190" lon="-72.8441210">
        <ele>186.2</ele>
        <time>2024-01-01T10:28:27Z</time>
      </trkpt>
      <trkpt lat="-39.6537870" lon="-72.8438660">
        <ele>184.1</ele>
        <time>2024-01-01T10:28:36Z</time>
      </trkpt>
      <trkpt lat="-39.6540840" lon="-72.8435710">
        <ele>178.2</ele>
        <time>2024-01-01T10:28:42Z</time>
      </trkpt>
      <trkpt lat="-39.6546390" lon="-72.8407910">
        <ele>170.8</ele>
        <time>2024-01-01T10:28:57Z</time>
      </trkpt>
      <trkpt lat="-39.6552620" lon="-72.8393390">
        <ele>159.3</ele>
        <time>2024-01-01T10:29:12Z</time>
      </trkpt>
      <trkpt lat="-39.6554390" lon="-72.8391440">
        <ele>156.9</ele>
        <time>2024-01-01T10:29:15Z</time>
      </trkpt>
      <trkpt lat="-39.6561470" lon="-72.8387420">
        <ele>152.4</ele>
        <time>2024-01-01T10:29:24Z</time>
      </trkpt>
      <trkpt lat="-39.6568610" lon="-72.8379380">
        <ele>142.1</ele>
        <time>2024-01-01T10:29:30Z</time>
      </trkpt>
      <trkpt lat="-39.6572570" lon="-72.8376680">
        <ele>138.6</ele>
        <time>2024-01-01T10:29:36Z</time>
      </trkpt>
      <trkpt lat="-39.6577150" lon="-72.8369130">
        <ele>129.5</ele>
        <time>2024-01-01T10:29:51Z</time>
      </trkpt>
      <trkpt lat="-39.6577740" lon="-72.8366690">
        <ele>130.4</ele>
        <time>2024-01-01T10:30:00Z</time>
      </trkpt>
      <trkpt lat="-39.6580650" lon="-72.8362750">
        <ele>130.7</ele>
        <time>2024-01-01T10:30:12Z</time>
      </trkpt>
      <trkpt lat="-39.6579780" lon="-72.8357320">
        <ele>129.4</ele>
        <time>2024-01-01T10:30:27Z</time>
      </trkpt>
      <trkpt lat="-39.6577560" lon="-72.8354480">
        <ele>125.1</ele>
        <time>2024-01-01T10:30:33Z</time>
      </trkpt>
      <trkpt lat="-39.6576010" lon="-72.8355360">
        <ele>125.3</ele>
        <time>2024-01-01T10:30:42Z</time>
      </trkpt>
      <trkpt lat="-39.6573690" lon="-72.8352740">
        <ele>123.4</ele>
        <time>2024-01-01T10:30:51Z</time>
      </trkpt>
      <trkpt lat="-39.6571460" lon="-72.8345160">
        <ele>114.2</ele>
        <time>2024-01-01T10:31:06Z</time>
      </trkpt>
      <trkpt lat="-39.6572280" lon="-72.8341910">
        <ele>115.8</ele>
        <time>2024-01-01T10:31:18Z</time>
      </trkpt>
      <trkpt lat="-39.6575060" lon="-72.8341300">
        <ele>121.4</ele>
        <time>2024-01-01T10:31:21Z</time>
      </trkpt>
      <trkpt lat="-39.6577460" lon="-72.8335800">
        <ele>136.1</ele>
        <time>2024-01-01T10:31:36Z</time>
      </trkpt>
      <trkpt lat="-39.6576130" lon="-72.8324400">
        <ele>145.1</ele>
        <time>2024-01-01T10:31:45Z</time>
      </trkpt>
      <trkpt lat="-39.6573340" lon="-72.8319250">
        <ele>142.2</ele>
        <time>2024-01-01T10:31:54Z</time>
      </trkpt>
      <trkpt lat="-39.6560730" lon="-72.8321500">
        <ele>136.8</ele>
        <time>2024-01-01T10:32:09Z</time>
      </trkpt>
      <trkpt lat="-39.6562570" lon="-72.8318030">
        <ele>143.2</ele>
        <time>2024-01-01T10:32:27Z</time>
      </trkpt>
      <trkpt lat="-39.6562740" lon="-72.8310580">
        <ele>140.3</ele>
        <time>2024-01-01T10:32:36Z</time>
      </trkpt>
      <trkpt lat="-39.6565100" lon="-72.8301360">
        <ele>135.6</ele>
        <time>2024-01-01T10:32:45Z</time>
      </trkpt>
      <trkpt lat="-39.6565570" lon="-72.8289720">
        <ele>127.3</ele>
        <time>2024-01-01T10:32:54Z</time>
      </trkpt>
      <trkpt lat="-39.6564130" lon="-72.8281670">
        <ele>126.0</ele>
        <time>2024-01-01T10:33:00Z</time>
      </trkpt>
      <trkpt lat="-39.6564150" lon="-72.8271180">
        <ele>112.3</ele>
        <time>2024-01-01T10:33:12Z</time>
      </trkpt>
      <trkpt lat="-39.6568000" lon="-72.8243050">
        <ele>94.5</ele>
        <time>2024-01-01T10:33:30Z</time>
      </trkpt>
      <trkpt lat="-39.6570370" lon="-72.8238610">
        <ele>99.5</ele>
        <time>2024-01-01T10:33:39Z</time>
      </trkpt>
      <trkpt lat="-39.6574520" lon="-72.8226220">
        <ele>111.7</ele>
        <time>2024-01-01T10:34:15Z</time>
      </trkpt>
      <trkpt lat="-39.6579920" lon="-72.8217740">
        <ele>121.2</ele>
        <time>2024-01-01T10:34:42Z</time>
      </trkpt>
      <trkpt lat="-39.6579200" lon="-72.8217010">
        <ele>122.2</ele>
        <time>2024-01-01T10:34:48Z</time>
      </trkpt>
      <trkpt lat="-39.6584800" lon="-72.8198080">
        <ele>127.5</ele>
        <time>2024-01-01T10:35:15Z</time>
      </trkpt>
      <trkpt lat="-39.6584560" lon="-72.8192800">
        <ele>128.1</ele>
        <time>2024-01-01T10:35:21Z</time>
      </trkpt>
      <trkpt lat="-39.6581600" lon="-72.8185170">
        <ele>128.8</ele>
        <time>2024-01-01T10:35:30Z</time>
      </trkpt>
      <trkpt lat="-39.6578020" lon="-72.8185330">
        <ele>128.4</ele>
        <time>2024-01-01T10:35:36Z</time>
      </trkpt>
      <trkpt lat="-39.6573700" lon="-72.8187670">
        <ele>125.5</ele>
        <time>2024-01-01T10:35:42Z</time>
      </trkpt>
      <trkpt lat="-39.6568990" lon="-72.8186940">
        <ele>125.6</ele>
        <time>2024-01-01T10:35:48Z</time>
      </trkpt>
      <trkpt lat="-39.6553390" lon="-72.8173400">
        <ele>111.7</ele>
        <time>2024-01-01T10:36:03Z</time>
      </trkpt>
      <trkpt lat="-39.6552070" lon="-72.8170420">
        <ele>107.8</ele>
        <time>2024-01-01T10:36:09Z</time>
      </trkpt>
      <trkpt lat="-39.6557620" lon="-72.8157560">
        <ele>95.6</ele>
        <time>2024-01-01T10:36:24Z</time>
      </trkpt>
      <trkpt lat="-39.6557570" lon="-72.8152670">
        <ele>86.2</ele>
        <time>2024-01-01T10:36:30Z</time>
      </trkpt>
      <trkpt lat="-39.6555720" lon="-72.8145440">
        <ele>82.4</ele>
        <time>2024-01-01T10:36:36Z</time>
      </trkpt>
      <trkpt lat="-39.6564100" lon="-72.8132270">
        <ele>65.9</ele>
        <time>2024-01-01T10:36:51Z</time>
      </trkpt>
      <trkpt lat="-39.6563960" lon="-72.8129010">
        <ele>63.2</ele>
        <time>2024-01-01T10:36:57Z</time>
      </trkpt>
      <trkpt lat="-39.6561010" lon="-72.8120940">
        <ele>58.7</ele>
        <time>2024-01-01T10:37:03Z</time>
      </trkpt>
      <trkpt lat="-39.6561240" lon="-72.8118380">
        <ele>56.3</ele>
        <time>2024-01-01T10:37:09Z</time>
      </trkpt>
      <trkpt lat="-39.6566360" lon="-72.8114690">
        <ele>53.9</ele>
        <time>2024-01-01T10:37:15Z</time>
      </trkpt>
      <trkpt lat="-39.6571070" lon="-72.8113090">
        <ele>51.6</ele>
        <time>2024-01-01T10:37:18Z</time>
      </trkpt>
      <trkpt lat="-39.6575130" lon="-72.8112050">
        <ele>49.1</ele>
        <time>2024-01-01T10:37:21Z</time>
      </trkpt>
      <trkpt lat="-39.6579870" lon="-72.8112590">
        <ele>46.5</ele>
        <time>2024-01-01T10:37:27Z</time>
      </trkpt>
      <trkpt lat="-39.6580930" lon="-72.8112100">
        <ele>46.3</ele>
        <time>2024-01-01T10:37:30Z</time>
      </trkpt>
      <trkpt lat="-39.6581100" lon="-72.8110140">
        <ele>45.7</ele>
        <time>2024-01-01T10:37:39Z</time>
      </trkpt>
      <trkpt lat="-39.6571470" lon="-72.8107320">
        <ele>46.5</ele>
        <time>2024-01-01T10:37:51Z</time>
      </trkpt>
      <trkpt lat="-39.6570420" lon="-72.8106410">
        <ele>46.8</ele>
        <time>2024-01-01T10:37:54Z</time>
      </trkpt>
      <trkpt lat="-39.6567340" lon="-72.8094420">
        <ele>48.0</ele>
        <time>2024-01-01T10:38:06Z</time>
      </trkpt>
      <trkpt lat="-39.6563970" lon="-72.8088180">
        <ele>51.1</ele>
        <time>2024-01-01T10:38:18Z</time>
      </trkpt>
      <trkpt lat="-39.6560370" lon="-72.8091130">
        <ele>52.1</ele>
        <time>2024-01-01T10:38:27Z</time>
      </trkpt>
      <trkpt lat="-39.6558010" lon="-72.8091200">
        <ele>53.0</ele>
        <time>2024-01-01T10:38:36Z</time>
      </trkpt>
      <trkpt lat="-39.6557190" lon="-72.8088820">
        <ele>53.5</ele>
        <time>2024-01-01T10:38:42Z</time>
      </trkpt>
      <trkpt lat="-39.6555610" lon="-72.8087590">
        <ele>54.0</ele>
        <time>2024-01-01T10:38:45Z</time>
      </trkpt>
      <trkpt lat="-39.6548990" lon="-72.8085800">
        <ele>56.4</ele>
        <time>2024-01-01T10:39:00Z</time>
      </trkpt>
      <trkpt lat="-39.6545150" lon="-72.8081910">
        <ele>57.2</ele>
        <time>2024-01-01T10:39:09Z</time>
      </trkpt>
      <trkpt lat="-39.6539640" lon="-72.8073110">
        <ele>60.3</ele>
        <time>2024-01-01T10:39:24Z</time>
      </trkpt>
      <trkpt lat="-39.6539740" lon="-72.8068810">
        <ele>60.5</ele>
        <time>2024-01-01T10:39:30Z</time>
      </trkpt>
      <trkpt lat="-39.6538220" lon="-72.8061750">
        <ele>60.0</ele>
        <time>2024-01-01T10:39:39Z</time>
      </trkpt>
      <trkpt lat="-39.6538100" lon="-72.8057170">
        <ele>60.4</ele>
        <time>2024-01-01T10:39:45Z</time>
      </trkpt>
      <trkpt lat="-39.6536030" lon="-72.8054630">
        <ele>62.6</ele>
        <time>2024-01-01T10:39:51Z</time>
      </trkpt>
      <trkpt lat="-39.6532830" lon="-72.8044670">
        <ele>64.5</ele>
        <time>2024-01-01T10:40:06Z</time>
      </trkpt>
      <trkpt lat="-39.6531580" lon="-72.8042740">
        <ele>64.9</ele>
        <time>2024-01-01T10:40:09Z</time>
      </trkpt>
      <trkpt lat="-39.6528890" lon="-72.8041480">
        <ele>66.8</ele>
        <time>2024-01-01T10:40:18Z</time>
      </trkpt>
      <trkpt lat="-39.6524420" lon="-72.8034550">
        <ele>65.9</ele>
        <time>2024-01-01T10:40:30Z</time>
      </trkpt>
      <trkpt lat="-39.6518140" lon="-72.8030320">
        <ele>66.0</ele>
        <time>2024-01-01T10:40:39Z</time>
      </trkpt>
      <trkpt lat="-39.6504630" lon="-72.8024900">
        <ele>71.2</ele>
        <time>2024-01-01T10:41:03Z</time>
      </trkpt>
      <trkpt lat="-39.6495080" lon="-72.8016220">
        <ele>79.1</ele>
        <time>2024-01-01T10:41:21Z</time>
      </trkpt>
      <trkpt lat="-39.6493140" lon="-72.8016170">
        <ele>75.1</ele>
        <time>2024-01-01T10:41:27Z</time>
      </trkpt>
      <trkpt lat="-39.6491530" lon="-72.8015080">
        <ele>75.1</ele>
        <time>2024-01-01T10:41:30Z</time>
      </trkpt>
      <trkpt lat="-39.6484330" lon="-72.8015700">
        <ele>75.3</ele>
        <time>2024-01-01T10:41:42Z</time>
      </trkpt>
      <trkpt lat="-39.6481300" lon="-72.8017350">
        <ele>80.3</ele>
        <time>2024-01-01T10:41:48Z</time>
      </trkpt>
      <trkpt lat="-39.6478810" lon="-72.8020770">
        <ele>76.8</ele>
        <time>2024-01-01T10:41:54Z</time>
      </trkpt>
      <trkpt lat="-39.6476260" lon="-72.8021680">
        <ele>75.5</ele>
        <time>2024-01-01T10:42:00Z</time>
      </trkpt>
      <trkpt lat="-39.6472930" lon="-72.8020530">
        <ele>81.3</ele>
        <time>2024-01-01T10:42:06Z</time>
      </trkpt>
      <trkpt lat="-39.6469040" lon="-72.8015290">
        <ele>95.8</ele>
        <time>2024-01-01T10:42:15Z</time>
      </trkpt>
      <trkpt lat="-39.6467510" lon="-72.8014770">
        <ele>97.3</ele>
        <time>2024-01-01T10:42:18Z</time>
      </trkpt>
      <trkpt lat="-39.6463130" lon="-72.8016230">
        <ele>92.2</ele>
        <time>2024-01-01T10:42:24Z</time>
      </trkpt>
      <trkpt lat="-39.6460700" lon="-72.8020360">
        <ele>86.5</ele>
        <time>2024-01-01T10:42:36Z</time>
      </trkpt>
      <trkpt lat="-39.6458250" lon="-72.8021780">
        <ele>86.3</ele>
        <time>2024-01-01T10:42:45Z</time>
      </trkpt>
      <trkpt lat="-39.6450730" lon="-72.8029960">
        <ele>106.0</ele>
        <time>2024-01-01T10:43:27Z</time>
      </trkpt>
      <trkpt lat="-39.6449990" lon="-72.8031900">
        <ele>111.4</ele>
        <time>2024-01-01T10:43:33Z</time>
      </trkpt>
      <trkpt lat="-39.6449930" lon="-72.8040040">
        <ele>117.3</ele>
        <time>2024-01-01T10:43:51Z</time>
      </trkpt>
      <trkpt lat="-39.6447860" lon="-72.8042810">
        <ele>117.8</ele>
        <time>2024-01-01T10:43:57Z</time>
      </trkpt>
      <trkpt lat="-39.6444260" lon="-72.8051220">
        <ele>117.2</ele>
        <time>2024-01-01T10:44:09Z</time>
      </trkpt>
      <trkpt lat="-39.6439380" lon="-72.8056580">
        <ele>116.9</ele>
        <time>2024-01-01T10:44:18Z</time>
      </trkpt>
      <trkpt lat="-39.6437480" lon="-72.8062570">
        <ele>119.5</ele>
        <time>2024-01-01T10:44:24Z</time>
      </trkpt>
      <trkpt lat="-39.6431140" lon="-72.8073840">
        <ele>130.4</ele>
        <time>2024-01-01T10:44:39Z</time>
      </trkpt>
      <trkpt lat="-39.6427580" lon="-72.8084030">
        <ele>140.8</ele>
        <time>2024-01-01T10:45:06Z</time>
      </trkpt>
      <trkpt lat="-39.6426020" lon="-72.8085950">
        <ele>142.9</ele>
        <time>2024-01-01T10:45:12Z</time>
      </trkpt>
      <trkpt lat="-39.6412850" lon="-72.8095760">
        <ele>157.0</ele>
        <time>2024-01-01T10:45:51Z</time>
      </trkpt>
      <trkpt lat="-39.6409380" lon="-72.8100820">
        <ele>165.6</ele>
        <time>2024-01-01T10:46:06Z</time>
      </trkpt>
      <trkpt lat="-39.6409010" lon="-72.8103730">
        <ele>168.6</ele>
        <time>2024-01-01T10:46:12Z</time>
      </trkpt>
      <trkpt lat="-39.6410260" lon="-72.8113290">
        <ele>174.0</ele>
        <time>2024-01-01T10:46:30Z</time>
      </trkpt>
      <trkpt lat="-39.6426060" lon="-72.8163580">
        <ele>194.0</ele>
        <time>2024-01-01T10:47:33Z</time>
      </trkpt>
      <trkpt lat="-39.6430050" lon="-72.8171640">
        <ele>191.0</ele>
        <time>2024-01-01T10:47:39Z</time>
      </trkpt>
      <trkpt lat="-39.6430340" lon="-72.8174720">
        <ele>191.9</ele>
        <time>2024-01-01T10:47:45Z</time>
      </trkpt>
      <trkpt lat="-39.6429060" lon="-72.8183850">
        <ele>202.0</ele>
        <time>2024-01-01T10:48:06Z</time>
      </trkpt>
      <trkpt lat="-39.6427740" lon="-72.8186730">
        <ele>203.0</ele>
        <time>2024-01-01T10:48:12Z</time>
      </trkpt>
      <trkpt lat="-39.6420150" lon="-72.8196060">
        <ele>205.6</ele>
        <time>2024-01-01T10:48:24Z</time>
      </trkpt>
      <trkpt lat="-39.6412120" lon="-72.8203740">
        <ele>210.9</ele>
        <time>2024-01-01T10:48:39Z</time>
      </trkpt>
      <trkpt lat="-39.6407720" lon="-72.8212700">
        <ele>210.0</ele>
        <time>2024-01-01T10:48:51Z</time>
      </trkpt>
      <trkpt lat="-39.6400500" lon="-72.8221190">
        <ele>197.9</ele>
        <time>2024-01-01T10:49:06Z</time>
      </trkpt>
      <trkpt lat="-39.6399920" lon="-72.8223300">
        <ele>196.6</ele>
        <time>2024-01-01T10:49:12Z</time>
      </trkpt>
      <trkpt lat="-39.6401450" lon="-72.8231720">
        <ele>195.4</ele>
        <time>2024-01-01T10:49:21Z</time>
      </trkpt>
      <trkpt lat="-39.6399210" lon="-72.8243810">
        <ele>209.3</ele>
        <time>2024-01-01T10:49:45Z</time>
      </trkpt>
      <trkpt lat="-39.6391350" lon="-72.8258630">
        <ele>217.0</ele>
        <time>2024-01-01T10:50:09Z</time>
      </trkpt>
      <trkpt lat="-39.6390600" lon="-72.8260860">
        <ele>217.2</ele>
        <time>2024-01-01T10:50:12Z</time>
      </trkpt>
      <trkpt lat="-39.6390500" lon="-72.8266520">
        <ele>217.1</ele>
        <time>2024-01-01T10:50:18Z</time>
      </trkpt>
      <trkpt lat="-39.6389540" lon="-72.8268180">
        <ele>217.0</ele>
        <time>2024-01-01T10:50:24Z</time>
      </trkpt>
      <trkpt lat="-39.6387400" lon="-72.8267250">
        <ele>212.7</ele>
        <time>2024-01-01T10:50:30Z</time>
      </trkpt>
      <trkpt lat="-39.6370660" lon="-72.8251470">
        <ele>205.8</ele>
        <time>2024-01-01T10:50:51Z</time>
      </trkpt>
      <trkpt lat="-39.6356980" lon="-72.8243340">
        <ele>198.0</ele>
        <time>2024-01-01T10:51:00Z</time>
      </trkpt>
      <trkpt lat="-39.6349850" lon="-72.8240520">
        <ele>193.3</ele>
        <time>2024-01-01T10:51:06Z</time>
      </trkpt>
      <trkpt lat="-39.6333960" lon="-72.8238620">
        <ele>181.7</ele>
        <time>2024-01-01T10:51:15Z</time>
      </trkpt>
      <trkpt lat="-39.6330960" lon="-72.8237050">
        <ele>182.6</ele>
        <time>2024-01-01T10:51:21Z</time>
      </trkpt>
      <trkpt lat="-39.6327820" lon="-72.8230880">
        <ele>180.1</ele>
        <time>2024-01-01T10:51:27Z</time>
      </trkpt>
      <trkpt lat="-39.6324360" lon="-72.8214140">
        <ele>173.0</ele>
        <time>2024-01-01T10:51:42Z</time>
      </trkpt>
      <trkpt lat="-39.6322760" lon="-72.8212170">
        <ele>174.0</ele>
        <time>2024-01-01T10:51:45Z</time>
      </trkpt>
      <trkpt lat="-39.6319080" lon="-72.8209790">
        <ele>176.6</ele>
        <time>2024-01-01T10:51:48Z</time>
      </trkpt>
      <trkpt lat="-39.6313310" lon="-72.8206960">
        <ele>186.1</ele>
        <time>2024-01-01T10:52:03Z</time>
      </trkpt>
      <trkpt lat="-39.6301300" lon="-72.8205890">
        <ele>202.5</ele>
        <time>2024-01-01T10:52:36Z</time>
      </trkpt>
      <trkpt lat="-39.6290080" lon="-72.8211480">
        <ele>218.1</ele>
        <time>2024-01-01T10:53:06Z</time>
      </trkpt>
      <trkpt lat="-39.6288130" lon="-72.8211530">
        <ele>222.2</ele>
        <time>2024-01-01T10:53:12Z</time>
      </trkpt>
      <trkpt lat="-39.6273480" lon="-72.8195180">
        <ele>241.8</ele>
        <time>2024-01-01T10:53:57Z</time>
      </trkpt>
      <trkpt lat="-39.6268080" lon="-72.8191200">
        <ele>250.3</ele>
        <time>2024-01-01T10:54:12Z</time>
      </trkpt>
      <trkpt lat="-39.6262440" lon="-72.8183500">
        <ele>260.4</ele>
        <time>2024-01-01T10:54:33Z</time>
      </trkpt>
      <trkpt lat="-39.6256930" lon="-72.8168630">
        <ele>261.6</ele>
        <time>2024-01-01T10:54:45Z</time>
      </trkpt>
      <trkpt lat="-39.6253500" lon="-72.8140760">
        <ele>293.6</ele>
        <time>2024-01-01T10:55:42Z</time>
      </trkpt>
      <trkpt lat="-39.6247600" lon="-72.8127950">
        <ele>303.0</ele>
        <time>2024-01-01T10:56:03Z</time>
      </trkpt>
      <trkpt lat="-39.6245980" lon="-72.8110240">
        <ele>324.1</ele>
        <time>2024-01-01T10:56:39Z</time>
      </trkpt>
      <trkpt lat="-39.6241430" lon="-72.8094710">
        <ele>338.2</ele>
        <time>2024-01-01T10:57:06Z</time>
      </trkpt>
      <trkpt lat="-39.6233640" lon="-72.8084720">
        <ele>341.4</ele>
        <time>2024-01-01T10:57:24Z</time>
      </trkpt>
      <trkpt lat="-39.6228910" lon="-72.8074740">
        <ele>331.9</ele>
        <time>2024-01-01T10:57:33Z</time>
      </trkpt>
      <trkpt lat="-39.6213540" lon="-72.8070210">
        <ele>331.0</ele>
        <time>2024-01-01T10:57:45Z</time>
      </trkpt>
      <trkpt lat="-39.6206500" lon="-72.8070200">
        <ele>331.7</ele>
        <time>2024-01-01T10:57:51Z</time>
      </trkpt>
      <trkpt lat="-39.6186630" lon="-72.8088510">
        <ele>343.1</ele>
        <time>2024-01-01T10:58:30Z</time>
      </trkpt>
      <trkpt lat="-39.6179760" lon="-72.8093610">
        <ele>343.7</ele>
        <time>2024-01-01T10:58:36Z</time>
      </trkpt>
      <trkpt lat="-39.6171710" lon="-72.8096020">
        <ele>344.2</ele>
        <time>2024-01-01T10:58:42Z</time>
      </trkpt>
      <trkpt lat="-39.6160540" lon="-72.8097360">
        <ele>343.3</ele>
        <time>2024-01-01T10:58:51Z</time>
      </trkpt>
      <trkpt lat="-39.6153560" lon="-72.8100290">
        <ele>339.5</ele>
        <time>2024-01-01T10:58:57Z</time>
      </trkpt>
      <trkpt lat="-39.6151770" lon="-72.8101880">
        <ele>340.0</ele>
        <time>2024-01-01T10:59:00Z</time>
      </trkpt>
      <trkpt lat="-39.6146880" lon="-72.8110680">
        <ele>347.5</ele>
        <time>2024-01-01T10:59:12Z</time>
      </trkpt>
      <trkpt lat="-39.6143420" lon="-72.8115050">
        <ele>352.4</ele>
        <time>2024-01-01T10:59:21Z</time>
      </trkpt>
      <trkpt lat="-39.6114590" lon="-72.8143820">
        <ele>337.9</ele>
        <time>2024-01-01T10:59:45Z</time>
      </trkpt>
      <trkpt lat="-39.6103770" lon="-72.8150040">
        <ele>325.8</ele>
        <time>2024-01-01T10:59:54Z</time>
      </trkpt>
      <trkpt lat="-39.6097580" lon="-72.8151860">
        <ele>327.1</ele>
        <time>2024-01-01T11:00:00Z</time>
      </trkpt>
      <trkpt lat="-39.6086880" lon="-72.8157100">
        <ele>340.3</ele>
        <time>2024-01-01T11:00:15Z</time>
      </trkpt>
      <trkpt lat="-39.6083320" lon="-72.8160510">
        <ele>348.7</ele>
        <time>2024-01-01T11:00:27Z</time>
      </trkpt>
      <trkpt lat="-39.6079630" lon="-72.8165910">
        <ele>356.4</ele>
        <time>2024-01-01T11:00:42Z</time>
      </trkpt>
      <trkpt lat="-39.6074550" lon="-72.8176800">
        <ele>355.5</ele>
        <time>2024-01-01T11:00:51Z</time>
      </trkpt>
      <trkpt lat="-39.6062370" lon="-72.8192430">
        <ele>350.4</ele>
        <time>2024-01-01T11:01:03Z</time>
      </trkpt>
      <trkpt lat="-39.6049110" lon="-72.8216080">
        <ele>349.7</ele>
        <time>2024-01-01T11:01:18Z</time>
      </trkpt>
      <trkpt lat="-39.6044770" lon="-72.8225880">
        <ele>337.6</ele>
        <time>2024-01-01T11:01:24Z</time>
      </trkpt>
      <trkpt lat="-39.6043360" lon="-72.8239370">
        <ele>333.2</ele>
        <time>2024-01-01T11:01:33Z</time>
      </trkpt>
      <trkpt lat="-39.6040290" lon="-72.8252680">
        <ele>326.5</ele>
        <time>2024-01-01T11:01:39Z</time>
      </trkpt>
      <trkpt lat="-39.6039770" lon="-72.8260280">
        <ele>326.0</ele>
        <time>2024-01-01T11:01:45Z</time>
      </trkpt>
      <trkpt lat="-39.6043850" lon="-72.8271850">
        <ele>331.4</ele>
        <time>2024-01-01T11:02:00Z</time>
      </trkpt>
      <trkpt lat="-39.6047020" lon="-72.8276750">
        <ele>336.1</ele>
        <time>2024-01-01T11:02:09Z</time>
      </trkpt>
      <trkpt lat="-39.6048050" lon="-72.8280480">
        <ele>337.9</ele>
        <time>2024-01-01T11:02:15Z</time>
      </trkpt>
      <trkpt lat="-39.6043000" lon="-72.8291620">
        <ele>345.1</ele>
        <time>2024-01-01T11:02:36Z</time>
      </trkpt>
      <trkpt lat="-39.6040880" lon="-72.8293850">
        <ele>346.5</ele>
        <time>2024-01-01T11:02:42Z</time>
      </trkpt>
      <trkpt lat="-39.6038060" lon="-72.8294940">
        <ele>347.0</ele>
        <time>2024-01-01T11:02:51Z</time>
      </trkpt>
      <trkpt lat="-39.6045680" lon="-72.8295670">
        <ele>337.0</ele>
        <time>2024-01-01T11:03:03Z</time>
      </trkpt>
      <trkpt lat="-39.6055340" lon="-72.8298770">
        <ele>324.4</ele>
        <time>2024-01-01T11:03:12Z</time>
      </trkpt>
      <trkpt lat="-39.6058610" lon="-72.8307890">
        <ele>310.7</ele>
        <time>2024-01-01T11:03:21Z</time>
      </trkpt>
      <trkpt lat="-39.6062370" lon="-72.8312100">
        <ele>304.2</ele>
        <time>2024-01-01T11:03:24Z</time>
      </trkpt>
      <trkpt lat="-39.6070040" lon="-72.8317580">
        <ele>288.6</ele>
        <time>2024-01-01T11:03:30Z</time>
      </trkpt>
      <trkpt lat="-39.6071640" lon="-72.8317850">
        <ele>284.8</ele>
        <time>2024-01-01T11:03:33Z</time>
      </trkpt>
      <trkpt lat="-39.6077770" lon="-72.8315980">
        <ele>274.1</ele>
        <time>2024-01-01T11:03:39Z</time>
      </trkpt>
      <trkpt lat="-39.6080310" lon="-72.8315970">
        <ele>272.8</ele>
        <time>2024-01-01T11:03:42Z</time>
      </trkpt>
      <trkpt lat="-39.6085420" lon="-72.8316850">
        <ele>272.5</ele>
        <time>2024-01-01T11:03:48Z</time>
      </trkpt>
      <trkpt lat="-39.6088340" lon="-72.8318320">
        <ele>269.7</ele>
        <time>2024-01-01T11:03:51Z</time>
      </trkpt>
      <trkpt lat="-39.6091630" lon="-72.8322180">
        <ele>264.1</ele>
        <time>2024-01-01T11:03:57Z</time>
      </trkpt>
      <trkpt lat="-39.6100360" lon="-72.8326820">
        <ele>249.7</ele>
        <time>2024-01-01T11:04:06Z</time>
      </trkpt>
      <trkpt lat="-39.6106490" lon="-72.8334430">
        <ele>240.3</ele>
        <time>2024-01-01T11:04:12Z</time>
      </trkpt>
      <trkpt lat="-39.6111770" lon="-72.8339400">
        <ele>235.9</ele>
        <time>2024-01-01T11:04:18Z</time>
      </trkpt>
      <trkpt lat="-39.6129750" lon="-72.8341890">
        <ele>230.5</ele>
        <time>2024-01-01T11:04:36Z</time>
      </trkpt>
      <trkpt lat="-39.6136350" lon="-72.8345600">
        <ele>224.7</ele>
        <time>2024-01-01T11:04:42Z</time>
      </trkpt>
      <trkpt lat="-39.6141130" lon="-72.8352890">
        <ele>218.8</ele>
        <time>2024-01-01T11:04:48Z</time>
      </trkpt>
      <trkpt lat="-39.6152830" lon="-72.8364120">
        <ele>207.2</ele>
        <time>2024-01-01T11:05:06Z</time>
      </trkpt>
      <trkpt lat="-39.6160010" lon="-72.8379510">
        <ele>201.1</ele>
        <time>2024-01-01T11:05:21Z</time>
      </trkpt>
      <trkpt lat="-39.6162780" lon="-72.8381970">
        <ele>196.2</ele>
        <time>2024-01-01T11:05:24Z</time>
      </trkpt>
      <trkpt lat="-39.6167730" lon="-72.8388810">
        <ele>189.2</ele>
        <time>2024-01-01T11:05:33Z</time>
      </trkpt>
      <trkpt lat="-39.6170700" lon="-72.8390180">
        <ele>184.7</ele>
        <time>2024-01-01T11:05:39Z</time>
      </trkpt>
      <trkpt lat="-39.6174250" lon="-72.8393600">
        <ele>178.7</ele>
        <time>2024-01-01T11:05:45Z</time>
      </trkpt>
      <trkpt lat="-39.6183130" lon="-72.8412180">
        <ele>155.8</ele>
        <time>2024-01-01T11:05:57Z</time>
      </trkpt>
      <trkpt lat="-39.6190380" lon="-72.8421890">
        <ele>142.7</ele>
        <time>2024-01-01T11:06:09Z</time>
      </trkpt>
      <trkpt lat="-39.6191280" lon="-72.8427880">
        <ele>143.5</ele>
        <time>2024-01-01T11:06:18Z</time>
      </trkpt>
      <trkpt lat="-39.6192220" lon="-72.8430010">
        <ele>143.6</ele>
        <time>2024-01-01T11:06:21Z</time>
      </trkpt>
      <trkpt lat="-39.6194040" lon="-72.8431270">
        <ele>142.7</ele>
        <time>2024-01-01T11:06:24Z</time>
      </trkpt>
      <trkpt lat="-39.6197800" lon="-72.8432050">
        <ele>129.7</ele>
        <time>2024-01-01T11:06:30Z</time>
      </trkpt>
      <trkpt lat="-39.6199370" lon="-72.8431390">
        <ele>126.5</ele>
        <time>2024-01-01T11:06:36Z</time>
      </trkpt>
      <trkpt lat="-39.6201950" lon="-72.8427520">
        <ele>125.5</ele>
        <time>2024-01-01T11:06:42Z</time>
      </trkpt>
      <trkpt lat="-39.6204790" lon="-72.8419550">
        <ele>116.7</ele>
        <time>2024-01-01T11:06:54Z</time>
      </trkpt>
      <trkpt lat="-39.6211660" lon="-72.8420040">
        <ele>111.5</ele>
        <time>2024-01-01T11:07:06Z</time>
      </trkpt>
      <trkpt lat="-39.6222810" lon="-72.8417210">
        <ele>123.9</ele>
        <time>2024-01-01T11:07:30Z</time>
      </trkpt>
      <trkpt lat="-39.6228220" lon="-72.8413700">
        <ele>129.9</ele>
        <time>2024-01-01T11:07:45Z</time>
      </trkpt>
      <trkpt lat="-39.6239830" lon="-72.8402880">
        <ele>137.5</ele>
        <time>2024-01-01T11:08:06Z</time>
      </trkpt>
      <trkpt lat="-39.6247750" lon="-72.8396690">
        <ele>140.6</ele>
        <time>2024-01-01T11:08:18Z</time>
      </trkpt>
      <trkpt lat="-39.6258960" lon="-72.8392980">
        <ele>144.6</ele>
        <time>2024-01-01T11:08:33Z</time>
      </trkpt>
      <trkpt lat="-39.6262910" lon="-72.8390430">
        <ele>147.6</ele>
        <time>2024-01-01T11:08:39Z</time>
      </trkpt>
      <trkpt lat="-39.6269950" lon="-72.8382850">
        <ele>148.8</ele>
        <time>2024-01-01T11:08:51Z</time>
      </trkpt>
      <trkpt lat="-39.6276450" lon="-72.8383040">
        <ele>146.6</ele>
        <time>2024-01-01T11:09:00Z</time>
      </trkpt>
      <trkpt lat="-39.6283500" lon="-72.8388800">
        <ele>151.6</ele>
        <time>2024-01-01T11:09:12Z</time>
      </trkpt>
      <trkpt lat="-39.6300940" lon="-72.8389620">
        <ele>144.9</ele>
        <time>2024-01-01T11:09:33Z</time>
      </trkpt>
      <trkpt lat="-39.6306660" lon="-72.8394800">
        <ele>142.1</ele>
        <time>2024-01-01T11:09:39Z</time>
      </trkpt>
      <trkpt lat="-39.6309850" lon="-72.8396180">
        <ele>139.0</ele>
        <time>2024-01-01T11:09:45Z</time>
      </trkpt>
      <trkpt lat="-39.6319410" lon="-72.8395460">
        <ele>124.4</ele>
        <time>2024-01-01T11:09:54Z</time>
      </trkpt>
      <trkpt lat="-39.6327540" lon="-72.8397800">
        <ele>117.7</ele>
        <time>2024-01-01T11:10:00Z</time>
      </trkpt>
      <trkpt lat="-39.6331310" lon="-72.8398110">
        <ele>117.4</ele>
        <time>2024-01-01T11:10:03Z</time>
      </trkpt>
      <trkpt lat="-39.6339020" lon="-72.8396980">
        <ele>118.9</ele>
        <time>2024-01-01T11:10:09Z</time>
      </trkpt>
      <trkpt lat="-39.6342750" lon="-72.8397390">
        <ele>117.6</ele>
        <time>2024-01-01T11:10:12Z</time>
      </trkpt>
      <trkpt lat="-39.6344220" lon="-72.8396760">
        <ele>116.7</ele>
        <time>2024-01-01T11:10:15Z</time>
      </trkpt>
      <trkpt lat="-39.6348350" lon="-72.8391150">
        <ele>114.9</ele>
        <time>2024-01-01T11:10:24Z</time>
      </trkpt>
      <trkpt lat="-39.6349840" lon="-72.8390790">
        <ele>114.8</ele>
        <time>2024-01-01T11:10:30Z</time>
      </trkpt>
      <trkpt lat="-39.6354260" lon="-72.8394630">
        <ele>114.1</ele>
        <time>2024-01-01T11:10:36Z</time>
      </trkpt>
      <trkpt lat="-39.6362060" lon="-72.8405820">
        <ele>110.5</ele>
        <time>2024-01-01T11:10:42Z</time>
      </trkpt>
      <trkpt lat="-39.6374330" lon="-72.8431760">
        <ele>132.3</ele>
        <time>2024-01-01T11:11:30Z</time>
      </trkpt>
      <trkpt lat="-39.6392710" lon="-72.8462190">
        <ele>170.6</ele>
        <time>2024-01-01T11:12:54Z</time>
      </trkpt>
      <trkpt lat="-39.6396030" lon="-72.8474020">
        <ele>184.3</ele>
        <time>2024-01-01T11:13:21Z</time>
      </trkpt>
      <trkpt lat="-39.6396400" lon="-72.8478310">
        <ele>188.3</ele>
        <time>2024-01-01T11:13:30Z</time>
      </trkpt>
      <trkpt lat="-39.6394800" lon="-72.8489110">
        <ele>194.3</ele>
        <time>2024-01-01T11:13:48Z</time>
      </trkpt>
      <trkpt lat="-39.6388880" lon="-72.8503310">
        <ele>189.2</ele>
        <time>2024-01-01T11:14:00Z</time>
      </trkpt>
      <trkpt lat="-39.6396260" lon="-72.8502110">
        <ele>186.3</ele>
        <time>2024-01-01T11:14:15Z</time>
      </trkpt>
      <trkpt lat="-39.6398240" lon="-72.8503350">
        <ele>184.6</ele>
        <time>2024-01-01T11:14:21Z</time>
      </trkpt>
      <trkpt lat="-39.6403760" lon="-72.8520010">
        <ele>178.9</ele>
        <time>2024-01-01T11:14:33Z</time>
      </trkpt>
      <trkpt lat="-39.6406220" lon="-72.8520690">
        <ele>181.2</ele>
        <time>2024-01-01T11:14:39Z</time>
      </trkpt>
      <trkpt lat="-39.6407420" lon="-72.8519980">
        <ele>182.0</ele>
        <time>2024-01-01T11:14:42Z</time>
      </trkpt>
      <trkpt lat="-39.6410670" lon="-72.8516140">
        <ele>183.0</ele>
        <time>2024-01-01T11:14:51Z</time>
      </trkpt>
      <trkpt lat="-39.6415580" lon="-72.8513740">
        <ele>178.7</ele>
        <time>2024-01-01T11:14:57Z</time>
      </trkpt>
      <trkpt lat="-39.6419400" lon="-72.8508390">
        <ele>178.0</ele>
        <time>2024-01-01T11:15:03Z</time>
      </trkpt>
      <trkpt lat="-39.6419990" lon="-72.8504090">
        <ele>179.8</ele>
        <time>2024-01-01T11:15:09Z</time>
      </trkpt>
      <trkpt lat="-39.6418590" lon="-72.8498600">
        <ele>176.0</ele>
        <time>2024-01-01T11:15:12Z</time>
      </trkpt>
      <trkpt lat="-39.6418400" lon="-72.8494310">
        <ele>172.6</ele>
        <time>2024-01-01T11:15:18Z</time>
      </trkpt>
      <trkpt lat="-39.6422670" lon="-72.8484540">
        <ele>170.8</ele>
        <time>2024-01-01T11:15:27Z</time>
      </trkpt>
      <trkpt lat="-39.6423840" lon="-72.8483800">
        <ele>171.3</ele>
        <time>2024-01-01T11:15:30Z</time>
      </trkpt>
      <trkpt lat="-39.6427520" lon="-72.8483740">
        <ele>173.2</ele>
        <time>2024-01-01T11:15:36Z</time>
      </trkpt>
      <trkpt lat="-39.6442600" lon="-72.8496760">
        <ele>185.7</ele>
        <time>2024-01-01T11:16:03Z</time>
      </trkpt>
      <trkpt lat="-39.6446920" lon="-72.8499150">
        <ele>185.0</ele>
        <time>2024-01-01T11:16:09Z</time>
      </trkpt>
      <trkpt lat="-39.6448850" lon="-72.8499260">
        <ele>184.6</ele>
        <time>2024-01-01T11:16:12Z</time>
      </trkpt>
      <trkpt lat="-39.6451460" lon="-72.8498680">
        <ele>183.9</ele>
        <time>2024-01-01T11:16:15Z</time>
      </trkpt>
      <trkpt lat="-39.6454480" lon="-72.8496110">
        <ele>181.9</ele>
        <time>2024-01-01T11:16:21Z</time>
      </trkpt>
      <trkpt lat="-39.6455680" lon="-72.8493770">
        <ele>180.4</ele>
        <time>2024-01-01T11:16:24Z</time>
      </trkpt>
      <trkpt lat="-39.6457560" lon="-72.8485470">
        <ele>174.7</ele>
        <time>2024-01-01T11:16:33Z</time>
      </trkpt>
      <trkpt lat="-39.6459880" lon="-72.8484010">
        <ele>172.1</ele>
        <time>2024-01-01T11:16:42Z</time>
      </trkpt>
      <trkpt lat="-39.6462310" lon="-72.8485700">
        <ele>170.7</ele>
        <time>2024-01-01T11:16:51Z</time>
      </trkpt>
      <trkpt lat="-39.6465330" lon="-72.8493780">
        <ele>168.0</ele>
        <time>2024-01-01T11:17:00Z</time>
      </trkpt>
      <trkpt lat="-39.6468950" lon="-72.8496990">
        <ele>166.4</ele>
        <time>2024-01-01T11:17:09Z</time>
      </trkpt>
      <trkpt lat="-39.6468730" lon="-72.8498740">
        <ele>166.4</ele>
        <time>2024-01-01T11:17:15Z</time>
      </trkpt>
      <trkpt lat="-39.6465570" lon="-72.8502250">
        <ele>168.0</ele>
        <time>2024-01-01T11:17:21Z</time>
      </trkpt>
      <trkpt lat="-39.6465210" lon="-72.8504470">
        <ele>169.2</ele>
        <time>2024-01-01T11:17:24Z</time>
      </trkpt>
      <trkpt lat="-39.6468720" lon="-72.8517640">
        <ele>180.6</ele>
        <time>2024-01-01T11:17:45Z</time>
      </trkpt>
      <trkpt lat="-39.6470760" lon="-72.8518120">
        <ele>182.5</ele>
        <time>2024-01-01T11:17:51Z</time>
      </trkpt>
      <trkpt lat="-39.6476520" lon="-72.8512810">
        <ele>187.7</ele>
        <time>2024-01-01T11:18:06Z</time>
      </trkpt>
      <trkpt lat="-39.6480870" lon="-72.8511450">
        <ele>186.7</ele>
        <time>2024-01-01T11:18:12Z</time>
      </trkpt>
      <trkpt lat="-39.6482200" lon="-72.8511810">
        <ele>186.0</ele>
        <time>2024-01-01T11:18:15Z</time>
      </trkpt>
      <trkpt lat="-39.6485260" lon="-72.8514920">
        <ele>184.4</ele>
        <time>2024-01-01T11:18:21Z</time>
      </trkpt>
      <trkpt lat="-39.6486390" lon="-72.8517500">
        <ele>184.2</ele>
        <time>2024-01-01T11:18:24Z</time>
      </trkpt>
      <trkpt lat="-39.6487710" lon="-72.8528300">
        <ele>187.3</ele>
        <time>2024-01-01T11:18:33Z</time>
      </trkpt>
      <trkpt lat="-39.6490130" lon="-72.8532620">
        <ele>187.9</ele>
        <time>2024-01-01T11:18:39Z</time>
      </trkpt>
      <trkpt lat="-39.6492810" lon="-72.8533250">
        <ele>187.2</ele>
        <time>2024-01-01T11:18:45Z</time>
      </trkpt>
      <trkpt lat="-39.6495540" lon="-72.8531140">
        <ele>187.1</ele>
        <time>2024-01-01T11:18:51Z</time>
      </trkpt>
      <trkpt lat="-39.6496320" lon="-72.8529450">
        <ele>187.1</ele>
        <time>2024-01-01T11:18:54Z</time>
      </trkpt>
      <trkpt lat="-39.6495140" lon="-72.8519960">
        <ele>188.3</ele>
        <time>2024-01-01T11:19:06Z</time>
      </trkpt>
      <trkpt lat="-39.6498660" lon="-72.8511240">
        <ele>197.6</ele>
        <time>2024-01-01T11:19:21Z</time>
      </trkpt>
      <trkpt lat="-39.6497780" lon="-72.8502650">
        <ele>197.6</ele>
        <time>2024-01-01T11:19:30Z</time>
      </trkpt>
      <trkpt lat="-39.6498300" lon="-72.8498880">
        <ele>195.4</ele>
        <time>2024-01-01T11:19:36Z</time>
      </trkpt>
      <trkpt lat="-39.6500820" lon="-72.8496390">
        <ele>193.9</ele>
        <time>2024-01-01T11:19:45Z</time>
      </trkpt>
      <trkpt lat="-39.6504450" lon="-72.8497600">
        <ele>192.0</ele>
        <time>2024-01-01T11:19:51Z</time>
      </trkpt>
      <trkpt lat="-39.6508850" lon="-72.8501810">
        <ele>189.8</ele>
        <time>2024-01-01T11:19:57Z</time>
      </trkpt>
      <trkpt lat="-39.6511670" lon="-72.8506330">
        <ele>189.3</ele>
        <time>2024-01-01T11:20:00Z</time>
      </trkpt>
      <trkpt lat="-39.6515250" lon="-72.8515030">
        <ele>187.9</ele>
        <time>2024-01-01T11:20:06Z</time>
      </trkpt>
      <trkpt lat="-39.6515580" lon="-72.8520720">
        <ele>187.4</ele>
        <time>2024-01-01T11:20:12Z</time>
      </trkpt>
      <trkpt lat="-39.6513720" lon="-72.8528570">
        <ele>187.2</ele>
        <time>2024-01-01T11:20:21Z</time>
      </trkpt>
      <trkpt lat="-39.6511550" lon="-72.8533740">
        <ele>185.4</ele>
        <time>2024-01-01T11:20:24Z</time>
      </trkpt>
      <trkpt lat="-39.6511530" lon="-72.8537050">
        <ele>184.1</ele>
        <time>2024-01-01T11:20:30Z</time>
      </trkpt>
      <trkpt lat="-39.6518650" lon="-72.8547240">
        <ele>183.3</ele>
        <time>2024-01-01T11:20:51Z</time>
      </trkpt>
      <trkpt lat="-39.6524100" lon="-72.8544980">
        <ele>187.1</ele>
        <time>2024-01-01T11:21:03Z</time>
      </trkpt>
      <trkpt lat="-39.6528280" lon="-72.8547510">
        <ele>190.0</ele>
        <time>2024-01-01T11:21:12Z</time>
      </trkpt>
      <trkpt lat="-39.6536850" lon="-72.8546730">
        <ele>195.3</ele>
        <time>2024-01-01T11:21:27Z</time>
      </trkpt>
      <trkpt lat="-39.6538440" lon="-72.8547400">
        <ele>195.7</ele>
        <time>2024-01-01T11:21:30Z</time>
      </trkpt>
      <trkpt lat="-39.6539600" lon="-72.8549850">
        <ele>195.7</ele>
        <time>2024-01-01T11:21:36Z</time>
      </trkpt>
      <trkpt lat="-39.6539090" lon="-72.8558700">
        <ele>195.3</ele>
        <time>2024-01-01T11:21:45Z</time>
      </trkpt>
      <trkpt lat="-39.6540390" lon="-72.8562310">
        <ele>195.5</ele>
        <time>2024-01-01T11:21:48Z</time>
      </trkpt>
      <trkpt lat="-39.6543690" lon="-72.8567060">
        <ele>196.8</ele>
        <time>2024-01-01T11:21:54Z</time>
      </trkpt>
      <trkpt lat="-39.6545900" lon="-72.8574400">
        <ele>202.8</ele>
        <time>2024-01-01T11:22:03Z</time>
      </trkpt>
      <trkpt lat="-39.6550170" lon="-72.8582490">
        <ele>204.9</ele>
        <time>2024-01-01T11:22:12Z</time>
      </trkpt>
      <trkpt lat="-39.6550330" lon="-72.8585710">
        <ele>205.0</ele>
        <time>2024-01-01T11:22:18Z</time>
      </trkpt>
      <trkpt lat="-39.6545800" lon="-72.8594940">
        <ele>211.1</ele>
        <time>2024-01-01T11:22:30Z</time>
      </trkpt>
      <trkpt lat="-39.6544640" lon="-72.8603400">
        <ele>214.8</ele>
        <time>2024-01-01T11:22:39Z</time>
      </trkpt>
      <trkpt lat="-39.6545980" lon="-72.8609250">
        <ele>216.1</ele>
        <time>2024-01-01T11:22:45Z</time>
      </trkpt>
      <trkpt lat="-39.6552120" lon="-72.8618540">
        <ele>218.2</ele>
        <time>2024-01-01T11:22:54Z</time>
      </trkpt>
      <trkpt lat="-39.6554110" lon="-72.8624000">
        <ele>220.0</ele>
        <time>2024-01-01T11:23:00Z</time>
      </trkpt>
      <trkpt lat="-39.6554840" lon="-72.8649850">
        <ele>219.5</ele>
        <time>2024-01-01T11:23:15Z</time>
      </trkpt>
      <trkpt lat="-39.6553420" lon="-72.8657450">
        <ele>217.7</ele>
        <time>2024-01-01T11:23:21Z</time>
      </trkpt>
      <trkpt lat="-39.6547950" lon="-72.8668400">
        <ele>217.5</ele>
        <time>2024-01-01T11:23:30Z</time>
      </trkpt>
      <trkpt lat="-39.6547710" lon="-72.8670870">
        <ele>217.4</ele>
        <time>2024-01-01T11:23:33Z</time>
      </trkpt>
      <trkpt lat="-39.6549240" lon="-72.8675240">
        <ele>217.3</ele>
        <time>2024-01-01T11:23:39Z</time>
      </trkpt>
      <trkpt lat="-39.6551040" lon="-72.8676910">
        <ele>217.8</ele>
        <time>2024-01-01T11:23:42Z</time>
      </trkpt>
      <trkpt lat="-39.6555700" lon="-72.8679460">
        <ele>219.4</ele>
        <time>2024-01-01T11:23:48Z</time>
      </trkpt>
      <trkpt lat="-39.6562280" lon="-72.8680640">
        <ele>223.0</ele>
        <time>2024-01-01T11:23:57Z</time>
      </trkpt>
      <trkpt lat="-39.6567610" lon="-72.8687660">
        <ele>227.7</ele>
        <time>2024-01-01T11:24:06Z</time>
      </trkpt>
      <trkpt lat="-39.6568900" lon="-72.8692750">
        <ele>230.6</ele>
        <time>2024-01-01T11:24:12Z</time>
      </trkpt>
      <trkpt lat="-39.6567440" lon="-72.8707940">
        <ele>236.8</ele>
        <time>2024-01-01T11:24:27Z</time>
      </trkpt>
      <trkpt lat="-39.6569110" lon="-72.8711930">
        <ele>238.1</ele>
        <time>2024-01-01T11:24:33Z</time>
      </trkpt>
      <trkpt lat="-39.6570940" lon="-72.8713920">
        <ele>238.8</ele>
        <time>2024-01-01T11:24:36Z</time>
      </trkpt>
      <trkpt lat="-39.6577080" lon="-72.8715870">
        <ele>238.5</ele>
        <time>2024-01-01T11:24:42Z</time>
      </trkpt>
      <trkpt lat="-39.6582880" lon="-72.8713140">
        <ele>235.5</ele>
        <time>2024-01-01T11:24:51Z</time>
      </trkpt>
      <trkpt lat="-39.6584040" lon="-72.8713280">
        <ele>235.0</ele>
        <time>2024-01-01T11:24:57Z</time>
      </trkpt>
      <trkpt lat="-39.6584720" lon="-72.8714490">
        <ele>234.5</ele>
        <time>2024-01-01T11:25:03Z</time>
      </trkpt>
      <trkpt lat="-39.6583520" lon="-72.8721190">
        <ele>233.7</ele>
        <time>2024-01-01T11:25:12Z</time>
      </trkpt>
      <trkpt lat="-39.6584770" lon="-72.8724220">
        <ele>234.1</ele>
        <time>2024-01-01T11:25:18Z</time>
      </trkpt>
      <trkpt lat="-39.6587600" lon="-72.8725690">
        <ele>235.1</ele>
        <time>2024-01-01T11:25:24Z</time>
      </trkpt>
      <trkpt lat="-39.6590740" lon="-72.8725320">
        <ele>235.8</ele>
        <time>2024-01-01T11:25:27Z</time>
      </trkpt>
      <trkpt lat="-39.6594170" lon="-72.8726270">
        <ele>236.5</ele>
        <time>2024-01-01T11:25:30Z</time>
      </trkpt>
      <trkpt lat="-39.6599460" lon="-72.8728840">
        <ele>239.1</ele>
        <time>2024-01-01T11:25:36Z</time>
      </trkpt>
      <trkpt lat="-39.6603190" lon="-72.8733560">
        <ele>243.1</ele>
        <time>2024-01-01T11:25:42Z</time>
      </trkpt>
      <trkpt lat="-39.6607920" lon="-72.8742510">
        <ele>245.4</ele>
        <time>2024-01-01T11:25:51Z</time>
      </trkpt>
      <trkpt lat="-39.6613080" lon="-72.8745740">
        <ele>243.6</ele>
        <time>2024-01-01T11:25:57Z</time>
      </trkpt>
      <trkpt lat="-39.6620090" lon="-72.8747450">
        <ele>245.0</ele>
        <time>2024-01-01T11:26:03Z</time>
      </trkpt>
      <trkpt lat="-39.6630780" lon="-72.8746630">
        <ele>246.7</ele>
        <time>2024-01-01T11:26:12Z</time>
      </trkpt>
      <trkpt lat="-39.6635280" lon="-72.8744120">
        <ele>247.7</ele>
        <time>2024-01-01T11:26:18Z</time>
      </trkpt>
      <trkpt lat="-39.6638810" lon="-72.8738560">
        <ele>248.6</ele>
        <time>2024-01-01T11:26:24Z</time>
      </trkpt>
      <trkpt lat="-39.6640400" lon="-72.8737630">
        <ele>248.9</ele>
        <time>2024-01-01T11:26:27Z</time>
      </trkpt>
      <trkpt lat="-39.6647400" lon="-72.8736550">
        <ele>251.2</ele>
        <time>2024-01-01T11:26:33Z</time>
      </trkpt>
      <trkpt lat="-39.6650890" lon="-72.8736880">
        <ele>253.2</ele>
        <time>2024-01-01T11:26:39Z</time>
      </trkpt>
      <trkpt lat="-39.6654180" lon="-72.8740870">
        <ele>256.0</ele>
        <time>2024-01-01T11:26:45Z</time>
      </trkpt>
      <trkpt lat="-39.6657090" lon="-72.8750590">
        <ele>258.1</ele>
        <time>2024-01-01T11:26:54Z</time>
      </trkpt>
      <trkpt lat="-39.6663950" lon="-72.8763610">
        <ele>246.7</ele>
        <time>2024-01-01T11:27:03Z</time>
      </trkpt>
      <trkpt lat="-39.6664580" lon="-72.8767070">
        <ele>245.8</ele>
        <time>2024-01-01T11:27:12Z</time>
      </trkpt>
      <trkpt lat="-39.6661090" lon="-72.8775100">
        <ele>247.5</ele>
        <time>2024-01-01T11:27:21Z</time>
      </trkpt>
      <trkpt lat="-39.6658680" lon="-72.8787070">
        <ele>247.1</ele>
        <time>2024-01-01T11:27:30Z</time>
      </trkpt>
      <trkpt lat="-39.6655300" lon="-72.8794670">
        <ele>243.4</ele>
        <time>2024-01-01T11:27:36Z</time>
      </trkpt>
      <trkpt lat="-39.6652540" lon="-72.8806520">
        <ele>236.7</ele>
        <time>2024-01-01T11:27:45Z</time>
      </trkpt>
      <trkpt lat="-39.6647660" lon="-72.8816540">
        <ele>227.6</ele>
        <time>2024-01-01T11:27:51Z</time>
      </trkpt>
      <trkpt lat="-39.6640810" lon="-72.8825400">
        <ele>215.9</ele>
        <time>2024-01-01T11:28:00Z</time>
      </trkpt>
      <trkpt lat="-39.6639960" lon="-72.8827900">
        <ele>212.7</ele>
        <time>2024-01-01T11:28:06Z</time>
      </trkpt>
      <trkpt lat="-39.6640170" lon="-72.8830210">
        <ele>209.5</ele>
        <time>2024-01-01T11:28:12Z</time>
      </trkpt>
      <trkpt lat="-39.6644950" lon="-72.8839020">
        <ele>198.2</ele>
        <time>2024-01-01T11:28:21Z</time>
      </trkpt>
      <trkpt lat="-39.6646170" lon="-72.8845350">
        <ele>193.8</ele>
        <time>2024-01-01T11:28:27Z</time>
      </trkpt>
      <trkpt lat="-39.6643950" lon="-72.8857910">
        <ele>189.1</ele>
        <time>2024-01-01T11:28:36Z</time>
      </trkpt>
      <trkpt lat="-39.6646200" lon="-72.8874510">
        <ele>186.3</ele>
        <time>2024-01-01T11:28:45Z</time>
      </trkpt>
      <trkpt lat="-39.6644760" lon="-72.8879290">
        <ele>183.4</ele>
        <time>2024-01-01T11:28:51Z</time>
      </trkpt>
      <trkpt lat="-39.6644040" lon="-72.8903430">
        <ele>190.8</ele>
        <time>2024-01-01T11:29:09Z</time>
      </trkpt>
      <trkpt lat="-39.6642710" lon="-72.8915250">
        <ele>194.9</ele>
        <time>2024-01-01T11:29:18Z</time>
      </trkpt>
      <trkpt lat="-39.6640810" lon="-72.8919350">
        <ele>195.0</ele>
        <time>2024-01-01T11:29:24Z</time>
      </trkpt>
      <trkpt lat="-39.6634040" lon="-72.8923610">
        <ele>194.6</ele>
        <time>2024-01-01T11:29:30Z</time>
      </trkpt>
      <trkpt lat="-39.6630540" lon="-72.8927460">
        <ele>197.6</ele>
        <time>2024-01-01T11:29:36Z</time>
      </trkpt>
      <trkpt lat="-39.6627830" lon="-72.8936020">
        <ele>196.0</ele>
        <time>2024-01-01T11:29:42Z</time>
      </trkpt>
      <trkpt lat="-39.6625960" lon="-72.8947320">
        <ele>191.1</ele>
        <time>2024-01-01T11:29:48Z</time>
      </trkpt>
      <trkpt lat="-39.6620760" lon="-72.8957890">
        <ele>186.2</ele>
        <time>2024-01-01T11:29:54Z</time>
      </trkpt>
      <trkpt lat="-39.6619330" lon="-72.8963360">
        <ele>186.3</ele>
        <time>2024-01-01T11:30:00Z</time>
      </trkpt>
      <trkpt lat="-39.6620200" lon="-72.8966330">
        <ele>186.2</ele>
        <time>2024-01-01T11:30:06Z</time>
      </trkpt>
      <trkpt lat="-39.6626680" lon="-72.8970440">
        <ele>179.4</ele>
        <time>2024-01-01T11:30:15Z</time>
      </trkpt>
      <trkpt lat="-39.6629410" lon="-72.8975070">
        <ele>172.2</ele>
        <time>2024-01-01T11:30:21Z</time>
      </trkpt>
      <trkpt lat="-39.6631730" lon="-72.8994390">
        <ele>159.0</ele>
        <time>2024-01-01T11:30:33Z</time>
      </trkpt>
      <trkpt lat="-39.6635070" lon="-72.9000630">
        <ele>152.6</ele>
        <time>2024-01-01T11:30:48Z</time>
      </trkpt>
      <trkpt lat="-39.6634020" lon="-72.9003420">
        <ele>150.6</ele>
        <time>2024-01-01T11:30:54Z</time>
      </trkpt>
      <trkpt lat="-39.6626010" lon="-72.9015950">
        <ele>150.3</ele>
        <time>2024-01-01T11:31:03Z</time>
      </trkpt>
      <trkpt lat="-39.6626100" lon="-72.9019020">
        <ele>149.3</ele>
        <time>2024-01-01T11:31:15Z</time>
      </trkpt>
      <trkpt lat="-39.6627870" lon="-72.9019810">
        <ele>149.6</ele>
        <time>2024-01-01T11:31:21Z</time>
      </trkpt>
      <trkpt lat="-39.6632280" lon="-72.9019070">
        <ele>149.7</ele>
        <time>2024-01-01T11:31:27Z</time>
      </trkpt>
      <trkpt lat="-39.6633770" lon="-72.9021110">
        <ele>147.6</ele>
        <time>2024-01-01T11:31:33Z</time>
      </trkpt>
      <trkpt lat="-39.6634310" lon="-72.9025570">
        <ele>142.7</ele>
        <time>2024-01-01T11:31:39Z</time>
      </trkpt>
      <trkpt lat="-39.6635300" lon="-72.9026400">
        <ele>141.1</ele>
        <time>2024-01-01T11:31:45Z</time>
      </trkpt>
      <trkpt lat="-39.6636720" lon="-72.9026020">
        <ele>139.4</ele>
        <time>2024-01-01T11:31:51Z</time>
      </trkpt>
      <trkpt lat="-39.6638220" lon="-72.9023440">
        <ele>135.8</ele>
        <time>2024-01-01T11:32:00Z</time>
      </trkpt>
      <trkpt lat="-39.6638090" lon="-72.9015010">
        <ele>127.0</ele>
        <time>2024-01-01T11:32:06Z</time>
      </trkpt>
      <trkpt lat="-39.6639540" lon="-72.9009070">
        <ele>123.4</ele>
        <time>2024-01-01T11:32:15Z</time>
      </trkpt>
      <trkpt lat="-39.6641270" lon="-72.9007010">
        <ele>121.3</ele>
        <time>2024-01-01T11:32:21Z</time>
      </trkpt>
      <trkpt lat="-39.6649460" lon="-72.9002270">
        <ele>112.1</ele>
        <time>2024-01-01T11:32:30Z</time>
      </trkpt>
      <trkpt lat="-39.6656590" lon="-72.8990410">
        <ele>96.3</ele>
        <time>2024-01-01T11:32:39Z</time>
      </trkpt>
      <trkpt lat="-39.6657810" lon="-72.8988900">
        <ele>93.7</ele>
        <time>2024-01-01T11:32:42Z</time>
      </trkpt>
      <trkpt lat="-39.6659980" lon="-72.8988150">
        <ele>90.1</ele>
        <time>2024-01-01T11:32:48Z</time>
      </trkpt>
      <trkpt lat="-39.6661510" lon="-72.8990180">
        <ele>86.3</ele>
        <time>2024-01-01T11:32:57Z</time>
      </trkpt>
      <trkpt lat="-39.6662120" lon="-72.8998590">
        <ele>76.4</ele>
        <time>2024-01-01T11:33:06Z</time>
      </trkpt>
      <trkpt lat="-39.6663280" lon="-72.9001110">
        <ele>72.9</ele>
        <time>2024-01-01T11:33:12Z</time>
      </trkpt>
      <trkpt lat="-39.6669760" lon="-72.9005410">
        <ele>61.8</ele>
        <time>2024-01-01T11:33:21Z</time>
      </trkpt>
      <trkpt lat="-39.6672050" lon="-72.9008370">
        <ele>57.2</ele>
        <time>2024-01-01T11:33:30Z</time>
      </trkpt>
      <trkpt lat="-39.6675710" lon="-72.9023010">
        <ele>39.7</ele>
        <time>2024-01-01T11:33:45Z</time>
      </trkpt>
      <trkpt lat="-39.6664080" lon="-72.9059570">
        <ele>38.7</ele>
        <time>2024-01-01T11:34:06Z</time>
      </trkpt>
      <trkpt lat="-39.6655860" lon="-72.9081220">
        <ele>37.0</ele>
        <time>2024-01-01T11:34:18Z</time>
      </trkpt>
      <trkpt lat="-39.6650830" lon="-72.9089950">
        <ele>36.6</ele>
        <time>2024-01-01T11:34:27Z</time>
      </trkpt>
      <trkpt lat="-39.6641820" lon="-72.9173740">
        <ele>35.4</ele>
        <time>2024-01-01T11:35:09Z</time>
      </trkpt>
      <trkpt lat="-39.6632720" lon="-72.9306300">
        <ele>31.3</ele>
        <time>2024-01-01T11:36:12Z</time>
      </trkpt>
      <trkpt lat="-39.6633810" lon="-72.9306900">
        <ele>30.4</ele>
        <time>2024-01-01T11:36:18Z</time>
      </trkpt>
      <trkpt lat="-39.6644150" lon="-72.9301820">
        <ele>27.4</ele>
        <time>2024-01-01T11:36:33Z</time>
      </trkpt>
      <trkpt lat="-39.6656070" lon="-72.9298770">
        <ele>28.2</ele>
        <time>2024-01-01T11:36:42Z</time>
      </trkpt>
      <trkpt lat="-39.6657740" lon="-72.9299600">
        <ele>28.5</ele>
        <time>2024-01-01T11:36:48Z</time>
      </trkpt>
      <trkpt lat="-39.6652350" lon="-72.9339260">
        <ele>25.1</ele>
        <time>2024-01-01T11:37:12Z</time>
      </trkpt>
      <trkpt lat="-39.6649560" lon="-72.9346480">
        <ele>25.2</ele>
        <time>2024-01-01T11:37:21Z</time>
      </trkpt>
      <trkpt lat="-39.6647840" lon="-72.9359380">
        <ele>25.1</ele>
        <time>2024-01-01T11:37:30Z</time>
      </trkpt>
      <trkpt lat="-39.6648110" lon="-72.9363050">
        <ele>25.0</ele>
        <time>2024-01-01T11:37:33Z</time>
      </trkpt>
      <trkpt lat="-39.6651090" lon="-72.9372130">
        <ele>28.4</ele>
        <time>2024-01-01T11:37:45Z</time>
      </trkpt>
      <trkpt lat="-39.6663410" lon="-72.9391250">
        <ele>25.5</ele>
        <time>2024-01-01T11:38:18Z</time>
      </trkpt>
      <trkpt lat="-39.6663710" lon="-72.9399920">
        <ele>25.0</ele>
        <time>2024-01-01T11:38:27Z</time>
      </trkpt>
      <trkpt lat="-39.6663110" lon="-72.9402630">
        <ele>25.3</ele>
        <time>2024-01-01T11:38:30Z</time>
      </trkpt>
      <trkpt lat="-39.6655350" lon="-72.9416940">
        <ele>24.7</ele>
        <time>2024-01-01T11:38:42Z</time>
      </trkpt>
      <trkpt lat="-39.6650340" lon="-72.9419140">
        <ele>24.6</ele>
        <time>2024-01-01T11:38:48Z</time>
      </trkpt>
      <trkpt lat="-39.6647480" lon="-72.9421710">
        <ele>26.9</ele>
        <time>2024-01-01T11:38:54Z</time>
      </trkpt>
      <trkpt lat="-39.6647250" lon="-72.9427320">
        <ele>29.1</ele>
        <time>2024-01-01T11:39:03Z</time>
      </trkpt>
      <trkpt lat="-39.6663510" lon="-72.9483420">
        <ele>25.6</ele>
        <time>2024-01-01T11:39:36Z</time>
      </trkpt>
      <trkpt lat="-39.6665060" lon="-72.9484570">
        <ele>25.6</ele>
        <time>2024-01-01T11:39:42Z</time>
      </trkpt>
      <trkpt lat="-39.6676320" lon="-72.9479180">
        <ele>25.5</ele>
        <time>2024-01-01T11:39:51Z</time>
      </trkpt>
      <trkpt lat="-39.6680970" lon="-72.9478480">
        <ele>25.8</ele>
        <time>2024-01-01T11:40:00Z</time>
      </trkpt>
      <trkpt lat="-39.6685590" lon="-72.9469170">
        <ele>26.6</ele>
        <time>2024-01-01T11:40:09Z</time>
      </trkpt>
      <trkpt lat="-39.6686760" lon="-72.9468150">
        <ele>23.2</ele>
        <time>2024-01-01T11:40:15Z</time>
      </trkpt>
      <trkpt lat="-39.6687860" lon="-72.9469170">
        <ele>21.3</ele>
        <time>2024-01-01T11:40:21Z</time>
      </trkpt>
      <trkpt lat="-39.6689260" lon="-72.9476600">
        <ele>23.3</ele>
        <time>2024-01-01T11:40:30Z</time>
      </trkpt>
      <trkpt lat="-39.6684250" lon="-72.9484700">
        <ele>24.6</ele>
        <time>2024-01-01T11:40:36Z</time>
      </trkpt>
    </trkseg>
  </trk>
</gpx>