<?xml version='1.0' encoding='UTF-8'?>
<gpx xmlns="http://www.topografix.com/GPX/1/1" xmlns:xsi="http://www.w3.org/2001/XMLSchema-instance" version="1.1" creator="ARAUCO - Guardianes del Bosque" xsi:schemaLocation="http://www.topografix.com/GPX/1/1 http://www.topografix.com/GPX/1/1/gpx.xsd">
  <metadata>
    <name>BikePark Santa Juana</name>
    <desc>Rutas MTB - Santa Juana, Chile - Proyecto Guardianes del Bosque ARAUCO</desc>
    <time>2026-01-15T00:00:00Z</time>
  </metadata>
  <trk>
    <name>Pista EnduHuaso</name>
    <trkseg>
      <trkpt lat="-37.1939708364943" lon="-72.93104282632626">
        <ele>246.8007693014794</ele>
      </trkpt>
      <trkpt lat="-37.19392741352685" lon="-72.93146585242116">
        <ele>246.5893557130745</ele>
      </trkpt>
      <trkpt lat="-37.19388687171315" lon="-72.9318474677257">
        <ele>244.4950391987963</ele>
      </trkpt>
      <trkpt lat="-37.19371035192098" lon="-72.93229563044227">
        <ele>239.0938493931352</ele>
      </trkpt>
      <trkpt lat="-37.19326292877793" lon="-72.93290459511063">
        <ele>224.942767910534</ele>
      </trkpt>
      <trkpt lat="-37.19293179247847" lon="-72.9333126511187">
        <ele>213.3420258877003</ele>
      </trkpt>
      <trkpt lat="-37.1927272083412" lon="-72.93376874382434">
        <ele>197.744062827011</ele>
      </trkpt>
      <trkpt lat="-37.19229279523452" lon="-72.9344380580136">
        <ele>179.1416186878235</ele>
      </trkpt>
      <trkpt lat="-37.19138437898104" lon="-72.9355808439533">
        <ele>163.9207654235038</ele>
      </trkpt>
      <trkpt lat="-37.19085323005734" lon="-72.93589758424825">
        <ele>160.1943011728904</ele>
      </trkpt>
      <trkpt lat="-37.19042613960176" lon="-72.93614014640622">
        <ele>156.4069273129758</ele>
      </trkpt>
      <trkpt lat="-37.19020881773402" lon="-72.93628751594407">
        <ele>154.0032763855312</ele>
      </trkpt>
      <trkpt lat="-37.18980379454478" lon="-72.93677408022819">
        <ele>149.6808098294299</ele>
      </trkpt>
      <trkpt lat="-37.18939100050778" lon="-72.93711476130964">
        <ele>145.5321192724993</ele>
      </trkpt>
      <trkpt lat="-37.18907500984329" lon="-72.93752075296428">
        <ele>139.0738438827335</ele>
      </trkpt>
      <trkpt lat="-37.1887335034372" lon="-72.93804110281754">
        <ele>133.1621467633553</ele>
      </trkpt>
      <trkpt lat="-37.18843323772532" lon="-72.93847611208979">
        <ele>125.3145285537206</ele>
      </trkpt>
      <trkpt lat="-37.1882428054855" lon="-72.93852097797028">
        <ele>123.3773196100017</ele>
      </trkpt>
      <trkpt lat="-37.18804460653366" lon="-72.93858380122904">
        <ele>121.7808669469403</ele>
      </trkpt>
      <trkpt lat="-37.18774836908213" lon="-72.93881608293648">
        <ele>113.8004073097557</ele>
      </trkpt>
      <trkpt lat="-37.18761827904411" lon="-72.93885071990732">
        <ele>110.8112375423916</ele>
      </trkpt>
      <trkpt lat="-37.18742573984013" lon="-72.93908489255625">
        <ele>105.8074692033428</ele>
      </trkpt>
      <trkpt lat="-37.18738998934335" lon="-72.93941992098486">
        <ele>104.3699558046602</ele>
      </trkpt>
      <trkpt lat="-37.18726390531258" lon="-72.93976263109013">
        <ele>100.3193626163673</ele>
      </trkpt>
      <trkpt lat="-37.18706125163874" lon="-72.94016908177879">
        <ele>94.98995627194793</ele>
      </trkpt>
      <trkpt lat="-37.18694163852102" lon="-72.94019954761355">
        <ele>93.71026234299669</ele>
      </trkpt>
      <trkpt lat="-37.18665484762415" lon="-72.94028280010448">
        <ele>92.33753044345252</ele>
      </trkpt>
      <trkpt lat="-37.1865176102094" lon="-72.94028293862063">
        <ele>90.00772001324185</ele>
      </trkpt>
      <trkpt lat="-37.18633701883225" lon="-72.94041826284943">
        <ele>86.13140128821475</ele>
      </trkpt>
      <trkpt lat="-37.18616881423359" lon="-72.94039786396711">
        <ele>83.88153542868562</ele>
      </trkpt>
      <trkpt lat="-37.185920954655" lon="-72.94039936162844">
        <ele>80.90933736791521</ele>
      </trkpt>
    </trkseg>
  </trk>
  <trk>
    <name>Pista Anfiteatro</name>
    <trkseg>
      <trkpt lat="-37.18978926206306" lon="-72.930087455457">
        <ele>230.0749816841129</ele>
      </trkpt>
      <trkpt lat="-37.19026676664934" lon="-72.92971598600587">
        <ele>231.7468740704712</ele>
      </trkpt>
      <trkpt lat="-37.19070001665494" lon="-72.92994090780805">
        <ele>231.2220897884308</ele>
      </trkpt>
      <trkpt lat="-37.19123863155743" lon="-72.93073781643001">
        <ele>227.1094699024117</ele>
      </trkpt>
      <trkpt lat="-37.1915472919252" lon="-72.93168016444893">
        <ele>218.4091646664521</ele>
      </trkpt>
      <trkpt lat="-37.19111791347249" lon="-72.93237292117702">
        <ele>208.1728602459907</ele>
      </trkpt>
      <trkpt lat="-37.19104679532339" lon="-72.93263350419799">
        <ele>205.7150531600639</ele>
      </trkpt>
      <trkpt lat="-37.19112258107261" lon="-72.93302004645855">
        <ele>201.4705144476434</ele>
      </trkpt>
      <trkpt lat="-37.1911963120335" lon="-72.93315746369184">
        <ele>199.8959122881327</ele>
      </trkpt>
      <trkpt lat="-37.19165643561371" lon="-72.93324059044127">
        <ele>201.0219748337412</ele>
      </trkpt>
      <trkpt lat="-37.19183791365023" lon="-72.93343428979351">
        <ele>200.1097445985151</ele>
      </trkpt>
      <trkpt lat="-37.1920637512959" lon="-72.93397710624055">
        <ele>189.0822911308729</ele>
      </trkpt>
      <trkpt lat="-37.19199734807586" lon="-72.93459046378929">
        <ele>177.1568179715123</ele>
      </trkpt>
      <trkpt lat="-37.19177271905151" lon="-72.93471331815141">
        <ele>175.3839226220728</ele>
      </trkpt>
      <trkpt lat="-37.19152673269036" lon="-72.93515405191256">
        <ele>170.1064446393499</ele>
      </trkpt>
      <trkpt lat="-37.19121308423649" lon="-72.93542920796341">
        <ele>165.9813008908646</ele>
      </trkpt>
      <trkpt lat="-37.1910091866671" lon="-72.93545134799596">
        <ele>164.9418312498929</ele>
      </trkpt>
      <trkpt lat="-37.19061319905654" lon="-72.93565455735774">
        <ele>160.8355270291116</ele>
      </trkpt>
      <trkpt lat="-37.1903573610993" lon="-72.93614259400763">
        <ele>156.1753104659083</ele>
      </trkpt>
      <trkpt lat="-37.18990236622093" lon="-72.93638945662023">
        <ele>152.0028938334581</ele>
      </trkpt>
      <trkpt lat="-37.18966803708512" lon="-72.93640266626056">
        <ele>150.9281361192154</ele>
      </trkpt>
      <trkpt lat="-37.18954797037626" lon="-72.9366496445098">
        <ele>150.1394161732875</ele>
      </trkpt>
      <trkpt lat="-37.18926444291001" lon="-72.93661695005656">
        <ele>148.2368822267605</ele>
      </trkpt>
      <trkpt lat="-37.18923812089115" lon="-72.93697254048972">
        <ele>146.5634792406469</ele>
      </trkpt>
      <trkpt lat="-37.18883480389442" lon="-72.93707736887158">
        <ele>142.4597614795331</ele>
      </trkpt>
      <trkpt lat="-37.18880732736737" lon="-72.93734829587794">
        <ele>140.2719267215307</ele>
      </trkpt>
      <trkpt lat="-37.18853298607749" lon="-72.93776004607736">
        <ele>133.2449287905256</ele>
      </trkpt>
      <trkpt lat="-37.18856676731794" lon="-72.9381527689056">
        <ele>130.2616678836181</ele>
      </trkpt>
      <trkpt lat="-37.1884377681945" lon="-72.93840424985942">
        <ele>126.1369192959431</ele>
      </trkpt>
      <trkpt lat="-37.18808190828572" lon="-72.93850658542689">
        <ele>122.3402882343752</ele>
      </trkpt>
      <trkpt lat="-37.18803207658957" lon="-72.93840198324234">
        <ele>122.6899246577165</ele>
      </trkpt>
      <trkpt lat="-37.18764301161988" lon="-72.93837953264894">
        <ele>112.6389336928567</ele>
      </trkpt>
      <trkpt lat="-37.18752055566952" lon="-72.93847789006571">
        <ele>109.5287175165782</ele>
      </trkpt>
      <trkpt lat="-37.18744873761241" lon="-72.93842852817293">
        <ele>107.7121720562573</ele>
      </trkpt>
      <trkpt lat="-37.18772265052436" lon="-72.93815432516746">
        <ele>115.0342175564451</ele>
      </trkpt>
      <trkpt lat="-37.18771326579274" lon="-72.93803559654209">
        <ele>114.2554283163704</ele>
      </trkpt>
      <trkpt lat="-37.18745885945542" lon="-72.93802744627989">
        <ele>106.5533096143478</ele>
      </trkpt>
      <trkpt lat="-37.18755355520462" lon="-72.9378117904551">
        <ele>108.0295362414916</ele>
      </trkpt>
      <trkpt lat="-37.18748022660976" lon="-72.93761006940974">
        <ele>103.8216637386653</ele>
      </trkpt>
      <trkpt lat="-37.18724714889793" lon="-72.93750295233156">
        <ele>93.92993133140108</ele>
      </trkpt>
      <trkpt lat="-37.18705811915311" lon="-72.93756413987929">
        <ele>86.00775816909066</ele>
      </trkpt>
      <trkpt lat="-37.186917182264" lon="-72.93776362625523">
        <ele>81.97516649908358</ele>
      </trkpt>
    </trkseg>
  </trk>
  <trk>
    <name>Pista EnduPaco</name>
    <trkseg>
      <trkpt lat="-37.189694251539" lon="-72.93009980675302">
        <ele>229.8857775592166</ele>
      </trkpt>
      <trkpt lat="-37.18893840854782" lon="-72.93001005728492">
        <ele>226.6598726648299</ele>
      </trkpt>
      <trkpt lat="-37.18872238163783" lon="-72.93007629278007">
        <ele>224.4039481378228</ele>
      </trkpt>
      <trkpt lat="-37.18847945570212" lon="-72.92985727270373">
        <ele>223.5462428783068</ele>
      </trkpt>
      <trkpt lat="-37.18815513892479" lon="-72.93000792644446">
        <ele>221.0163193695887</ele>
      </trkpt>
      <trkpt lat="-37.18784633477291" lon="-72.93030321555571">
        <ele>216.2752888507987</ele>
      </trkpt>
      <trkpt lat="-37.18726585447779" lon="-72.93034767028571">
        <ele>212.9339404746769</ele>
      </trkpt>
      <trkpt lat="-37.1870886206329" lon="-72.93046802577024">
        <ele>212.1527905796974</ele>
      </trkpt>
      <trkpt lat="-37.18660966944163" lon="-72.93113323475151">
        <ele>210.560247965199</ele>
      </trkpt>
      <trkpt lat="-37.1861795770342" lon="-72.93142229954729">
        <ele>209.2399375143677</ele>
      </trkpt>
      <trkpt lat="-37.18597689772979" lon="-72.93119313895178">
        <ele>207.8408081427321</ele>
      </trkpt>
      <trkpt lat="-37.18584961471901" lon="-72.93080815756434">
        <ele>200.1993166805319</ele>
      </trkpt>
      <trkpt lat="-37.18573145005866" lon="-72.93080079528364">
        <ele>199.3227003616157</ele>
      </trkpt>
      <trkpt lat="-37.18553555717472" lon="-72.93107262664981">
        <ele>198.2852528070403</ele>
      </trkpt>
      <trkpt lat="-37.18517198110297" lon="-72.93088023569237">
        <ele>197.5181006832541</ele>
      </trkpt>
      <trkpt lat="-37.18455476686832" lon="-72.93106789405734">
        <ele>191.9308193045423</ele>
      </trkpt>
      <trkpt lat="-37.18410380267069" lon="-72.93104137884744">
        <ele>186.6299158138156</ele>
      </trkpt>
      <trkpt lat="-37.18389713173121" lon="-72.93120386280549">
        <ele>179.0965529510216</ele>
      </trkpt>
      <trkpt lat="-37.18336272006087" lon="-72.932072193235">
        <ele>167.243927722066</ele>
      </trkpt>
      <trkpt lat="-37.1826197093624" lon="-72.93264750648713">
        <ele>145.2769733892143</ele>
      </trkpt>
      <trkpt lat="-37.18259258482806" lon="-72.93280602311172">
        <ele>145.1709858714764</ele>
      </trkpt>
      <trkpt lat="-37.18230882446954" lon="-72.93307468352592">
        <ele>139.8636012412594</ele>
      </trkpt>
      <trkpt lat="-37.18225384818356" lon="-72.93348643402913">
        <ele>132.7421013865224</ele>
      </trkpt>
      <trkpt lat="-37.18202327048348" lon="-72.93384937178936">
        <ele>127.4391282927745</ele>
      </trkpt>
      <trkpt lat="-37.18189609184943" lon="-72.93384630087148">
        <ele>123.3690826471148</ele>
      </trkpt>
      <trkpt lat="-37.18155076104879" lon="-72.93337822814446">
        <ele>118.0888010703418</ele>
      </trkpt>
      <trkpt lat="-37.18138297347614" lon="-72.93337290765128">
        <ele>116.1190066754579</ele>
      </trkpt>
      <trkpt lat="-37.18125351783359" lon="-72.93385598851056">
        <ele>108.457320018091</ele>
      </trkpt>
      <trkpt lat="-37.18112102033651" lon="-72.93385546277004">
        <ele>105.6113738868494</ele>
      </trkpt>
      <trkpt lat="-37.18090456969323" lon="-72.93347495965818">
        <ele>102.7654277556079</ele>
      </trkpt>
      <trkpt lat="-37.18070140019742" lon="-72.93380497523589">
        <ele>95.38688898956312</ele>
      </trkpt>
      <trkpt lat="-37.18041255483961" lon="-72.93380599187795">
        <ele>88.00835022351832</ele>
      </trkpt>
      <trkpt lat="-37.18004447557568" lon="-72.93406869115296">
        <ele>79.62267215634053</ele>
      </trkpt>
    </trkseg>
  </trk>
  <wpt lat="-37.18972884206154" lon="-72.93015591061508">
    <ele>229.2661407445558</ele>
    <name>Lanzador DH</name>
  </wpt>
  <wpt lat="-37.1909684230532" lon="-72.93266555275947">
    <ele>205.3105223910892</ele>
    <name>Puntrack</name>
  </wpt>
  <wpt lat="-37.19167004764849" lon="-72.93522476949799">
    <ele>168.3439055022744</ele>
    <name>Saltos Dobles</name>
  </wpt>
  <wpt lat="-37.1887524903841" lon="-72.93798418041688">
    <ele>133.8434296692893</ele>
    <name>Salto del Sol</name>
  </wpt>
  <wpt lat="-37.1877956148622" lon="-72.93879816841206">
    <ele>114.7966145014006</ele>
    <name>Bajon Tarima</name>
  </wpt>
  <wpt lat="-37.18858211542879" lon="-72.93827935045181">
    <ele>129.24917676615</ele>
    <name>Step Up</name>
  </wpt>
  <wpt lat="-37.19396932602584" lon="-72.93103426732688">
    <ele>247.0641595118901</ele>
    <name>Inicio Pista Anfiteatro</name>
  </wpt>
  <trk>
    <name>Pista Sultan</name>
    <trkseg>
      <trkpt lat="-37.19395378385688" lon="-72.93078735376663">
        <ele>246.1632141749225</ele>
      </trkpt>
      <trkpt lat="-37.19379130111582" lon="-72.93059657409987">
        <ele>247.0575013026952</ele>
      </trkpt>
      <trkpt lat="-37.19386627454472" lon="-72.93040098027349">
        <ele>246.725423966353</ele>
      </trkpt>
      <trkpt lat="-37.19382908834307" lon="-72.92981025742868">
        <ele>247.8511123501919</ele>
      </trkpt>
      <trkpt lat="-37.19358656425422" lon="-72.92970582603682">
        <ele>249.772045607061</ele>
      </trkpt>
      <trkpt lat="-37.19358038827418" lon="-72.92959616074437">
        <ele>249.8639057767636</ele>
      </trkpt>
      <trkpt lat="-37.19395377179219" lon="-72.92924678784047">
        <ele>245.9784891734444</ele>
      </trkpt>
      <trkpt lat="-37.19415449709709" lon="-72.92893337938702">
        <ele>242.5662811764614</ele>
      </trkpt>
      <trkpt lat="-37.19442711366559" lon="-72.92848213825775">
        <ele>237.3992571624743</ele>
      </trkpt>
      <trkpt lat="-37.19433892113298" lon="-72.92825103301914">
        <ele>236.0583396486683</ele>
      </trkpt>
      <trkpt lat="-37.19453688838436" lon="-72.92805808180925">
        <ele>233.4432751130137</ele>
      </trkpt>
      <trkpt lat="-37.19463903175136" lon="-72.92806564197356">
        <ele>232.8684534439376</ele>
      </trkpt>
      <trkpt lat="-37.1946594771432" lon="-72.92776791424939">
        <ele>230.9250373116347</ele>
      </trkpt>
      <trkpt lat="-37.19496809623949" lon="-72.92754861739516">
        <ele>228.6558213848678</ele>
      </trkpt>
      <trkpt lat="-37.19522393760222" lon="-72.92698527989499">
        <ele>224.0776222582538</ele>
      </trkpt>
      <trkpt lat="-37.19584984220067" lon="-72.92682115938756">
        <ele>220.3064784613635</ele>
      </trkpt>
      <trkpt lat="-37.1961529493522" lon="-72.92660950941152">
        <ele>218.3280802442382</ele>
      </trkpt>
      <trkpt lat="-37.19634408686164" lon="-72.92660645067805">
        <ele>217.9179584957726</ele>
      </trkpt>
      <trkpt lat="-37.19651426942141" lon="-72.92640197094177">
        <ele>215.9701602764437</ele>
      </trkpt>
      <trkpt lat="-37.197114595713" lon="-72.92614677334872">
        <ele>213.5572604499172</ele>
      </trkpt>
      <trkpt lat="-37.19738140527929" lon="-72.92618053171165">
        <ele>214.6380432620313</ele>
      </trkpt>
      <trkpt lat="-37.19736368427332" lon="-72.92569630097296">
        <ele>209.6227574852411</ele>
      </trkpt>
      <trkpt lat="-37.19750266215219" lon="-72.92520823770361">
        <ele>202.8397267118749</ele>
      </trkpt>
      <trkpt lat="-37.1974201779888" lon="-72.92512175356444">
        <ele>201.1328315316564</ele>
      </trkpt>
      <trkpt lat="-37.19744340219857" lon="-72.92495357939647">
        <ele>199.3152286103404</ele>
      </trkpt>
      <trkpt lat="-37.19753767273586" lon="-72.92482121259631">
        <ele>198.1535777747779</ele>
      </trkpt>
      <trkpt lat="-37.19751417074716" lon="-72.92447387522472">
        <ele>193.311543080553</ele>
      </trkpt>
      <trkpt lat="-37.19770119220328" lon="-72.92392052727172">
        <ele>187.839002853086</ele>
      </trkpt>
      <trkpt lat="-37.19781793500145" lon="-72.92306540581717">
        <ele>177.883752727074</ele>
      </trkpt>
      <trkpt lat="-37.19758973538138" lon="-72.92286628254006">
        <ele>174.9603697546837</ele>
      </trkpt>
      <trkpt lat="-37.19748460487341" lon="-72.92234922861275">
        <ele>167.0631897840244</ele>
      </trkpt>
      <trkpt lat="-37.19720775898031" lon="-72.92222801421731">
        <ele>163.6299762232714</ele>
      </trkpt>
      <trkpt lat="-37.19719642639468" lon="-72.92201986108998">
        <ele>161.2742791519205</ele>
      </trkpt>
    </trkseg>
  </trk>
  <trk>
    <name>Clasica DH</name>
    <trkseg>
      <trkpt lat="-37.18967673898465" lon="-72.93011238163183">
        <ele>229.359075871225</ele>
      </trkpt>
      <trkpt lat="-37.18955405682478" lon="-72.93039215416329">
        <ele>225.6197854392948</ele>
      </trkpt>
      <trkpt lat="-37.18916898951299" lon="-72.93035075274632">
        <ele>223.7594288018844</ele>
      </trkpt>
      <trkpt lat="-37.18861601532829" lon="-72.9306777092897">
        <ele>216.4836348844942</ele>
      </trkpt>
      <trkpt lat="-37.18794088621402" lon="-72.93084442382985">
        <ele>210.0871740362198</ele>
      </trkpt>
      <trkpt lat="-37.18752954214072" lon="-72.93115395669388">
        <ele>204.2269909025584</ele>
      </trkpt>
      <trkpt lat="-37.18641632215462" lon="-72.93161391644679">
        <ele>207.0273160298186</ele>
      </trkpt>
      <trkpt lat="-37.18632367613106" lon="-72.93153089477048">
        <ele>204.0790786654194</ele>
      </trkpt>
      <trkpt lat="-37.18595103046359" lon="-72.93151468223232">
        <ele>200.4984690840451</ele>
      </trkpt>
      <trkpt lat="-37.18519039101332" lon="-72.93132476620328">
        <ele>199.2733788149625</ele>
      </trkpt>
      <trkpt lat="-37.18486445836413" lon="-72.93131638482942">
        <ele>196.2189886354038</ele>
      </trkpt>
      <trkpt lat="-37.18433415979915" lon="-72.93149671532557">
        <ele>178.3085968657161</ele>
      </trkpt>
      <trkpt lat="-37.18405789406592" lon="-72.93164857941547">
        <ele>172.1838363256529</ele>
      </trkpt>
      <trkpt lat="-37.18356587944986" lon="-72.93230399455818">
        <ele>164.5106600835569</ele>
      </trkpt>
      <trkpt lat="-37.18268550589724" lon="-72.93283838233982">
        <ele>147.3987539568173</ele>
      </trkpt>
      <trkpt lat="-37.18267558685167" lon="-72.93331123913981">
        <ele>144.3952572882854</ele>
      </trkpt>
      <trkpt lat="-37.18255262414731" lon="-72.9335029603982">
        <ele>142.0236018371351</ele>
      </trkpt>
      <trkpt lat="-37.18253322729125" lon="-72.9342073490352">
        <ele>135.4989127721775</ele>
      </trkpt>
      <trkpt lat="-37.18278529303848" lon="-72.93465309519721">
        <ele>128.6678441847498</ele>
      </trkpt>
      <trkpt lat="-37.18294673045693" lon="-72.93554299842944">
        <ele>110.1042611585377</ele>
      </trkpt>
      <trkpt lat="-37.18309552517665" lon="-72.9356827649104">
        <ele>105.910274998587</ele>
      </trkpt>
      <trkpt lat="-37.1829956409945" lon="-72.93601289045664">
        <ele>100.1685591024412</ele>
      </trkpt>
      <trkpt lat="-37.18218869323211" lon="-72.93645450532411">
        <ele>91.70059667291167</ele>
      </trkpt>
      <trkpt lat="-37.18208739157834" lon="-72.93665121033781">
        <ele>87.56672464566277</ele>
      </trkpt>
      <trkpt lat="-37.18203520607221" lon="-72.93707784112937">
        <ele>79.54483824814267</ele>
      </trkpt>
      <trkpt lat="-37.18178587613584" lon="-72.9372507895413">
        <ele>73.35090348800301</ele>
      </trkpt>
      <trkpt lat="-37.1821030296694" lon="-72.93803745865458">
        <ele>64.50086898674482</ele>
      </trkpt>
      <trkpt lat="-37.18233562370001" lon="-72.93816790720088">
        <ele>63.59173770010543</ele>
      </trkpt>
      <trkpt lat="-37.18260987905973" lon="-72.93811416549518">
        <ele>65.09291762298626</ele>
      </trkpt>
      <trkpt lat="-37.18307838415507" lon="-72.93775314257003">
        <ele>64.4109728483901</ele>
      </trkpt>
    </trkseg>
  </trk>
  <wpt lat="-37.18651458113048" lon="-72.93156246341047">
    <ele>209.3786426545058</ele>
    <name>Steput DH</name>
  </wpt>
  <wpt lat="-37.18308419699449" lon="-72.93776242896558">
    <ele>64.30543604767152</ele>
    <name>Marcador sin nombre</name>
  </wpt>
  <wpt lat="-37.19194412794777" lon="-72.93466990886837">
    <ele>175.9871224179888</ele>
    <name>Tarima</name>
  </wpt>
</gpx>