<?xml version='1.0' encoding='UTF-8'?>
<gpx xmlns="http://www.topografix.com/GPX/1/1" xmlns:xsi="http://www.w3.org/2001/XMLSchema-instance" version="1.1" creator="Bosque Abierto MTB - Guardianes del Bosque" xsi:schemaLocation="http://www.topografix.com/GPX/1/1 http://www.topografix.com/GPX/1/1/gpx.xsd">
  <metadata>
    <name>Skill Bike Park Negro</name>
    <desc>Ruta MTB Bosque Abierto - ARAUCO Renovables</desc>
    <author>
      <name>Guardianes del Bosque MTB</name>
    </author>
    <time>2024-01-01T10:00:00Z</time>
  </metadata>
  <trk>
    <name>Skill Bike Park Negro</name>
    <type>cycling</type>
    <trkseg>
      <trkpt lat="-36.5588550" lon="-72.9138590">
        <ele>292.5</ele>
        <time>2024-01-01T10:00:00Z</time>
      </trkpt>
      <trkpt lat="-36.5581980" lon="-72.9132030">
        <ele>285.6</ele>
        <time>2024-01-01T10:01:21Z</time>
      </trkpt>
      <trkpt lat="-36.5575270" lon="-72.9136460">
        <ele>277.2</ele>
        <time>2024-01-01T10:01:54Z</time>
      </trkpt>
      <trkpt lat="-36.5574160" lon="-72.9139640">
        <ele>274.7</ele>
        <time>2024-01-01T10:02:06Z</time>
      </trkpt>
      <trkpt lat="-36.5573030" lon="-72.9140500">
        <ele>273.2</ele>
        <time>2024-01-01T10:02:12Z</time>
      </trkpt>
      <trkpt lat="-36.5570990" lon="-72.9140490">
        <ele>271.3</ele>
        <time>2024-01-01T10:02:21Z</time>
      </trkpt>
      <trkpt lat="-36.5570250" lon="-72.9139220">
        <ele>271.2</ele>
        <time>2024-01-01T10:02:27Z</time>
      </trkpt>
      <trkpt lat="-36.5566530" lon="-72.9140520">
        <ele>267.1</ele>
        <time>2024-01-01T10:02:45Z</time>
      </trkpt>
      <trkpt lat="-36.5561740" lon="-72.9153340">
        <ele>256.2</ele>
        <time>2024-01-01T10:03:30Z</time>
      </trkpt>
      <trkpt lat="-36.5562750" lon="-72.9156510">
        <ele>252.8</ele>
        <time>2024-01-01T10:03:42Z</time>
      </trkpt>
      <trkpt lat="-36.5561800" lon="-72.9157870">
        <ele>252.7</ele>
        <time>2024-01-01T10:03:48Z</time>
      </trkpt>
      <trkpt lat="-36.5562180" lon="-72.9160110">
        <ele>250.9</ele>
        <time>2024-01-01T10:03:57Z</time>
      </trkpt>
      <trkpt lat="-36.5558520" lon="-72.9162990">
        <ele>247.6</ele>
        <time>2024-01-01T10:04:18Z</time>
      </trkpt>
      <trkpt lat="-36.5557840" lon="-72.9170480">
        <ele>242.8</ele>
        <time>2024-01-01T10:04:48Z</time>
      </trkpt>
      <trkpt lat="-36.5556200" lon="-72.9170090">
        <ele>244.7</ele>
        <time>2024-01-01T10:04:54Z</time>
      </trkpt>
      <trkpt lat="-36.5555950" lon="-72.9172790">
        <ele>241.9</ele>
        <time>2024-01-01T10:05:03Z</time>
      </trkpt>
      <trkpt lat="-36.5553000" lon="-72.9173750">
        <ele>240.2</ele>
        <time>2024-01-01T10:05:18Z</time>
      </trkpt>
      <trkpt lat="-36.5553060" lon="-72.9179430">
        <ele>235.9</ele>
        <time>2024-01-01T10:05:36Z</time>
      </trkpt>
      <trkpt lat="-36.5550240" lon="-72.9177540">
        <ele>235.5</ele>
        <time>2024-01-01T10:05:51Z</time>
      </trkpt>
      <trkpt lat="-36.5549920" lon="-72.9178800">
        <ele>234.7</ele>
        <time>2024-01-01T10:05:57Z</time>
      </trkpt>
      <trkpt lat="-36.5548780" lon="-72.9179270">
        <ele>231.6</ele>
        <time>2024-01-01T10:06:09Z</time>
      </trkpt>
      <trkpt lat="-36.5546220" lon="-72.9182820">
        <ele>220.1</ele>
        <time>2024-01-01T10:06:21Z</time>
      </trkpt>
      <trkpt lat="-36.5544020" lon="-72.9181350">
        <ele>217.7</ele>
        <time>2024-01-01T10:06:30Z</time>
      </trkpt>
      <trkpt lat="-36.5542740" lon="-72.9182360">
        <ele>213.6</ele>
        <time>2024-01-01T10:06:39Z</time>
      </trkpt>
      <trkpt lat="-36.5541820" lon="-72.9187050">
        <ele>201.7</ele>
        <time>2024-01-01T10:06:51Z</time>
      </trkpt>
      <trkpt lat="-36.5540370" lon="-72.9189880">
        <ele>194.5</ele>
        <time>2024-01-01T10:07:00Z</time>
      </trkpt>
      <trkpt lat="-36.5533500" lon="-72.9193530">
        <ele>193.4</ele>
        <time>2024-01-01T10:07:24Z</time>
      </trkpt>
      <trkpt lat="-36.5532650" lon="-72.9200440">
        <ele>185.1</ele>
        <time>2024-01-01T10:07:51Z</time>
      </trkpt>
      <trkpt lat="-36.5530290" lon="-72.9202980">
        <ele>187.8</ele>
        <time>2024-01-01T10:08:09Z</time>
      </trkpt>
      <trkpt lat="-36.5530010" lon="-72.9209000">
        <ele>186.2</ele>
        <time>2024-01-01T10:08:12Z</time>
      </trkpt>
      <trkpt lat="-36.5527860" lon="-72.9212590">
        <ele>186.0</ele>
        <time>2024-01-01T10:08:24Z</time>
      </trkpt>
      <trkpt lat="-36.5525170" lon="-72.9213820">
        <ele>185.6</ele>
        <time>2024-01-01T10:08:39Z</time>
      </trkpt>
      <trkpt lat="-36.5524650" lon="-72.9212460">
        <ele>184.6</ele>
        <time>2024-01-01T10:08:42Z</time>
      </trkpt>
      <trkpt lat="-36.5521990" lon="-72.9210170">
        <ele>180.8</ele>
        <time>2024-01-01T10:08:54Z</time>
      </trkpt>
      <trkpt lat="-36.5518020" lon="-72.9210520">
        <ele>170.1</ele>
        <time>2024-01-01T10:09:12Z</time>
      </trkpt>
      <trkpt lat="-36.5515560" lon="-72.9209420">
        <ele>161.2</ele>
        <time>2024-01-01T10:09:18Z</time>
      </trkpt>
      <trkpt lat="-36.5516650" lon="-72.9209430">
        <ele>165.0</ele>
        <time>2024-01-01T10:09:21Z</time>
      </trkpt>
      <trkpt lat="-36.5515350" lon="-72.9210130">
        <ele>161.2</ele>
        <time>2024-01-01T10:09:27Z</time>
      </trkpt>
      <trkpt lat="-36.5507620" lon="-72.9208120">
        <ele>142.2</ele>
        <time>2024-01-01T10:09:36Z</time>
      </trkpt>
      <trkpt lat="-36.5505140" lon="-72.9208800">
        <ele>140.0</ele>
        <time>2024-01-01T10:09:45Z</time>
      </trkpt>
      <trkpt lat="-36.5500350" lon="-72.9216100">
        <ele>140.2</ele>
        <time>2024-01-01T10:10:06Z</time>
      </trkpt>
      <trkpt lat="-36.5499330" lon="-72.9215380">
        <ele>139.3</ele>
        <time>2024-01-01T10:10:09Z</time>
      </trkpt>
      <trkpt lat="-36.5497050" lon="-72.9216090">
        <ele>139.3</ele>
        <time>2024-01-01T10:10:24Z</time>
      </trkpt>
      <trkpt lat="-36.5495210" lon="-72.9215140">
        <ele>138.5</ele>
        <time>2024-01-01T10:10:33Z</time>
      </trkpt>
      <trkpt lat="-36.5493120" lon="-72.9216410">
        <ele>137.1</ele>
        <time>2024-01-01T10:10:45Z</time>
      </trkpt>
      <trkpt lat="-36.5492390" lon="-72.9219230">
        <ele>135.6</ele>
        <time>2024-01-01T10:10:54Z</time>
      </trkpt>
      <trkpt lat="-36.5489220" lon="-72.9220890">
        <ele>133.5</ele>
        <time>2024-01-01T10:11:21Z</time>
      </trkpt>
      <trkpt lat="-36.5485300" lon="-72.9227840">
        <ele>111.7</ele>
        <time>2024-01-01T10:11:30Z</time>
      </trkpt>
      <trkpt lat="-36.5487850" lon="-72.9229890">
        <ele>112.4</ele>
        <time>2024-01-01T10:11:42Z</time>
      </trkpt>
      <trkpt lat="-36.5489180" lon="-72.9228880">
        <ele>116.6</ele>
        <time>2024-01-01T10:11:51Z</time>
      </trkpt>
      <trkpt lat="-36.5494020" lon="-72.9229880">
        <ele>104.7</ele>
        <time>2024-01-01T10:12:15Z</time>
      </trkpt>
      <trkpt lat="-36.5495800" lon="-72.9228030">
        <ele>110.1</ele>
        <time>2024-01-01T10:12:24Z</time>
      </trkpt>
      <trkpt lat="-36.5495080" lon="-72.9230240">
        <ele>100.9</ele>
        <time>2024-01-01T10:12:39Z</time>
      </trkpt>
      <trkpt lat="-36.5496130" lon="-72.9233090">
        <ele>92.1</ele>
        <time>2024-01-01T10:12:54Z</time>
      </trkpt>
      <trkpt lat="-36.5493080" lon="-72.9234880">
        <ele>88.9</ele>
        <time>2024-01-01T10:13:12Z</time>
      </trkpt>
      <trkpt lat="-36.5491180" lon="-72.9237950">
        <ele>83.0</ele>
        <time>2024-01-01T10:13:24Z</time>
      </trkpt>
      <trkpt lat="-36.5489700" lon="-72.9238220">
        <ele>83.2</ele>
        <time>2024-01-01T10:13:30Z</time>
      </trkpt>
      <trkpt lat="-36.5487590" lon="-72.9244590">
        <ele>60.6</ele>
        <time>2024-01-01T10:13:48Z</time>
      </trkpt>
      <trkpt lat="-36.5488270" lon="-72.9247660">
        <ele>56.0</ele>
        <time>2024-01-01T10:14:06Z</time>
      </trkpt>
      <trkpt lat="-36.5484830" lon="-72.9251400">
        <ele>53.4</ele>
        <time>2024-01-01T10:14:36Z</time>
      </trkpt>
      <trkpt lat="-36.5485360" lon="-72.9252950">
        <ele>52.7</ele>
        <time>2024-01-01T10:14:45Z</time>
      </trkpt>
      <trkpt lat="-36.5484400" lon="-72.9255970">
        <ele>51.3</ele>
        <time>2024-01-01T10:14:57Z</time>
      </trkpt>
    </trkseg>
  </trk>
</gpx>