<?xml version="1.0" encoding="UTF-8"?>
<gpx version="1.1" creator="BosqueAbierto" xmlns="http://www.topografix.com/GPX/1/1">
<trk><name>Chipre</name><trkseg>
<trkpt lat="-36.261868" lon="-72.506767"><ele>593.0</ele></trkpt>
<trkpt lat="-36.261866" lon="-72.506749"><ele>593.0</ele></trkpt>
<trkpt lat="-36.261864" lon="-72.506741"><ele>593.0</ele></trkpt>
<trkpt lat="-36.261868" lon="-72.506738"><ele>593.0</ele></trkpt>
<trkpt lat="-36.261880" lon="-72.506752"><ele>593.0</ele></trkpt>
<trkpt lat="-36.261884" lon="-72.506747"><ele>593.0</ele></trkpt>
<trkpt lat="-36.261879" lon="-72.506742"><ele>593.0</ele></trkpt>
<trkpt lat="-36.261869" lon="-72.506756"><ele>593.0</ele></trkpt>
<trkpt lat="-36.261864" lon="-72.506752"><ele>593.0</ele></trkpt>
<trkpt lat="-36.261864" lon="-72.506737"><ele>593.0</ele></trkpt>
<trkpt lat="-36.261868" lon="-72.506741"><ele>593.0</ele></trkpt>
<trkpt lat="-36.261871" lon="-72.506734"><ele>593.0</ele></trkpt>
<trkpt lat="-36.261876" lon="-72.506734"><ele>593.0</ele></trkpt>
<trkpt lat="-36.261876" lon="-72.506725"><ele>593.0</ele></trkpt>
<trkpt lat="-36.261889" lon="-72.506738"><ele>593.0</ele></trkpt>
<trkpt lat="-36.261887" lon="-72.506730"><ele>593.0</ele></trkpt>
<trkpt lat="-36.261889" lon="-72.506708"><ele>593.0</ele></trkpt>
<trkpt lat="-36.261885" lon="-72.506626"><ele>593.0</ele></trkpt>
<trkpt lat="-36.261892" lon="-72.506573"><ele>593.0</ele></trkpt>
<trkpt lat="-36.261909" lon="-72.506516"><ele>593.0</ele></trkpt>
<trkpt lat="-36.261939" lon="-72.506462"><ele>593.0</ele></trkpt>
<trkpt lat="-36.261960" lon="-72.506415"><ele>593.0</ele></trkpt>
<trkpt lat="-36.261980" lon="-72.506368"><ele>593.0</ele></trkpt>
<trkpt lat="-36.261991" lon="-72.506333"><ele>593.0</ele></trkpt>
<trkpt lat="-36.261998" lon="-72.506276"><ele>593.0</ele></trkpt>
<trkpt lat="-36.262002" lon="-72.506251"><ele>593.0</ele></trkpt>
<trkpt lat="-36.262008" lon="-72.506233"><ele>627.0</ele></trkpt>
<trkpt lat="-36.262021" lon="-72.506222"><ele>627.0</ele></trkpt>
<trkpt lat="-36.262045" lon="-72.506218"><ele>627.0</ele></trkpt>
<trkpt lat="-36.262078" lon="-72.506217"><ele>627.0</ele></trkpt>
<trkpt lat="-36.262122" lon="-72.506211"><ele>627.0</ele></trkpt>
<trkpt lat="-36.262151" lon="-72.506167"><ele>627.0</ele></trkpt>
<trkpt lat="-36.262172" lon="-72.506159"><ele>627.0</ele></trkpt>
<trkpt lat="-36.262193" lon="-72.506175"><ele>627.0</ele></trkpt>
<trkpt lat="-36.262269" lon="-72.506253"><ele>593.0</ele></trkpt>
<trkpt lat="-36.262299" lon="-72.506299"><ele>593.0</ele></trkpt>
<trkpt lat="-36.262324" lon="-72.506341"><ele>593.0</ele></trkpt>
<trkpt lat="-36.262372" lon="-72.506337"><ele>593.0</ele></trkpt>
<trkpt lat="-36.262417" lon="-72.506324"><ele>593.0</ele></trkpt>
<trkpt lat="-36.262451" lon="-72.506306"><ele>593.0</ele></trkpt>
<trkpt lat="-36.262479" lon="-72.506326"><ele>593.0</ele></trkpt>
<trkpt lat="-36.262517" lon="-72.506344"><ele>531.0</ele></trkpt>
<trkpt lat="-36.262554" lon="-72.506347"><ele>531.0</ele></trkpt>
<trkpt lat="-36.262592" lon="-72.506338"><ele>531.0</ele></trkpt>
<trkpt lat="-36.262620" lon="-72.506347"><ele>531.0</ele></trkpt>
<trkpt lat="-36.262650" lon="-72.506371"><ele>531.0</ele></trkpt>
<trkpt lat="-36.262691" lon="-72.506395"><ele>531.0</ele></trkpt>
<trkpt lat="-36.262745" lon="-72.506405"><ele>531.0</ele></trkpt>
<trkpt lat="-36.262808" lon="-72.506427"><ele>531.0</ele></trkpt>
<trkpt lat="-36.262873" lon="-72.506429"><ele>531.0</ele></trkpt>
<trkpt lat="-36.262955" lon="-72.506415"><ele>531.0</ele></trkpt>
<trkpt lat="-36.263026" lon="-72.506414"><ele>531.0</ele></trkpt>
<trkpt lat="-36.263109" lon="-72.506405"><ele>531.0</ele></trkpt>
<trkpt lat="-36.263172" lon="-72.506399"><ele>531.0</ele></trkpt>
<trkpt lat="-36.263207" lon="-72.506411"><ele>531.0</ele></trkpt>
<trkpt lat="-36.263254" lon="-72.506436"><ele>531.0</ele></trkpt>
<trkpt lat="-36.263276" lon="-72.506475"><ele>531.0</ele></trkpt>
<trkpt lat="-36.263344" lon="-72.506458"><ele>531.0</ele></trkpt>
<trkpt lat="-36.263365" lon="-72.506465"><ele>531.0</ele></trkpt>
<trkpt lat="-36.263395" lon="-72.506499"><ele>531.0</ele></trkpt>
<trkpt lat="-36.263430" lon="-72.506525"><ele>531.0</ele></trkpt>
<trkpt lat="-36.263474" lon="-72.506563"><ele>531.0</ele></trkpt>
<trkpt lat="-36.263517" lon="-72.506619"><ele>531.0</ele></trkpt>
<trkpt lat="-36.263563" lon="-72.506672"><ele>531.0</ele></trkpt>
<trkpt lat="-36.263616" lon="-72.506719"><ele>531.0</ele></trkpt>
<trkpt lat="-36.263665" lon="-72.506778"><ele>531.0</ele></trkpt>
<trkpt lat="-36.263709" lon="-72.506808"><ele>531.0</ele></trkpt>
<trkpt lat="-36.263754" lon="-72.506814"><ele>531.0</ele></trkpt>
<trkpt lat="-36.263825" lon="-72.506822"><ele>531.0</ele></trkpt>
<trkpt lat="-36.263870" lon="-72.506814"><ele>531.0</ele></trkpt>
<trkpt lat="-36.263925" lon="-72.506800"><ele>531.0</ele></trkpt>
<trkpt lat="-36.263976" lon="-72.506795"><ele>531.0</ele></trkpt>
<trkpt lat="-36.264023" lon="-72.506787"><ele>531.0</ele></trkpt>
<trkpt lat="-36.264061" lon="-72.506768"><ele>531.0</ele></trkpt>
<trkpt lat="-36.264090" lon="-72.506759"><ele>531.0</ele></trkpt>
<trkpt lat="-36.264118" lon="-72.506765"><ele>531.0</ele></trkpt>
<trkpt lat="-36.264138" lon="-72.506778"><ele>531.0</ele></trkpt>
<trkpt lat="-36.264162" lon="-72.506781"><ele>531.0</ele></trkpt>
<trkpt lat="-36.264181" lon="-72.506775"><ele>531.0</ele></trkpt>
<trkpt lat="-36.264202" lon="-72.506748"><ele>531.0</ele></trkpt>
<trkpt lat="-36.264216" lon="-72.506723"><ele>531.0</ele></trkpt>
<trkpt lat="-36.264232" lon="-72.506703"><ele>531.0</ele></trkpt>
<trkpt lat="-36.264256" lon="-72.506684"><ele>531.0</ele></trkpt>
<trkpt lat="-36.264277" lon="-72.506678"><ele>531.0</ele></trkpt>
<trkpt lat="-36.264317" lon="-72.506690"><ele>531.0</ele></trkpt>
<trkpt lat="-36.264339" lon="-72.506681"><ele>531.0</ele></trkpt>
<trkpt lat="-36.264361" lon="-72.506666"><ele>531.0</ele></trkpt>
<trkpt lat="-36.264382" lon="-72.506659"><ele>531.0</ele></trkpt>
<trkpt lat="-36.264408" lon="-72.506644"><ele>531.0</ele></trkpt>
<trkpt lat="-36.264433" lon="-72.506633"><ele>531.0</ele></trkpt>
<trkpt lat="-36.264464" lon="-72.506647"><ele>531.0</ele></trkpt>
<trkpt lat="-36.264501" lon="-72.506672"><ele>531.0</ele></trkpt>
<trkpt lat="-36.264540" lon="-72.506688"><ele>531.0</ele></trkpt>
<trkpt lat="-36.264567" lon="-72.506695"><ele>531.0</ele></trkpt>
<trkpt lat="-36.264585" lon="-72.506719"><ele>467.0</ele></trkpt>
<trkpt lat="-36.264605" lon="-72.506764"><ele>467.0</ele></trkpt>
<trkpt lat="-36.264646" lon="-72.506819"><ele>467.0</ele></trkpt>
<trkpt lat="-36.264676" lon="-72.506847"><ele>467.0</ele></trkpt>
<trkpt lat="-36.264701" lon="-72.506877"><ele>467.0</ele></trkpt>
<trkpt lat="-36.264721" lon="-72.506886"><ele>467.0</ele></trkpt>
<trkpt lat="-36.264736" lon="-72.506885"><ele>467.0</ele></trkpt>
<trkpt lat="-36.264755" lon="-72.506857"><ele>467.0</ele></trkpt>
<trkpt lat="-36.264774" lon="-72.506824"><ele>467.0</ele></trkpt>
<trkpt lat="-36.264794" lon="-72.506797"><ele>467.0</ele></trkpt>
<trkpt lat="-36.264808" lon="-72.506788"><ele>467.0</ele></trkpt>
<trkpt lat="-36.264827" lon="-72.506781"><ele>467.0</ele></trkpt>
<trkpt lat="-36.264849" lon="-72.506759"><ele>467.0</ele></trkpt>
<trkpt lat="-36.264865" lon="-72.506735"><ele>467.0</ele></trkpt>
<trkpt lat="-36.264882" lon="-72.506717"><ele>467.0</ele></trkpt>
<trkpt lat="-36.264894" lon="-72.506705"><ele>467.0</ele></trkpt>
<trkpt lat="-36.264908" lon="-72.506696"><ele>467.0</ele></trkpt>
<trkpt lat="-36.264921" lon="-72.506692"><ele>467.0</ele></trkpt>
<trkpt lat="-36.264935" lon="-72.506692"><ele>467.0</ele></trkpt>
<trkpt lat="-36.264953" lon="-72.506698"><ele>467.0</ele></trkpt>
<trkpt lat="-36.264967" lon="-72.506706"><ele>467.0</ele></trkpt>
<trkpt lat="-36.264973" lon="-72.506715"><ele>467.0</ele></trkpt>
<trkpt lat="-36.264974" lon="-72.506723"><ele>467.0</ele></trkpt>
<trkpt lat="-36.264970" lon="-72.506726"><ele>467.0</ele></trkpt>
<trkpt lat="-36.264994" lon="-72.506737"><ele>467.0</ele></trkpt>
<trkpt lat="-36.265002" lon="-72.506743"><ele>467.0</ele></trkpt>
<trkpt lat="-36.265034" lon="-72.506735"><ele>467.0</ele></trkpt>
<trkpt lat="-36.265056" lon="-72.506716"><ele>467.0</ele></trkpt>
<trkpt lat="-36.265080" lon="-72.506698"><ele>467.0</ele></trkpt>
<trkpt lat="-36.265102" lon="-72.506696"><ele>467.0</ele></trkpt>
<trkpt lat="-36.265131" lon="-72.506698"><ele>467.0</ele></trkpt>
<trkpt lat="-36.265158" lon="-72.506680"><ele>467.0</ele></trkpt>
<trkpt lat="-36.265187" lon="-72.506654"><ele>467.0</ele></trkpt>
<trkpt lat="-36.265222" lon="-72.506629"><ele>467.0</ele></trkpt>
<trkpt lat="-36.265260" lon="-72.506597"><ele>467.0</ele></trkpt>
<trkpt lat="-36.265285" lon="-72.506568"><ele>467.0</ele></trkpt>
<trkpt lat="-36.265305" lon="-72.506533"><ele>467.0</ele></trkpt>
<trkpt lat="-36.265328" lon="-72.506501"><ele>467.0</ele></trkpt>
<trkpt lat="-36.265353" lon="-72.506464"><ele>467.0</ele></trkpt>
<trkpt lat="-36.265395" lon="-72.506397"><ele>467.0</ele></trkpt>
<trkpt lat="-36.265438" lon="-72.506363"><ele>467.0</ele></trkpt>
<trkpt lat="-36.265490" lon="-72.506344"><ele>467.0</ele></trkpt>
<trkpt lat="-36.265549" lon="-72.506335"><ele>467.0</ele></trkpt>
<trkpt lat="-36.265600" lon="-72.506320"><ele>467.0</ele></trkpt>
<trkpt lat="-36.265649" lon="-72.506321"><ele>467.0</ele></trkpt>
<trkpt lat="-36.265707" lon="-72.506351"><ele>467.0</ele></trkpt>
<trkpt lat="-36.265773" lon="-72.506366"><ele>467.0</ele></trkpt>
<trkpt lat="-36.265837" lon="-72.506383"><ele>467.0</ele></trkpt>
<trkpt lat="-36.265888" lon="-72.506400"><ele>467.0</ele></trkpt>
<trkpt lat="-36.265953" lon="-72.506391"><ele>467.0</ele></trkpt>
<trkpt lat="-36.266006" lon="-72.506384"><ele>467.0</ele></trkpt>
<trkpt lat="-36.266056" lon="-72.506383"><ele>467.0</ele></trkpt>
<trkpt lat="-36.266087" lon="-72.506388"><ele>467.0</ele></trkpt>
<trkpt lat="-36.266116" lon="-72.506384"><ele>467.0</ele></trkpt>
<trkpt lat="-36.266127" lon="-72.506362"><ele>467.0</ele></trkpt>
<trkpt lat="-36.266142" lon="-72.506361"><ele>467.0</ele></trkpt>
<trkpt lat="-36.266162" lon="-72.506352"><ele>467.0</ele></trkpt>
<trkpt lat="-36.266185" lon="-72.506340"><ele>467.0</ele></trkpt>
<trkpt lat="-36.266207" lon="-72.506332"><ele>467.0</ele></trkpt>
<trkpt lat="-36.266233" lon="-72.506320"><ele>467.0</ele></trkpt>
<trkpt lat="-36.266259" lon="-72.506292"><ele>467.0</ele></trkpt>
<trkpt lat="-36.266281" lon="-72.506251"><ele>467.0</ele></trkpt>
<trkpt lat="-36.266288" lon="-72.506220"><ele>471.0</ele></trkpt>
<trkpt lat="-36.266287" lon="-72.506194"><ele>471.0</ele></trkpt>
<trkpt lat="-36.266290" lon="-72.506143"><ele>471.0</ele></trkpt>
<trkpt lat="-36.266294" lon="-72.506088"><ele>471.0</ele></trkpt>
<trkpt lat="-36.266300" lon="-72.506054"><ele>471.0</ele></trkpt>
<trkpt lat="-36.266304" lon="-72.506045"><ele>471.0</ele></trkpt>
<trkpt lat="-36.266307" lon="-72.506030"><ele>471.0</ele></trkpt>
<trkpt lat="-36.266313" lon="-72.506025"><ele>471.0</ele></trkpt>
<trkpt lat="-36.266331" lon="-72.506019"><ele>471.0</ele></trkpt>
<trkpt lat="-36.266372" lon="-72.506016"><ele>471.0</ele></trkpt>
<trkpt lat="-36.266424" lon="-72.506009"><ele>471.0</ele></trkpt>
<trkpt lat="-36.266470" lon="-72.506001"><ele>471.0</ele></trkpt>
<trkpt lat="-36.266528" lon="-72.506007"><ele>471.0</ele></trkpt>
<trkpt lat="-36.266570" lon="-72.506047"><ele>471.0</ele></trkpt>
<trkpt lat="-36.266608" lon="-72.506082"><ele>471.0</ele></trkpt>
<trkpt lat="-36.266635" lon="-72.506101"><ele>471.0</ele></trkpt>
<trkpt lat="-36.266655" lon="-72.506111"><ele>471.0</ele></trkpt>
<trkpt lat="-36.266682" lon="-72.506110"><ele>406.0</ele></trkpt>
<trkpt lat="-36.266751" lon="-72.506115"><ele>406.0</ele></trkpt>
<trkpt lat="-36.266793" lon="-72.506116"><ele>406.0</ele></trkpt>
<trkpt lat="-36.266846" lon="-72.506119"><ele>406.0</ele></trkpt>
<trkpt lat="-36.266910" lon="-72.506130"><ele>406.0</ele></trkpt>
<trkpt lat="-36.266967" lon="-72.506141"><ele>406.0</ele></trkpt>
<trkpt lat="-36.267012" lon="-72.506191"><ele>406.0</ele></trkpt>
<trkpt lat="-36.267059" lon="-72.506233"><ele>406.0</ele></trkpt>
<trkpt lat="-36.267105" lon="-72.506272"><ele>421.0</ele></trkpt>
<trkpt lat="-36.267154" lon="-72.506294"><ele>421.0</ele></trkpt>
<trkpt lat="-36.267204" lon="-72.506321"><ele>421.0</ele></trkpt>
<trkpt lat="-36.267261" lon="-72.506351"><ele>421.0</ele></trkpt>
<trkpt lat="-36.267381" lon="-72.506393"><ele>421.0</ele></trkpt>
<trkpt lat="-36.267425" lon="-72.506405"><ele>421.0</ele></trkpt>
<trkpt lat="-36.267462" lon="-72.506378"><ele>421.0</ele></trkpt>
<trkpt lat="-36.267485" lon="-72.506352"><ele>421.0</ele></trkpt>
<trkpt lat="-36.267507" lon="-72.506324"><ele>421.0</ele></trkpt>
<trkpt lat="-36.267528" lon="-72.506300"><ele>421.0</ele></trkpt>
<trkpt lat="-36.267534" lon="-72.506266"><ele>421.0</ele></trkpt>
<trkpt lat="-36.267544" lon="-72.506206"><ele>406.0</ele></trkpt>
<trkpt lat="-36.267562" lon="-72.506185"><ele>406.0</ele></trkpt>
<trkpt lat="-36.267599" lon="-72.506188"><ele>406.0</ele></trkpt>
<trkpt lat="-36.267648" lon="-72.506234"><ele>406.0</ele></trkpt>
<trkpt lat="-36.267702" lon="-72.506247"><ele>406.0</ele></trkpt>
<trkpt lat="-36.267758" lon="-72.506263"><ele>421.0</ele></trkpt>
<trkpt lat="-36.267813" lon="-72.506262"><ele>421.0</ele></trkpt>
<trkpt lat="-36.267866" lon="-72.506254"><ele>421.0</ele></trkpt>
<trkpt lat="-36.267906" lon="-72.506188"><ele>406.0</ele></trkpt>
<trkpt lat="-36.267930" lon="-72.506131"><ele>406.0</ele></trkpt>
<trkpt lat="-36.267962" lon="-72.506064"><ele>406.0</ele></trkpt>
<trkpt lat="-36.267972" lon="-72.505981"><ele>406.0</ele></trkpt>
<trkpt lat="-36.267987" lon="-72.505903"><ele>406.0</ele></trkpt>
<trkpt lat="-36.268002" lon="-72.505812"><ele>406.0</ele></trkpt>
<trkpt lat="-36.267986" lon="-72.505735"><ele>406.0</ele></trkpt>
<trkpt lat="-36.267992" lon="-72.505668"><ele>406.0</ele></trkpt>
<trkpt lat="-36.268013" lon="-72.505622"><ele>406.0</ele></trkpt>
<trkpt lat="-36.268052" lon="-72.505592"><ele>406.0</ele></trkpt>
<trkpt lat="-36.268091" lon="-72.505558"><ele>406.0</ele></trkpt>
<trkpt lat="-36.268133" lon="-72.505532"><ele>406.0</ele></trkpt>
<trkpt lat="-36.268158" lon="-72.505523"><ele>406.0</ele></trkpt>
<trkpt lat="-36.268206" lon="-72.505513"><ele>406.0</ele></trkpt>
<trkpt lat="-36.268258" lon="-72.505497"><ele>406.0</ele></trkpt>
<trkpt lat="-36.268319" lon="-72.505476"><ele>406.0</ele></trkpt>
<trkpt lat="-36.268374" lon="-72.505463"><ele>406.0</ele></trkpt>
<trkpt lat="-36.268428" lon="-72.505454"><ele>406.0</ele></trkpt>
<trkpt lat="-36.268465" lon="-72.505456"><ele>406.0</ele></trkpt>
<trkpt lat="-36.268507" lon="-72.505463"><ele>406.0</ele></trkpt>
<trkpt lat="-36.268542" lon="-72.505481"><ele>406.0</ele></trkpt>
<trkpt lat="-36.268601" lon="-72.505497"><ele>406.0</ele></trkpt>
<trkpt lat="-36.268659" lon="-72.505494"><ele>406.0</ele></trkpt>
<trkpt lat="-36.268713" lon="-72.505494"><ele>406.0</ele></trkpt>
<trkpt lat="-36.268761" lon="-72.505500"><ele>361.0</ele></trkpt>
<trkpt lat="-36.268812" lon="-72.505488"><ele>361.0</ele></trkpt>
<trkpt lat="-36.268873" lon="-72.505487"><ele>361.0</ele></trkpt>
<trkpt lat="-36.268936" lon="-72.505482"><ele>361.0</ele></trkpt>
<trkpt lat="-36.268991" lon="-72.505476"><ele>361.0</ele></trkpt>
<trkpt lat="-36.269041" lon="-72.505463"><ele>361.0</ele></trkpt>
<trkpt lat="-36.269083" lon="-72.505438"><ele>361.0</ele></trkpt>
<trkpt lat="-36.269123" lon="-72.505431"><ele>361.0</ele></trkpt>
<trkpt lat="-36.269155" lon="-72.505443"><ele>361.0</ele></trkpt>
<trkpt lat="-36.269181" lon="-72.505475"><ele>361.0</ele></trkpt>
<trkpt lat="-36.269206" lon="-72.505510"><ele>361.0</ele></trkpt>
<trkpt lat="-36.269234" lon="-72.505539"><ele>361.0</ele></trkpt>
<trkpt lat="-36.269284" lon="-72.505572"><ele>361.0</ele></trkpt>
<trkpt lat="-36.269311" lon="-72.505586"><ele>361.0</ele></trkpt>
<trkpt lat="-36.269363" lon="-72.505579"><ele>361.0</ele></trkpt>
<trkpt lat="-36.269414" lon="-72.505569"><ele>361.0</ele></trkpt>
<trkpt lat="-36.269462" lon="-72.505547"><ele>361.0</ele></trkpt>
<trkpt lat="-36.269514" lon="-72.505518"><ele>361.0</ele></trkpt>
<trkpt lat="-36.269568" lon="-72.505497"><ele>361.0</ele></trkpt>
<trkpt lat="-36.269638" lon="-72.505478"><ele>361.0</ele></trkpt>
<trkpt lat="-36.269683" lon="-72.505463"><ele>361.0</ele></trkpt>
<trkpt lat="-36.269752" lon="-72.505473"><ele>361.0</ele></trkpt>
<trkpt lat="-36.269764" lon="-72.505481"><ele>361.0</ele></trkpt>
<trkpt lat="-36.269761" lon="-72.505488"><ele>361.0</ele></trkpt>
<trkpt lat="-36.269771" lon="-72.505508"><ele>361.0</ele></trkpt>
<trkpt lat="-36.269794" lon="-72.505506"><ele>361.0</ele></trkpt>
<trkpt lat="-36.269801" lon="-72.505509"><ele>361.0</ele></trkpt>
<trkpt lat="-36.269801" lon="-72.505518"><ele>361.0</ele></trkpt>
<trkpt lat="-36.269798" lon="-72.505523"><ele>361.0</ele></trkpt>
<trkpt lat="-36.269806" lon="-72.505523"><ele>361.0</ele></trkpt>
<trkpt lat="-36.269781" lon="-72.505509"><ele>361.0</ele></trkpt>
<trkpt lat="-36.269771" lon="-72.505505"><ele>361.0</ele></trkpt>
<trkpt lat="-36.269746" lon="-72.505478"><ele>361.0</ele></trkpt>
<trkpt lat="-36.269730" lon="-72.505467"><ele>361.0</ele></trkpt>
<trkpt lat="-36.269723" lon="-72.505460"><ele>361.0</ele></trkpt>
<trkpt lat="-36.269735" lon="-72.505414"><ele>361.0</ele></trkpt>
<trkpt lat="-36.269744" lon="-72.505406"><ele>361.0</ele></trkpt>
<trkpt lat="-36.269746" lon="-72.505409"><ele>361.0</ele></trkpt>
<trkpt lat="-36.269755" lon="-72.505404"><ele>361.0</ele></trkpt>
<trkpt lat="-36.269782" lon="-72.505408"><ele>361.0</ele></trkpt>
<trkpt lat="-36.269805" lon="-72.505428"><ele>361.0</ele></trkpt>
<trkpt lat="-36.269827" lon="-72.505457"><ele>361.0</ele></trkpt>
<trkpt lat="-36.269848" lon="-72.505485"><ele>361.0</ele></trkpt>
<trkpt lat="-36.269870" lon="-72.505512"><ele>361.0</ele></trkpt>
<trkpt lat="-36.269892" lon="-72.505536"><ele>361.0</ele></trkpt>
<trkpt lat="-36.269926" lon="-72.505564"><ele>361.0</ele></trkpt>
<trkpt lat="-36.269963" lon="-72.505590"><ele>361.0</ele></trkpt>
<trkpt lat="-36.270001" lon="-72.505618"><ele>361.0</ele></trkpt>
<trkpt lat="-36.270038" lon="-72.505644"><ele>361.0</ele></trkpt>
<trkpt lat="-36.270073" lon="-72.505664"><ele>361.0</ele></trkpt>
<trkpt lat="-36.270112" lon="-72.505679"><ele>361.0</ele></trkpt>
<trkpt lat="-36.270146" lon="-72.505684"><ele>361.0</ele></trkpt>
<trkpt lat="-36.270183" lon="-72.505696"><ele>361.0</ele></trkpt>
<trkpt lat="-36.270221" lon="-72.505711"><ele>361.0</ele></trkpt>
<trkpt lat="-36.270258" lon="-72.505720"><ele>361.0</ele></trkpt>
<trkpt lat="-36.270333" lon="-72.505725"><ele>361.0</ele></trkpt>
<trkpt lat="-36.270405" lon="-72.505751"><ele>361.0</ele></trkpt>
<trkpt lat="-36.270446" lon="-72.505768"><ele>361.0</ele></trkpt>
<trkpt lat="-36.270489" lon="-72.505793"><ele>361.0</ele></trkpt>
<trkpt lat="-36.270530" lon="-72.505820"><ele>361.0</ele></trkpt>
<trkpt lat="-36.270569" lon="-72.505856"><ele>361.0</ele></trkpt>
<trkpt lat="-36.270620" lon="-72.505899"><ele>361.0</ele></trkpt>
<trkpt lat="-36.270679" lon="-72.505959"><ele>361.0</ele></trkpt>
<trkpt lat="-36.270727" lon="-72.506010"><ele>361.0</ele></trkpt>
<trkpt lat="-36.270770" lon="-72.506063"><ele>361.0</ele></trkpt>
<trkpt lat="-36.270808" lon="-72.506118"><ele>361.0</ele></trkpt>
<trkpt lat="-36.270844" lon="-72.506175"><ele>366.0</ele></trkpt>
<trkpt lat="-36.270881" lon="-72.506237"><ele>366.0</ele></trkpt>
<trkpt lat="-36.270914" lon="-72.506299"><ele>360.0</ele></trkpt>
<trkpt lat="-36.270946" lon="-72.506372"><ele>360.0</ele></trkpt>
<trkpt lat="-36.270968" lon="-72.506443"><ele>360.0</ele></trkpt>
<trkpt lat="-36.270987" lon="-72.506518"><ele>360.0</ele></trkpt>
<trkpt lat="-36.271002" lon="-72.506593"><ele>360.0</ele></trkpt>
<trkpt lat="-36.271011" lon="-72.506662"><ele>360.0</ele></trkpt>
<trkpt lat="-36.271017" lon="-72.506732"><ele>360.0</ele></trkpt>
<trkpt lat="-36.271022" lon="-72.506793"><ele>360.0</ele></trkpt>
<trkpt lat="-36.271025" lon="-72.506861"><ele>360.0</ele></trkpt>
<trkpt lat="-36.271028" lon="-72.506928"><ele>360.0</ele></trkpt>
<trkpt lat="-36.271032" lon="-72.506993"><ele>360.0</ele></trkpt>
<trkpt lat="-36.271037" lon="-72.507068"><ele>360.0</ele></trkpt>
<trkpt lat="-36.271039" lon="-72.507128"><ele>360.0</ele></trkpt>
<trkpt lat="-36.271040" lon="-72.507206"><ele>360.0</ele></trkpt>
<trkpt lat="-36.271037" lon="-72.507276"><ele>360.0</ele></trkpt>
<trkpt lat="-36.271037" lon="-72.507347"><ele>360.0</ele></trkpt>
<trkpt lat="-36.271035" lon="-72.507421"><ele>360.0</ele></trkpt>
<trkpt lat="-36.271031" lon="-72.507489"><ele>360.0</ele></trkpt>
<trkpt lat="-36.271026" lon="-72.507569"><ele>360.0</ele></trkpt>
<trkpt lat="-36.271015" lon="-72.507640"><ele>360.0</ele></trkpt>
<trkpt lat="-36.271007" lon="-72.507715"><ele>360.0</ele></trkpt>
<trkpt lat="-36.270998" lon="-72.507792"><ele>360.0</ele></trkpt>
<trkpt lat="-36.270987" lon="-72.507868"><ele>360.0</ele></trkpt>
<trkpt lat="-36.270974" lon="-72.507945"><ele>360.0</ele></trkpt>
<trkpt lat="-36.270960" lon="-72.508022"><ele>360.0</ele></trkpt>
<trkpt lat="-36.270945" lon="-72.508093"><ele>360.0</ele></trkpt>
<trkpt lat="-36.270929" lon="-72.508168"><ele>360.0</ele></trkpt>
<trkpt lat="-36.270913" lon="-72.508241"><ele>360.0</ele></trkpt>
<trkpt lat="-36.270900" lon="-72.508309"><ele>360.0</ele></trkpt>
<trkpt lat="-36.270891" lon="-72.508377"><ele>352.0</ele></trkpt>
<trkpt lat="-36.270883" lon="-72.508444"><ele>352.0</ele></trkpt>
<trkpt lat="-36.270878" lon="-72.508504"><ele>352.0</ele></trkpt>
<trkpt lat="-36.270876" lon="-72.508574"><ele>352.0</ele></trkpt>
<trkpt lat="-36.270880" lon="-72.508631"><ele>352.0</ele></trkpt>
<trkpt lat="-36.270878" lon="-72.508698"><ele>352.0</ele></trkpt>
<trkpt lat="-36.270881" lon="-72.508764"><ele>352.0</ele></trkpt>
<trkpt lat="-36.270887" lon="-72.508827"><ele>352.0</ele></trkpt>
<trkpt lat="-36.270895" lon="-72.508891"><ele>352.0</ele></trkpt>
<trkpt lat="-36.270907" lon="-72.508956"><ele>352.0</ele></trkpt>
<trkpt lat="-36.270914" lon="-72.509014"><ele>352.0</ele></trkpt>
<trkpt lat="-36.270925" lon="-72.509071"><ele>352.0</ele></trkpt>
<trkpt lat="-36.270936" lon="-72.509125"><ele>352.0</ele></trkpt>
<trkpt lat="-36.270946" lon="-72.509191"><ele>352.0</ele></trkpt>
<trkpt lat="-36.270958" lon="-72.509254"><ele>352.0</ele></trkpt>
<trkpt lat="-36.270967" lon="-72.509312"><ele>352.0</ele></trkpt>
<trkpt lat="-36.270981" lon="-72.509383"><ele>352.0</ele></trkpt>
<trkpt lat="-36.270990" lon="-72.509445"><ele>352.0</ele></trkpt>
<trkpt lat="-36.270996" lon="-72.509504"><ele>352.0</ele></trkpt>
<trkpt lat="-36.270999" lon="-72.509573"><ele>352.0</ele></trkpt>
<trkpt lat="-36.271000" lon="-72.509635"><ele>352.0</ele></trkpt>
<trkpt lat="-36.270995" lon="-72.509711"><ele>352.0</ele></trkpt>
<trkpt lat="-36.270985" lon="-72.509790"><ele>352.0</ele></trkpt>
<trkpt lat="-36.270973" lon="-72.509863"><ele>352.0</ele></trkpt>
<trkpt lat="-36.270964" lon="-72.509939"><ele>352.0</ele></trkpt>
<trkpt lat="-36.270956" lon="-72.510014"><ele>352.0</ele></trkpt>
<trkpt lat="-36.270956" lon="-72.510093"><ele>352.0</ele></trkpt>
<trkpt lat="-36.270957" lon="-72.510167"><ele>352.0</ele></trkpt>
<trkpt lat="-36.270956" lon="-72.510253"><ele>352.0</ele></trkpt>
<trkpt lat="-36.270958" lon="-72.510338"><ele>352.0</ele></trkpt>
<trkpt lat="-36.270959" lon="-72.510426"><ele>342.0</ele></trkpt>
<trkpt lat="-36.270961" lon="-72.510508"><ele>342.0</ele></trkpt>
<trkpt lat="-36.270966" lon="-72.510590"><ele>342.0</ele></trkpt>
<trkpt lat="-36.270968" lon="-72.510662"><ele>342.0</ele></trkpt>
<trkpt lat="-36.270972" lon="-72.510737"><ele>342.0</ele></trkpt>
<trkpt lat="-36.270971" lon="-72.510802"><ele>342.0</ele></trkpt>
<trkpt lat="-36.270969" lon="-72.510880"><ele>342.0</ele></trkpt>
<trkpt lat="-36.270963" lon="-72.510948"><ele>342.0</ele></trkpt>
<trkpt lat="-36.270958" lon="-72.511010"><ele>342.0</ele></trkpt>
<trkpt lat="-36.270955" lon="-72.511073"><ele>342.0</ele></trkpt>
<trkpt lat="-36.270949" lon="-72.511140"><ele>342.0</ele></trkpt>
<trkpt lat="-36.270940" lon="-72.511200"><ele>342.0</ele></trkpt>
<trkpt lat="-36.270931" lon="-72.511275"><ele>342.0</ele></trkpt>
<trkpt lat="-36.270919" lon="-72.511340"><ele>342.0</ele></trkpt>
<trkpt lat="-36.270908" lon="-72.511395"><ele>342.0</ele></trkpt>
<trkpt lat="-36.270890" lon="-72.511457"><ele>342.0</ele></trkpt>
<trkpt lat="-36.270869" lon="-72.511516"><ele>342.0</ele></trkpt>
<trkpt lat="-36.270852" lon="-72.511570"><ele>342.0</ele></trkpt>
<trkpt lat="-36.270835" lon="-72.511646"><ele>342.0</ele></trkpt>
<trkpt lat="-36.270814" lon="-72.511714"><ele>363.0</ele></trkpt>
<trkpt lat="-36.270738" lon="-72.511917"><ele>363.0</ele></trkpt>
<trkpt lat="-36.270709" lon="-72.511981"><ele>363.0</ele></trkpt>
<trkpt lat="-36.270689" lon="-72.512073"><ele>363.0</ele></trkpt>
<trkpt lat="-36.270675" lon="-72.512138"><ele>363.0</ele></trkpt>
<trkpt lat="-36.270665" lon="-72.512202"><ele>363.0</ele></trkpt>
<trkpt lat="-36.270653" lon="-72.512264"><ele>363.0</ele></trkpt>
<trkpt lat="-36.270642" lon="-72.512339"><ele>363.0</ele></trkpt>
<trkpt lat="-36.270638" lon="-72.512415"><ele>363.0</ele></trkpt>
<trkpt lat="-36.270632" lon="-72.512515"><ele>339.0</ele></trkpt>
<trkpt lat="-36.270622" lon="-72.512591"><ele>339.0</ele></trkpt>
<trkpt lat="-36.270606" lon="-72.512656"><ele>339.0</ele></trkpt>
<trkpt lat="-36.270587" lon="-72.512725"><ele>339.0</ele></trkpt>
<trkpt lat="-36.270572" lon="-72.512806"><ele>339.0</ele></trkpt>
<trkpt lat="-36.270542" lon="-72.512864"><ele>339.0</ele></trkpt>
<trkpt lat="-36.270518" lon="-72.512949"><ele>339.0</ele></trkpt>
<trkpt lat="-36.270489" lon="-72.513026"><ele>339.0</ele></trkpt>
<trkpt lat="-36.270465" lon="-72.513087"><ele>339.0</ele></trkpt>
<trkpt lat="-36.270436" lon="-72.513142"><ele>339.0</ele></trkpt>
<trkpt lat="-36.270405" lon="-72.513200"><ele>339.0</ele></trkpt>
<trkpt lat="-36.270371" lon="-72.513265"><ele>339.0</ele></trkpt>
<trkpt lat="-36.270338" lon="-72.513320"><ele>339.0</ele></trkpt>
<trkpt lat="-36.270278" lon="-72.513433"><ele>339.0</ele></trkpt>
<trkpt lat="-36.270244" lon="-72.513482"><ele>339.0</ele></trkpt>
<trkpt lat="-36.270223" lon="-72.513522"><ele>339.0</ele></trkpt>
<trkpt lat="-36.270212" lon="-72.513575"><ele>339.0</ele></trkpt>
<trkpt lat="-36.270202" lon="-72.513633"><ele>339.0</ele></trkpt>
<trkpt lat="-36.270207" lon="-72.513691"><ele>339.0</ele></trkpt>
<trkpt lat="-36.270221" lon="-72.513748"><ele>339.0</ele></trkpt>
<trkpt lat="-36.270231" lon="-72.513806"><ele>339.0</ele></trkpt>
<trkpt lat="-36.270241" lon="-72.513872"><ele>339.0</ele></trkpt>
<trkpt lat="-36.270251" lon="-72.513936"><ele>339.0</ele></trkpt>
<trkpt lat="-36.270256" lon="-72.513998"><ele>339.0</ele></trkpt>
<trkpt lat="-36.270251" lon="-72.514123"><ele>339.0</ele></trkpt>
<trkpt lat="-36.270245" lon="-72.514191"><ele>339.0</ele></trkpt>
<trkpt lat="-36.270232" lon="-72.514253"><ele>339.0</ele></trkpt>
<trkpt lat="-36.270221" lon="-72.514308"><ele>339.0</ele></trkpt>
<trkpt lat="-36.270212" lon="-72.514370"><ele>339.0</ele></trkpt>
<trkpt lat="-36.270200" lon="-72.514427"><ele>339.0</ele></trkpt>
<trkpt lat="-36.270183" lon="-72.514486"><ele>339.0</ele></trkpt>
<trkpt lat="-36.270168" lon="-72.514544"><ele>339.0</ele></trkpt>
<trkpt lat="-36.270153" lon="-72.514599"><ele>318.0</ele></trkpt>
<trkpt lat="-36.270133" lon="-72.514659"><ele>318.0</ele></trkpt>
<trkpt lat="-36.270099" lon="-72.514842"><ele>318.0</ele></trkpt>
<trkpt lat="-36.270087" lon="-72.514903"><ele>318.0</ele></trkpt>
<trkpt lat="-36.270070" lon="-72.514971"><ele>318.0</ele></trkpt>
<trkpt lat="-36.270058" lon="-72.515028"><ele>318.0</ele></trkpt>
<trkpt lat="-36.270044" lon="-72.515088"><ele>318.0</ele></trkpt>
<trkpt lat="-36.270034" lon="-72.515148"><ele>318.0</ele></trkpt>
<trkpt lat="-36.270022" lon="-72.515214"><ele>318.0</ele></trkpt>
<trkpt lat="-36.270014" lon="-72.515275"><ele>318.0</ele></trkpt>
<trkpt lat="-36.270003" lon="-72.515337"><ele>318.0</ele></trkpt>
<trkpt lat="-36.269993" lon="-72.515391"><ele>318.0</ele></trkpt>
<trkpt lat="-36.269984" lon="-72.515453"><ele>318.0</ele></trkpt>
<trkpt lat="-36.269965" lon="-72.515557"><ele>318.0</ele></trkpt>
<trkpt lat="-36.269933" lon="-72.515664"><ele>318.0</ele></trkpt>
<trkpt lat="-36.269919" lon="-72.515714"><ele>318.0</ele></trkpt>
<trkpt lat="-36.269905" lon="-72.515777"><ele>318.0</ele></trkpt>
<trkpt lat="-36.269893" lon="-72.515826"><ele>318.0</ele></trkpt>
<trkpt lat="-36.269879" lon="-72.515868"><ele>318.0</ele></trkpt>
<trkpt lat="-36.269864" lon="-72.515909"><ele>318.0</ele></trkpt>
<trkpt lat="-36.269851" lon="-72.515947"><ele>318.0</ele></trkpt>
<trkpt lat="-36.269832" lon="-72.516021"><ele>318.0</ele></trkpt>
<trkpt lat="-36.269822" lon="-72.516080"><ele>318.0</ele></trkpt>
<trkpt lat="-36.269826" lon="-72.516170"><ele>318.0</ele></trkpt>
<trkpt lat="-36.269831" lon="-72.516200"><ele>318.0</ele></trkpt>
<trkpt lat="-36.269867" lon="-72.516335"><ele>318.0</ele></trkpt>
<trkpt lat="-36.269885" lon="-72.516409"><ele>318.0</ele></trkpt>
<trkpt lat="-36.269915" lon="-72.516516"><ele>318.0</ele></trkpt>
<trkpt lat="-36.269923" lon="-72.516553"><ele>318.0</ele></trkpt>
<trkpt lat="-36.269941" lon="-72.516622"><ele>318.0</ele></trkpt>
<trkpt lat="-36.269949" lon="-72.516656"><ele>318.0</ele></trkpt>
<trkpt lat="-36.269958" lon="-72.516690"><ele>314.0</ele></trkpt>
<trkpt lat="-36.269968" lon="-72.516723"><ele>314.0</ele></trkpt>
<trkpt lat="-36.269979" lon="-72.516761"><ele>314.0</ele></trkpt>
<trkpt lat="-36.269990" lon="-72.516803"><ele>314.0</ele></trkpt>
<trkpt lat="-36.270000" lon="-72.516850"><ele>314.0</ele></trkpt>
<trkpt lat="-36.270009" lon="-72.516900"><ele>314.0</ele></trkpt>
<trkpt lat="-36.270020" lon="-72.516945"><ele>314.0</ele></trkpt>
<trkpt lat="-36.270026" lon="-72.516993"><ele>314.0</ele></trkpt>
<trkpt lat="-36.270028" lon="-72.517052"><ele>314.0</ele></trkpt>
<trkpt lat="-36.270027" lon="-72.517122"><ele>314.0</ele></trkpt>
<trkpt lat="-36.270013" lon="-72.517329"><ele>314.0</ele></trkpt>
<trkpt lat="-36.270014" lon="-72.517439"><ele>314.0</ele></trkpt>
<trkpt lat="-36.270016" lon="-72.517539"><ele>314.0</ele></trkpt>
<trkpt lat="-36.270012" lon="-72.517739"><ele>314.0</ele></trkpt>
<trkpt lat="-36.270009" lon="-72.517834"><ele>314.0</ele></trkpt>
<trkpt lat="-36.270011" lon="-72.517930"><ele>314.0</ele></trkpt>
<trkpt lat="-36.270014" lon="-72.518028"><ele>314.0</ele></trkpt>
<trkpt lat="-36.270016" lon="-72.518214"><ele>314.0</ele></trkpt>
<trkpt lat="-36.270015" lon="-72.518297"><ele>314.0</ele></trkpt>
<trkpt lat="-36.270019" lon="-72.518448"><ele>314.0</ele></trkpt>
<trkpt lat="-36.270020" lon="-72.518513"><ele>314.0</ele></trkpt>
<trkpt lat="-36.270029" lon="-72.518569"><ele>314.0</ele></trkpt>
<trkpt lat="-36.270043" lon="-72.518612"><ele>314.0</ele></trkpt>
<trkpt lat="-36.270052" lon="-72.518648"><ele>314.0</ele></trkpt>
<trkpt lat="-36.270051" lon="-72.518676"><ele>314.0</ele></trkpt>
<trkpt lat="-36.270046" lon="-72.518694"><ele>314.0</ele></trkpt>
<trkpt lat="-36.270017" lon="-72.518721"><ele>314.0</ele></trkpt>
<trkpt lat="-36.270020" lon="-72.518715"><ele>314.0</ele></trkpt>
<trkpt lat="-36.270023" lon="-72.518733"><ele>314.0</ele></trkpt>
<trkpt lat="-36.270016" lon="-72.518721"><ele>314.0</ele></trkpt>
<trkpt lat="-36.269981" lon="-72.518699"><ele>314.0</ele></trkpt>
<trkpt lat="-36.269959" lon="-72.518682"><ele>314.0</ele></trkpt>
<trkpt lat="-36.269934" lon="-72.518654"><ele>314.0</ele></trkpt>
<trkpt lat="-36.269907" lon="-72.518622"><ele>314.0</ele></trkpt>
<trkpt lat="-36.269875" lon="-72.518591"><ele>314.0</ele></trkpt>
<trkpt lat="-36.269848" lon="-72.518567"><ele>314.0</ele></trkpt>
<trkpt lat="-36.269829" lon="-72.518551"><ele>314.0</ele></trkpt>
<trkpt lat="-36.269818" lon="-72.518563"><ele>314.0</ele></trkpt>
<trkpt lat="-36.269824" lon="-72.518548"><ele>314.0</ele></trkpt>
<trkpt lat="-36.269829" lon="-72.518552"><ele>314.0</ele></trkpt>
<trkpt lat="-36.269825" lon="-72.518565"><ele>314.0</ele></trkpt>
<trkpt lat="-36.269833" lon="-72.518572"><ele>314.0</ele></trkpt>
<trkpt lat="-36.269814" lon="-72.518574"><ele>314.0</ele></trkpt>
<trkpt lat="-36.269813" lon="-72.518568"><ele>314.0</ele></trkpt>
</trkseg></trk>
<trk><name>La Virgen</name><trkseg>
<trkpt lat="-36.266990" lon="-72.508768"><ele>428.0</ele></trkpt>
<trkpt lat="-36.267003" lon="-72.508782"><ele>428.0</ele></trkpt>
<trkpt lat="-36.267011" lon="-72.508777"><ele>428.0</ele></trkpt>
<trkpt lat="-36.267015" lon="-72.508768"><ele>428.0</ele></trkpt>
<trkpt lat="-36.267006" lon="-72.508759"><ele>428.0</ele></trkpt>
<trkpt lat="-36.267011" lon="-72.508764"><ele>428.0</ele></trkpt>
<trkpt lat="-36.267013" lon="-72.508758"><ele>428.0</ele></trkpt>
<trkpt lat="-36.267020" lon="-72.508758"><ele>428.0</ele></trkpt>
<trkpt lat="-36.267027" lon="-72.508767"><ele>428.0</ele></trkpt>
<trkpt lat="-36.267033" lon="-72.508788"><ele>428.0</ele></trkpt>
<trkpt lat="-36.267036" lon="-72.508806"><ele>428.0</ele></trkpt>
<trkpt lat="-36.267041" lon="-72.508821"><ele>428.0</ele></trkpt>
<trkpt lat="-36.267051" lon="-72.508843"><ele>428.0</ele></trkpt>
<trkpt lat="-36.267098" lon="-72.508929"><ele>428.0</ele></trkpt>
<trkpt lat="-36.267116" lon="-72.508959"><ele>428.0</ele></trkpt>
<trkpt lat="-36.267135" lon="-72.508995"><ele>428.0</ele></trkpt>
<trkpt lat="-36.267153" lon="-72.509054"><ele>428.0</ele></trkpt>
<trkpt lat="-36.267163" lon="-72.509063"><ele>428.0</ele></trkpt>
<trkpt lat="-36.267170" lon="-72.509107"><ele>428.0</ele></trkpt>
<trkpt lat="-36.267181" lon="-72.509147"><ele>428.0</ele></trkpt>
<trkpt lat="-36.267191" lon="-72.509219"><ele>428.0</ele></trkpt>
<trkpt lat="-36.267206" lon="-72.509263"><ele>428.0</ele></trkpt>
<trkpt lat="-36.267212" lon="-72.509303"><ele>428.0</ele></trkpt>
<trkpt lat="-36.267236" lon="-72.509390"><ele>428.0</ele></trkpt>
<trkpt lat="-36.267253" lon="-72.509423"><ele>428.0</ele></trkpt>
<trkpt lat="-36.267282" lon="-72.509467"><ele>428.0</ele></trkpt>
<trkpt lat="-36.267302" lon="-72.509492"><ele>428.0</ele></trkpt>
<trkpt lat="-36.267325" lon="-72.509507"><ele>428.0</ele></trkpt>
<trkpt lat="-36.267340" lon="-72.509533"><ele>428.0</ele></trkpt>
<trkpt lat="-36.267358" lon="-72.509559"><ele>428.0</ele></trkpt>
<trkpt lat="-36.267372" lon="-72.509587"><ele>428.0</ele></trkpt>
<trkpt lat="-36.267383" lon="-72.509612"><ele>428.0</ele></trkpt>
<trkpt lat="-36.267391" lon="-72.509642"><ele>428.0</ele></trkpt>
<trkpt lat="-36.267398" lon="-72.509684"><ele>428.0</ele></trkpt>
<trkpt lat="-36.267392" lon="-72.509737"><ele>428.0</ele></trkpt>
<trkpt lat="-36.267378" lon="-72.509793"><ele>428.0</ele></trkpt>
<trkpt lat="-36.267358" lon="-72.509871"><ele>428.0</ele></trkpt>
<trkpt lat="-36.267354" lon="-72.509929"><ele>428.0</ele></trkpt>
<trkpt lat="-36.267323" lon="-72.509984"><ele>428.0</ele></trkpt>
<trkpt lat="-36.267295" lon="-72.510040"><ele>428.0</ele></trkpt>
<trkpt lat="-36.267288" lon="-72.510108"><ele>428.0</ele></trkpt>
<trkpt lat="-36.267294" lon="-72.510172"><ele>428.0</ele></trkpt>
<trkpt lat="-36.267269" lon="-72.510227"><ele>428.0</ele></trkpt>
<trkpt lat="-36.267251" lon="-72.510280"><ele>428.0</ele></trkpt>
<trkpt lat="-36.267249" lon="-72.510346"><ele>428.0</ele></trkpt>
<trkpt lat="-36.267250" lon="-72.510404"><ele>428.0</ele></trkpt>
<trkpt lat="-36.267244" lon="-72.510435"><ele>414.0</ele></trkpt>
<trkpt lat="-36.267248" lon="-72.510504"><ele>414.0</ele></trkpt>
<trkpt lat="-36.267244" lon="-72.510586"><ele>414.0</ele></trkpt>
<trkpt lat="-36.267232" lon="-72.510663"><ele>414.0</ele></trkpt>
<trkpt lat="-36.267209" lon="-72.510746"><ele>414.0</ele></trkpt>
<trkpt lat="-36.267200" lon="-72.510799"><ele>414.0</ele></trkpt>
<trkpt lat="-36.267212" lon="-72.510871"><ele>414.0</ele></trkpt>
<trkpt lat="-36.267221" lon="-72.510916"><ele>414.0</ele></trkpt>
<trkpt lat="-36.267235" lon="-72.510938"><ele>414.0</ele></trkpt>
<trkpt lat="-36.267283" lon="-72.511040"><ele>414.0</ele></trkpt>
<trkpt lat="-36.267301" lon="-72.511096"><ele>414.0</ele></trkpt>
<trkpt lat="-36.267319" lon="-72.511202"><ele>414.0</ele></trkpt>
<trkpt lat="-36.267331" lon="-72.511287"><ele>414.0</ele></trkpt>
<trkpt lat="-36.267342" lon="-72.511368"><ele>414.0</ele></trkpt>
<trkpt lat="-36.267343" lon="-72.511460"><ele>414.0</ele></trkpt>
<trkpt lat="-36.267335" lon="-72.511540"><ele>414.0</ele></trkpt>
<trkpt lat="-36.267328" lon="-72.511623"><ele>414.0</ele></trkpt>
<trkpt lat="-36.267326" lon="-72.511698"><ele>414.0</ele></trkpt>
<trkpt lat="-36.267312" lon="-72.511758"><ele>414.0</ele></trkpt>
<trkpt lat="-36.267298" lon="-72.511801"><ele>414.0</ele></trkpt>
<trkpt lat="-36.267288" lon="-72.511835"><ele>414.0</ele></trkpt>
<trkpt lat="-36.267293" lon="-72.511905"><ele>414.0</ele></trkpt>
<trkpt lat="-36.267286" lon="-72.511945"><ele>414.0</ele></trkpt>
<trkpt lat="-36.267293" lon="-72.512023"><ele>414.0</ele></trkpt>
<trkpt lat="-36.267305" lon="-72.512077"><ele>414.0</ele></trkpt>
<trkpt lat="-36.267318" lon="-72.512131"><ele>414.0</ele></trkpt>
<trkpt lat="-36.267297" lon="-72.512193"><ele>414.0</ele></trkpt>
<trkpt lat="-36.267299" lon="-72.512245"><ele>414.0</ele></trkpt>
<trkpt lat="-36.267293" lon="-72.512305"><ele>414.0</ele></trkpt>
<trkpt lat="-36.267299" lon="-72.512374"><ele>414.0</ele></trkpt>
<trkpt lat="-36.267301" lon="-72.512433"><ele>414.0</ele></trkpt>
<trkpt lat="-36.267304" lon="-72.512491"><ele>414.0</ele></trkpt>
<trkpt lat="-36.267304" lon="-72.512541"><ele>388.0</ele></trkpt>
<trkpt lat="-36.267277" lon="-72.512608"><ele>388.0</ele></trkpt>
<trkpt lat="-36.267252" lon="-72.512669"><ele>388.0</ele></trkpt>
<trkpt lat="-36.267218" lon="-72.512728"><ele>388.0</ele></trkpt>
<trkpt lat="-36.267186" lon="-72.512804"><ele>388.0</ele></trkpt>
<trkpt lat="-36.267151" lon="-72.512880"><ele>388.0</ele></trkpt>
<trkpt lat="-36.267117" lon="-72.512934"><ele>388.0</ele></trkpt>
<trkpt lat="-36.267107" lon="-72.512971"><ele>388.0</ele></trkpt>
<trkpt lat="-36.267120" lon="-72.513018"><ele>388.0</ele></trkpt>
<trkpt lat="-36.267146" lon="-72.513066"><ele>388.0</ele></trkpt>
<trkpt lat="-36.267164" lon="-72.513082"><ele>388.0</ele></trkpt>
<trkpt lat="-36.267184" lon="-72.513102"><ele>388.0</ele></trkpt>
<trkpt lat="-36.267228" lon="-72.513150"><ele>388.0</ele></trkpt>
<trkpt lat="-36.267280" lon="-72.513234"><ele>388.0</ele></trkpt>
<trkpt lat="-36.267332" lon="-72.513345"><ele>388.0</ele></trkpt>
<trkpt lat="-36.267368" lon="-72.513432"><ele>388.0</ele></trkpt>
<trkpt lat="-36.267392" lon="-72.513508"><ele>388.0</ele></trkpt>
<trkpt lat="-36.267425" lon="-72.513554"><ele>388.0</ele></trkpt>
<trkpt lat="-36.267461" lon="-72.513648"><ele>388.0</ele></trkpt>
<trkpt lat="-36.267481" lon="-72.513742"><ele>388.0</ele></trkpt>
<trkpt lat="-36.267510" lon="-72.513833"><ele>388.0</ele></trkpt>
<trkpt lat="-36.267528" lon="-72.513911"><ele>388.0</ele></trkpt>
<trkpt lat="-36.267556" lon="-72.513982"><ele>388.0</ele></trkpt>
<trkpt lat="-36.267571" lon="-72.513996"><ele>388.0</ele></trkpt>
<trkpt lat="-36.267591" lon="-72.514030"><ele>388.0</ele></trkpt>
<trkpt lat="-36.267609" lon="-72.514065"><ele>388.0</ele></trkpt>
<trkpt lat="-36.267624" lon="-72.514108"><ele>388.0</ele></trkpt>
<trkpt lat="-36.267617" lon="-72.514139"><ele>388.0</ele></trkpt>
<trkpt lat="-36.267609" lon="-72.514195"><ele>388.0</ele></trkpt>
<trkpt lat="-36.267595" lon="-72.514224"><ele>388.0</ele></trkpt>
<trkpt lat="-36.267562" lon="-72.514263"><ele>388.0</ele></trkpt>
<trkpt lat="-36.267553" lon="-72.514323"><ele>388.0</ele></trkpt>
<trkpt lat="-36.267563" lon="-72.514368"><ele>388.0</ele></trkpt>
<trkpt lat="-36.267568" lon="-72.514415"><ele>388.0</ele></trkpt>
<trkpt lat="-36.267569" lon="-72.514456"><ele>388.0</ele></trkpt>
<trkpt lat="-36.267583" lon="-72.514528"><ele>388.0</ele></trkpt>
<trkpt lat="-36.267604" lon="-72.514549"><ele>388.0</ele></trkpt>
<trkpt lat="-36.267615" lon="-72.514569"><ele>388.0</ele></trkpt>
<trkpt lat="-36.267651" lon="-72.514590"><ele>356.0</ele></trkpt>
<trkpt lat="-36.267704" lon="-72.514620"><ele>356.0</ele></trkpt>
<trkpt lat="-36.267758" lon="-72.514668"><ele>356.0</ele></trkpt>
<trkpt lat="-36.267784" lon="-72.514678"><ele>356.0</ele></trkpt>
<trkpt lat="-36.267819" lon="-72.514717"><ele>356.0</ele></trkpt>
<trkpt lat="-36.267825" lon="-72.514729"><ele>356.0</ele></trkpt>
<trkpt lat="-36.267832" lon="-72.514761"><ele>356.0</ele></trkpt>
<trkpt lat="-36.267847" lon="-72.514811"><ele>356.0</ele></trkpt>
<trkpt lat="-36.267858" lon="-72.514863"><ele>356.0</ele></trkpt>
<trkpt lat="-36.267879" lon="-72.514928"><ele>356.0</ele></trkpt>
<trkpt lat="-36.267871" lon="-72.515004"><ele>356.0</ele></trkpt>
<trkpt lat="-36.267849" lon="-72.515080"><ele>356.0</ele></trkpt>
<trkpt lat="-36.267833" lon="-72.515159"><ele>356.0</ele></trkpt>
<trkpt lat="-36.267803" lon="-72.515244"><ele>356.0</ele></trkpt>
<trkpt lat="-36.267804" lon="-72.515326"><ele>356.0</ele></trkpt>
<trkpt lat="-36.267795" lon="-72.515425"><ele>356.0</ele></trkpt>
<trkpt lat="-36.267778" lon="-72.515516"><ele>356.0</ele></trkpt>
<trkpt lat="-36.267766" lon="-72.515599"><ele>356.0</ele></trkpt>
<trkpt lat="-36.267745" lon="-72.515664"><ele>356.0</ele></trkpt>
<trkpt lat="-36.267759" lon="-72.515744"><ele>356.0</ele></trkpt>
<trkpt lat="-36.267780" lon="-72.515815"><ele>356.0</ele></trkpt>
<trkpt lat="-36.267790" lon="-72.515882"><ele>356.0</ele></trkpt>
<trkpt lat="-36.267810" lon="-72.515926"><ele>356.0</ele></trkpt>
<trkpt lat="-36.267759" lon="-72.516014"><ele>356.0</ele></trkpt>
<trkpt lat="-36.267757" lon="-72.516053"><ele>356.0</ele></trkpt>
<trkpt lat="-36.267750" lon="-72.516070"><ele>356.0</ele></trkpt>
<trkpt lat="-36.267781" lon="-72.516084"><ele>356.0</ele></trkpt>
<trkpt lat="-36.267850" lon="-72.516116"><ele>356.0</ele></trkpt>
<trkpt lat="-36.267889" lon="-72.516154"><ele>356.0</ele></trkpt>
<trkpt lat="-36.267957" lon="-72.516272"><ele>356.0</ele></trkpt>
<trkpt lat="-36.268010" lon="-72.516291"><ele>356.0</ele></trkpt>
<trkpt lat="-36.268076" lon="-72.516311"><ele>356.0</ele></trkpt>
<trkpt lat="-36.268131" lon="-72.516326"><ele>356.0</ele></trkpt>
<trkpt lat="-36.268197" lon="-72.516369"><ele>356.0</ele></trkpt>
<trkpt lat="-36.268255" lon="-72.516396"><ele>356.0</ele></trkpt>
<trkpt lat="-36.268304" lon="-72.516429"><ele>356.0</ele></trkpt>
<trkpt lat="-36.268321" lon="-72.516458"><ele>356.0</ele></trkpt>
<trkpt lat="-36.268342" lon="-72.516470"><ele>356.0</ele></trkpt>
<trkpt lat="-36.268349" lon="-72.516459"><ele>356.0</ele></trkpt>
<trkpt lat="-36.268344" lon="-72.516460"><ele>356.0</ele></trkpt>
<trkpt lat="-36.268341" lon="-72.516470"><ele>356.0</ele></trkpt>
<trkpt lat="-36.268344" lon="-72.516483"><ele>356.0</ele></trkpt>
<trkpt lat="-36.268348" lon="-72.516486"><ele>356.0</ele></trkpt>
<trkpt lat="-36.268361" lon="-72.516483"><ele>356.0</ele></trkpt>
<trkpt lat="-36.268394" lon="-72.516467"><ele>356.0</ele></trkpt>
<trkpt lat="-36.268433" lon="-72.516460"><ele>356.0</ele></trkpt>
<trkpt lat="-36.268483" lon="-72.516438"><ele>356.0</ele></trkpt>
<trkpt lat="-36.268539" lon="-72.516429"><ele>356.0</ele></trkpt>
<trkpt lat="-36.268591" lon="-72.516434"><ele>356.0</ele></trkpt>
<trkpt lat="-36.268644" lon="-72.516476"><ele>356.0</ele></trkpt>
<trkpt lat="-36.268698" lon="-72.516499"><ele>356.0</ele></trkpt>
<trkpt lat="-36.268748" lon="-72.516508"><ele>356.0</ele></trkpt>
<trkpt lat="-36.268801" lon="-72.516505"><ele>318.0</ele></trkpt>
<trkpt lat="-36.268852" lon="-72.516531"><ele>318.0</ele></trkpt>
<trkpt lat="-36.268912" lon="-72.516564"><ele>318.0</ele></trkpt>
<trkpt lat="-36.268982" lon="-72.516578"><ele>318.0</ele></trkpt>
<trkpt lat="-36.269034" lon="-72.516595"><ele>318.0</ele></trkpt>
<trkpt lat="-36.269078" lon="-72.516643"><ele>318.0</ele></trkpt>
<trkpt lat="-36.269114" lon="-72.516688"><ele>314.0</ele></trkpt>
<trkpt lat="-36.269133" lon="-72.516736"><ele>314.0</ele></trkpt>
<trkpt lat="-36.269150" lon="-72.516777"><ele>314.0</ele></trkpt>
<trkpt lat="-36.269168" lon="-72.516918"><ele>314.0</ele></trkpt>
<trkpt lat="-36.269193" lon="-72.517004"><ele>314.0</ele></trkpt>
<trkpt lat="-36.269237" lon="-72.517081"><ele>314.0</ele></trkpt>
<trkpt lat="-36.269266" lon="-72.517173"><ele>314.0</ele></trkpt>
<trkpt lat="-36.269290" lon="-72.517239"><ele>314.0</ele></trkpt>
<trkpt lat="-36.269325" lon="-72.517316"><ele>314.0</ele></trkpt>
<trkpt lat="-36.269351" lon="-72.517370"><ele>314.0</ele></trkpt>
<trkpt lat="-36.269384" lon="-72.517422"><ele>314.0</ele></trkpt>
<trkpt lat="-36.269417" lon="-72.517473"><ele>314.0</ele></trkpt>
<trkpt lat="-36.269446" lon="-72.517536"><ele>314.0</ele></trkpt>
<trkpt lat="-36.269467" lon="-72.517602"><ele>314.0</ele></trkpt>
<trkpt lat="-36.269471" lon="-72.517662"><ele>314.0</ele></trkpt>
<trkpt lat="-36.269450" lon="-72.517725"><ele>314.0</ele></trkpt>
<trkpt lat="-36.269441" lon="-72.517798"><ele>314.0</ele></trkpt>
<trkpt lat="-36.269422" lon="-72.517864"><ele>314.0</ele></trkpt>
<trkpt lat="-36.269438" lon="-72.517939"><ele>314.0</ele></trkpt>
<trkpt lat="-36.269446" lon="-72.517980"><ele>314.0</ele></trkpt>
<trkpt lat="-36.269482" lon="-72.518047"><ele>314.0</ele></trkpt>
<trkpt lat="-36.269497" lon="-72.518109"><ele>314.0</ele></trkpt>
<trkpt lat="-36.269519" lon="-72.518154"><ele>314.0</ele></trkpt>
<trkpt lat="-36.269558" lon="-72.518211"><ele>314.0</ele></trkpt>
<trkpt lat="-36.269589" lon="-72.518304"><ele>314.0</ele></trkpt>
<trkpt lat="-36.269637" lon="-72.518375"><ele>314.0</ele></trkpt>
<trkpt lat="-36.269675" lon="-72.518440"><ele>314.0</ele></trkpt>
<trkpt lat="-36.269724" lon="-72.518489"><ele>314.0</ele></trkpt>
<trkpt lat="-36.269783" lon="-72.518511"><ele>314.0</ele></trkpt>
<trkpt lat="-36.269817" lon="-72.518513"><ele>314.0</ele></trkpt>
<trkpt lat="-36.269851" lon="-72.518519"><ele>314.0</ele></trkpt>
<trkpt lat="-36.269877" lon="-72.518526"><ele>314.0</ele></trkpt>
<trkpt lat="-36.269896" lon="-72.518518"><ele>314.0</ele></trkpt>
<trkpt lat="-36.269898" lon="-72.518556"><ele>314.0</ele></trkpt>
<trkpt lat="-36.269892" lon="-72.518570"><ele>314.0</ele></trkpt>
<trkpt lat="-36.269877" lon="-72.518575"><ele>314.0</ele></trkpt>
<trkpt lat="-36.269861" lon="-72.518569"><ele>314.0</ele></trkpt>
<trkpt lat="-36.269843" lon="-72.518555"><ele>314.0</ele></trkpt>
<trkpt lat="-36.269812" lon="-72.518528"><ele>314.0</ele></trkpt>
<trkpt lat="-36.269805" lon="-72.518542"><ele>314.0</ele></trkpt>
<trkpt lat="-36.269799" lon="-72.518546"><ele>314.0</ele></trkpt>
<trkpt lat="-36.269801" lon="-72.518539"><ele>314.0</ele></trkpt>
<trkpt lat="-36.269818" lon="-72.518558"><ele>314.0</ele></trkpt>
<trkpt lat="-36.269830" lon="-72.518562"><ele>314.0</ele></trkpt>
<trkpt lat="-36.269836" lon="-72.518588"><ele>314.0</ele></trkpt>
<trkpt lat="-36.269838" lon="-72.518601"><ele>314.0</ele></trkpt>
<trkpt lat="-36.269850" lon="-72.518609"><ele>314.0</ele></trkpt>
<trkpt lat="-36.269858" lon="-72.518595"><ele>314.0</ele></trkpt>
<trkpt lat="-36.269851" lon="-72.518582"><ele>314.0</ele></trkpt>
<trkpt lat="-36.269845" lon="-72.518576"><ele>314.0</ele></trkpt>
</trkseg></trk>
</gpx>